"address","categoryName","phone","postalCode","reviewsCount","state","title","website"
"Mahavir Nagar, Kandivali West, Mumbai, Maharashtra 400067, India","Baby store","+91 97694 07640","400067","43","Maharashtra","Baby boutique","http://www.babyboutiqemumbai.com/"
"metro station On, New Link Rd, Kandivali, Pragati Society, At, Kandivali West, Mumbai, Maharashtra 400067, India","Baby store","+91 93244 26042","400067","651","Maharashtra","Firstcry.com Store Mumbai Kandivali","http://www.firstcry.com/"
"Shop No 2, Bindiya Society, Ramdas Nayak Marg, Hill Rd, Bandra West, Mumbai, Maharashtra 400050, India","Baby store","+91 91671 66166","400050","45","Maharashtra","Baby Touch",
"Shop No 4, Ahimsa Marg, off New Link Road, Malad, Chincholi Bunder, Malad West, Mumbai, Maharashtra 400064, India","Baby store","+91 70459 22618","400064","48","Maharashtra","Sunera",
"Yogi Prabhat bldg, D/8, 91, Yogi Nagar, Borivali, Mumbai, Maharashtra 400091, India","Surgical supply store","+91 90821 95552","400091","68","Maharashtra","Khodiyar Enterprise",
"Shop No. 5, Kasturba, Cross Road No. 3, near Sai Dham Temple, Chinchpada, Borivali East, Mumbai, Maharashtra 400066, India","Baby store","+91 84519 56440","400066","423","Maharashtra","Asfiya Enterprises",
"Koyana Apartments, Sant Dnyaneshwar Rd, Shantivan, Sri Krishna Nagar, Borivali East, Mumbai, Maharashtra 400066, India","Baby store",,"400066","0","Maharashtra","Beauty Mums & Babies",
"Shop No. 5, Munisuvrat Apartment, Mathuradas Road, Kandivali, Bhagat Colony, Kandivali West, Mumbai, Maharashtra 400067, India","Baby store","+91 91360 03602","400067","0","Maharashtra","New Baby N Beauty",
"Kandivali, Laljipada, Ganesh Nagar, Kandivali West, Mumbai, Maharashtra 400067, India","Baby store",,"400067","15","Maharashtra","Shourya Diaper Point",
"91, Galleria shopping, Main St, Hiranandani Gardens, Panchkutir Ganesh Nagar, Powai, Mumbai, Maharashtra 400076, India","Baby store","+91 99876 44736","400076","0","Maharashtra","Kaddly the little baby shop","https://www.facebook.com/kaddly/"
"Shop no. 8, manek nagar, opp.Merwans cake shop Gulmohar Rd, Cross, Lokmanya Tilak Rd, Borivali West, Mumbai, Maharashtra 400092, India","Baby store","+91 91360 03603","400092","35","Maharashtra","Baby N Beauty",
"17 B/A-606, Ganga CHS, Sangharsh Nagar, Chandivali, Powai, Mumbai, Maharashtra 400072, India","Baby store",,,"1",,"Raj Enterprises",
"gate 4, Gala no 17AB, Naupada Road, Lane, nr. Al Quba Tower, next to Naaz Hotel, Mumbai, Maharashtra 400070, India","Children's store","+91 99676 32355","400070","0","Maharashtra","PiK A BOO","http://pikabooindia.com/"
"12, Sangeet Samrat Naushad Ali Rd, sherly village, Bandra West, Mumbai, Maharashtra 400050, India","Hygiene articles wholesaler","+91 88797 25134","400050","13","Maharashtra","Diaper King",
"Nand Dham Industrial Estate, Marol Maroshi Rd, Gamdevi, Marol, Andheri East, Mumbai, Maharashtra 400059, India","E-commerce service","+91 99451 00007","400059","167","Maharashtra","KidsCity.in","http://www.kidscity.in/"
"Shop no7, Dosti Heritage D'Souza Nagar, 90 Feet Rd, kurla(W, Saki Naka, Mumbai, Maharashtra 400072, India","Baby store","+91 98200 77736","400072","6","Maharashtra","Baby care diaper enterprises",
"Gr Floor, C&B Square, Sangam Complex, 127, Andheri - Kurla Rd, Dr. Charatsingh Colony, S B Singh Colony, J B Nagar, Andheri (E, Mumbai, Maharashtra 400059, India","Baby store","+91 99875 49314","400059","23","Maharashtra","Tots & Bubbles","https://totsandbubbles.com/"
"1st Floor, PHOENIX MARKETCITY, No F 64, Lal Bahadur Shastri Marg, Patelwadi.Kurla, Kurla West, Kurla, Mumbai, Maharashtra 400070, India","Baby store","+91 80 4495 3389","400070","0","Maharashtra","Me N Moms Phoenix Marketcity, Kurla, Mumbai","https://www.menmoms.in/"
"Shop Number 1, Next Bhagwan Collection, Bazar, Santacruz Railway Station Rd, Willingdon, Santacruz (West), Navi Mumbai, Mumbai, Maharashtra 400054, India","Clothing store","+91 79000 01471","400054","68","Maharashtra","Gunjan New Born Baby & kids Wear",
"Shop Number 93, Galleria Shopping Mall, Hiranandani Gardens, Panchkutir Ganesh Nagar, Powai, Mumbai, Maharashtra 400076, India","Baby store","+91 98200 61502","400076","0","Maharashtra","Little Baby","https://www.instagram.com/littlebabypowai"
"Shop No.1, Siddhachal Arcade, New Link Rd, Malad West, Mumbai, Maharashtra 400064, India","Baby store","+91 96070 08406","400064","649","Maharashtra","Babyhug Store Mumbai Malad","http://www.firstcry.com/"
"Bhageshri Niwas, 227/C, Ground Floor, 21st Road, Dan Pada, SB Patil Rd, Khar West, Maharashtra 400052, India","Hygiene articles wholesaler","+91 73046 46649","400052","0","Maharashtra","BonBon Products - Baby Diapers and Adult Diapers","https://bonbonindia.com/"
"Sai Aastha CHS, No. 9 & 10, SV Rd, opp. Vasundhara, Mulji Nagar, Borivali West, Mumbai, Maharashtra 400092, India","Baby store","+91 74004 39190","400092","526","Maharashtra","Me n Moms Baby Care and Kids Store in Borivali West","https://www.menmoms.in/"
"Shop no. 7, Matru Ashish CHSL, Chhatrapati Shivaji Rd, Krishna Colony, Dahisar East, Mumbai, Maharashtra 400068, India","Baby store","+91 96070 09022","400068","0","Maharashtra","Firstcry.com Factory Outlet Mumbai Dahisar","https://www.firstcry.com/?utm_source=gmb_optimization&utm_medium=organic&utm_campaign=gmb"
"Unit no sf 244 second floor Infiniti, Infiniti Malad, Malad, Mindspace, Malad West, Mumbai, Maharashtra 400064, India","Children's clothing store","+91 81699 79061","400064","36","Maharashtra","Adidas Kids Infinity Malad","https://www.adidas.co.in/kids"
"Shop No.1, 2 & 3, Kamdar Shopping Arcade, Tilak Road, next to Food Spot, Ghatkopar East, Mumbai, Maharashtra 400077, India","Baby store","+91 90292 02030","400077","492","Maharashtra","Innocence Infants & Kids","https://www.facebook.com/innocence.shilp"
"Maratha Colony Rd, Maratha Colony, Dahisar East, Mumbai, Maharashtra 400068, India","Baby store","+91 81696 21613","400068","49","Maharashtra","Dahisar Diaper House",
"43, Shimpoli Rd, Vivekanand Nagar, Borivali West, Mumbai, Maharashtra 400092, India","Baby clothing store",,"400092","2","Maharashtra","Baby Moo",
"Akshar Gully, B 701, Akshar Apt 2, Bldg, Hemukalani Cross Rd Number 3, behind Sai Raj Garden Apartment, Kandivali West, Mumbai, Maharashtra 400067, India","Baby store","+91 96196 80357","400067","92","Maharashtra","Strollers on Rent","https://strollers-on-rent.grexa.site/"
"Sarita Prabhat Industrial & Residential Complex, Sagar building, Gala Number 204, Western Urban Rd, near Toll Plaza, near CNG pump, Diamond Industrial Estate, Dahisar East, Mumbai, Maharashtra 400068, India","Baby clothing store","+91 93728 51546","400068","1087","Maharashtra","Knitroot India Pvt Ltd","https://www.knitroot.com/"
"Gokul Gagan Apartment, Factory Lane Road, opposite Ambaji Dham Temple, Mini Zaveri Bazaar, Shimpoli, Borivali, Mumbai, Maharashtra 400092, India","Baby store","+91 96070 09506","400092","1823","Maharashtra","Babyhug Store Mumbai Borivali",
"Shop No 26, G Sector 1, 2 Line, Line Road, Cheeta Camp, Trombay, Mumbai, Maharashtra 400088, India","Baby store","+91 96199 25775","400088","1","Maharashtra","A-1 Diapers",
"MY DIVINE Co-Operative Housing Society Limited CTS No.132/2, Shop No- GF- 01 & 02, Aziz Baug, Mahul, Marouli Village Rd, Chembur, Mumbai, Maharashtra 400074, India","Baby store","+91 86000 26447","400074","1540","Maharashtra","FirstCry.com Store Mumbai Chembur East","https://www.firstcry.com/"
"Surganga Chs Kandivali, 12, Charkop Gaon, Mumbai, Maharashtra 400067, India","Clothing store","+91 79774 91686","400067","138","Maharashtra","Baby Smile Kids",
"Shop No.1, Shivaji Chowk, Guru Gobind Singh Marg, Mulund Colony, Mulund West, Mumbai, Maharashtra 400082, India","Baby clothing store","+91 93720 51150","400082","10","Maharashtra","Nice Baby",
"115, Lake Rd, Bhandup, Sonapur, Bhandup West, W, Mumbai, Maharashtra 400078, India","Baby store","+91 22 2594 8641","400078","0","Maharashtra","Florite Baby Products","http://floritebaby.com/"
"First Floor, Central Ave Rd, opposite HDFC Bank, Chembur, Mumbai, Maharashtra 400071, India","Clothing store","+91 22 6845 3500","400071","166","Maharashtra","Fabindia, Chembur","https://www.fabindia.com/"
"Shop no 1, Silver pearl building 213, Lane, Waterfield Road, opp. Amarsons, Bandra West, Mumbai, Maharashtra 400050, India","Manufacturer","+91 98926 86101","400050","5","Maharashtra","Mohini Impex( Manufacturers of Newborn baby Garments and accessories)",
"PL Lokhande Marg, near hanuman mandir, Nagwadi, Rahul Nagar, Chembur, Mumbai, Maharashtra 400089, India","Baby store","+91 93236 04971","400089","29","Maharashtra","Milee fashion:- Baby Carry Nest|Baby Mattress Set|Baby Pillow Supplier, Manufacturer in Mumbai, Maharashtra",
"Shop Number 1, options fashion mall ,Vile Parle Shopping Centre Vaikunthal Mehta Road, Above Sahakari Bhandar, Vile Parle West, Juhu, Mumbai, Maharashtra 400049, India","Children's clothing store",,"400049","52","Maharashtra","BABY BELL",
"Akurli Rd, Kandivali, Akurli Industry Estate, Kandivali East, Mumbai, Maharashtra 400101, India","Baby store",,"400101","0","Maharashtra","BABY EQUIPMENT STORE",
"211, LOTUS BUSINESS PARK, Ram Baug Road, SV Rd, near Chincholi Naka, Malad West, Mumbai, Maharashtra 400064, India","Baby store","+91 87796 57853","400064","37","Maharashtra","Kiddicare - Premium Baby Wipes in india","https://www.kiddicare.co.in/"
"4Vcr+C8G Budhaya Jadhav Wadi, Saki Vihar Rd, Saki Vihar, Tunga Village, Marol, Powai, Mumbai, Maharashtra 400072, India","Baby store","+91 97689 01071","400072","5","Maharashtra","Zeeshan Super Diaperss",
"R1, Ekta chawal, Chaitanya Nagar, Iit Market, Powai, Mumbai, Maharashtra 400076, India","Baby store","+91 88792 45806","400076","4","Maharashtra","Baby shine Creation",
"Khan Abdul Majid Marg, Vinobha Bhave Nagar, Kurla West, Kurla, Mumbai, Maharashtra 400070, India","Baby store","+91 91175 10046","400070","0","Maharashtra","Miyan Store",
"PRAMILA KUTIR, 3/504, New Mill Rd, nr. Mansi Aprt, BMC Colony, Kurla West, Kurla, Mumbai, Maharashtra 400070, India","Children's clothing store","+91 98213 29868","400070","0","Maharashtra","Baba Baby",
"2, Mahatma Gandhi Rd, opp. Datta Mandir, Motilal Nagar, Goregaon West, Mumbai, Maharashtra 400104, India","Toy store","+91 98703 88448","400104","658","Maharashtra","Bhavya Toys",
"1st Floor, PHOENIX MARKETCITY, Shop No F, 35B & 36, Lal Bahadur Shastri Marg, Kurla, Mumbai, Maharashtra 400070, India","Toy store","+91 70816 32328","400070","1933","Maharashtra","Hamleys- The finest toy shop in the world","https://stores.hamleys.in/hamleys-the-finest-toy-shop-in-the-world-toy-shop-kurla-mumbai-433026/Home"
"Shop No.4, Lal Bahadur Shastri Marg, opp. Sheetal Cinema, Kurla West, Kurla, W, Mumbai, Maharashtra 400070, India","Baby clothing store","+91 98205 39946","400070","18","Maharashtra","Kids Zone",
"3RJR+27W Noor baby diaper, Willingdon, santacruz (w, Mumbai, Maharashtra 400054, India","Baby store",,,"0",,"Santacruz west",
"Bhatti Pada Rd, Battipada, Bhandup West, Mumbai, Maharashtra 400078, India","Children's clothing store","+91 97571 13515","400078","40","Maharashtra","Sundaram Readymade New Born And Kids Wear, Bhandup, Mumbai",
"Shop No 61, House, Hira Kumbhar Chawl, Sg Barve Marg West, Kurla W Sta Rd, near Model Talkies, Kurla West, Mumbai, Maharashtra 400024, India","Baby store","+91 99202 76846","400024","0","Maharashtra","Baby Care",
"Building No. 14, Vaishali CHS, Shop no12, opposite Shayadri Ground, Tilak Nagar, Kurla, Mumbai, Maharashtra 400089, India","Baby clothing store",,"400089","9","Maharashtra","Cuddles Babies & Kids wear",
"First Floor, Kannada Welfare Society, next to Sunil Restaurant & Bar, behind 90 Feet Road, Railway Police Colony, Ghatkopar East, Mumbai, Maharashtra 400075, India","Baby clothing store","+91 91377 97974","400075","22","Maharashtra","Little Hatchlings","https://www.littlehatchlings.in/"
"Shop No 02 /12 Jayi Home Buddha Vikar Society, No 01, Kurla E, Mumbai, Maharashtra 400071, India","Baby store","+91 99209 68921","400071","0","Maharashtra","Kgn Diaper Depot",
"Nav Palmyra, 101, 21st Rd, Bandra West, Mumbai, Maharashtra 400050, India","Baby store","+91 96199 95004","400050","0","Maharashtra","BabyLu",
"3R8M+R8C, Sita Mahal, Opposite Khar Telephone Exchange, Linking Road, khar West, Mumbai, Maharashtra 400052, India","Children's clothing store","+91 22 2605 7407","400052","45","Maharashtra","Choose-N-Cherry Kids Wear",
"1st Floor, Durian Estate, A/106, Mulund - Goregaon Link Rd, Hanuman Tekdi, Goregaon, Mumbai, Maharashtra 400063, India","Store","+91 81690 90990","400063","85","Maharashtra","Ekaas Life","https://ekaaslife.com/"
"SHOP NO. 4 & 5 RAMDAS NAYAK MARG ( HILL, ROAD, Bandra West, Mumbai, Maharashtra 400050, India","Baby store","+91 99203 51772","400050","34","Maharashtra","DESIGN TOUCH",
"Shop No - F, Kamani, PHOENIX MARKETCITY, 63, Lal Bahadur Shastri Marg, Patelwadi.Kurla, Kurla West, Kurla, Mumbai, Maharashtra 400070, India","Children's clothing store","+91 22 4971 1409","400070","87","Maharashtra","Mothercare","https://www.mothercare.in/"
"Shop No.16, Road No. 19, Chembur Gaothan, Chembur, Mumbai, Maharashtra 400071, India","Baby store","+91 98678 44843","400071","28","Maharashtra","Festoons Nx - Little Details",
"108, Raheja Plaza, Off Veera Desai Rd, Industrial Area, Andheri West, Mumbai, Maharashtra 400053, India","Baby store",,"400053","0","Maharashtra","Windmill baby","https://windmillbaby.com/"
"Shop No. 1, Plot No. 18, Swami Vivekananda Rd, near Khar Masjid, Khar, Old, Khar West, Mumbai, Maharashtra 400052, India","Toy store","+91 99878 63642","400052","54","Maharashtra","Little Thumbs - The Toy Store","https://www.instagram.com/littlethumbs.in?igsh=MWQ3aDZocXV4ZHgxMg=="
"Gr-2, Josephine villa Josephine apartments, 44, St Andrews Rd, Bandra West, Mumbai, Maharashtra 400050, India","E-commerce service","+91 85913 85067","400050","1","Maharashtra","Cubkins Products Pvt Ltd","http://www.cubkins.com/"
"Lokhandwala Complex, Andheri West, Mumbai, Maharashtra 400053, India","Baby clothing store","+91 96198 23360","400053","17","Maharashtra","Aby Baby",
"Shop no 18, Linkway Estate, CTS no 1093, New Link Rd, near Greens Restaurant & Bata, behind Glass House, Malad, Ram Nagar, Malad West, Mumbai, Maharashtra 400064, India","Baby store","+91 83558 06874","400064","1","Maharashtra","Snowhite Baby Products",
"Shop No 302, Infinity Mall, New Link Rd, next to Goregaon Sports Club, Malad, Mindspace, Malad West, Mumbai, Maharashtra 400064, India","Baby clothing store","+91 93244 94084","400064","202","Maharashtra","Mothercare","https://stores.mothercare.in/mothercare-infiniti-malad-baby-clothes-malad-west-mumbai-298157/Home?utm_source=locator&utm_medium=googleplaces"
"Natraj Market, Shop No. 22 A,(1) Durga Galli, SV Rd, Malad West, Mumbai, Maharashtra 400064, India","Baby store","+91 99879 98426","400064","17","Maharashtra","Kanchan Kids-Baby Care products & Kids Wear In Malad Mumbai",
"Unit No 17, 2nd Flr, Jio World Drive Mall, Bandra Kurla Complex Rd, near MAKER MAXITY, Bandra Kurla Complex, Bandra East, Mumbai, Maharashtra 400051, India","Baby clothing store","+91 85914 04166","400051","206","Maharashtra","Mothercare","https://stores.mothercare.in/mothercare-jio-world-drive-baby-clothes-bandra-east-mumbai-298156/Home?utm_source=locator&utm_medium=googleplaces"
"Shop No. A/12, Natraj Market, SV Rd, Malad, Vijaykar Wadi Industrial, Vijaykar Wadi, Malad West, Mumbai, Maharashtra 400064, India","Baby store",,,"35",,"Mom's Baby",
"Shop No. 1, Teresa Triumph CHS, opp. blue fox hotel, beside Sukhdayak Society, Bamanpuri, J.B. Nagar, J B Nagar, Andheri East, Mumbai, Maharashtra 400059, India","Baby clothing store","+91 72081 95597","400059","97","Maharashtra","MABEL BABY STORE",
"No. 3, 2/16 , Unnath Nagar, Mahatma Gandhi Rd, opp. Nutan Oil, Goregaon West, Mumbai, Maharashtra 400104, India","Baby store","+91 88798 47276","400104","16","Maharashtra","Mini world Baby Store",
"Shop No. 12 & 13, Ground Floor, Kothari Mall, Swami Vivekananda Rd, Malad, Vijaykar Wadi Industrial, Vijaykar Wadi, Malad West, Mumbai, Maharashtra 400064, India","Baby store","+91 98331 45929","400064","32","Maharashtra","Toddlerz Heaven",
"Samkeet Apartments, Sant, Sant Janabai Rd, off Hanuman Road, Navpada, Vile Parle East, Vile Parle, Mumbai, Maharashtra 400057, India","Baby store","+91 93244 91533","400057","38","Maharashtra","Kicks & Crawl","https://kicksandcrawl.com/"
"KABRA AURUM, B1501, 2, opp. Venus Charitable Trust's Joggers Park, Unnat Nagar, Goregaon West, Mumbai, Maharashtra 400104, India","Baby store","+91 93200 08055","400104","704","Maharashtra","HOOPA Baby Store","http://www.hoopa.in/"
"L.G.8, Vaishali Arcade, Vaikunthlal Mehta Rd, next to Options Fashion Mall, Yamuna Nagar, Nehru Nagar, JVPD Scheme, Juhu, Mumbai, Maharashtra 400049, India","Baby store","+91 98195 63662","400049","489","Maharashtra","Green Bell","http://greenbellonline.com/"
"shop no.2, pioneer heritage resi-2, Sane Guruji Rd, next to sane guruji school, Khira Nagar, Santacruz (West), Mumbai, Maharashtra 400054, India","Baby store","+91 99308 64735","400054","41","Maharashtra","SUPER KIDS",
"Shop No .18, Linkway Estate, New Link Rd, behind Hotel Green 's, next to Shakti Motors, Malad, Ram Nagar, Malad West, Mumbai, Maharashtra 400064, India","Baby store","+91 83558 06874","400064","83","Maharashtra","Pink Bunny Baby Store, Malad",
"Shop No 2, Marol Maroshi Rd, opp. Bhavani Nagar, Mahavir Nagar, Marol, Andheri East, Mumbai, Maharashtra 400059, India","Baby clothing store","+91 99673 50976","400059","59","Maharashtra","First Smile New Born Paradise",
"A, Agrawal Market, Shop no 3 Shyam Kamal, Tejpal Rd, opp. Dinanath Hall, Vile Parle East, Mumbai, Maharashtra 400057, India","Baby store","+91 91369 29928","400057","28","Maharashtra","BABIRO vile parle Mumbai","http://www.babiro.in/"
"Ground & First Floor, Rajyog Residency, Dr Rajendra Prasad Rd, Kadam Pada, Gavane Pada, Vardhman Nagar, Mulund West, Mumbai, Maharashtra 400080, India","Store","+91 96070 01730","400080","1341","Maharashtra","Babyhug Store Mumbai Mulund","http://www.firstcry.com/"
"shop no.1, vazvilla chs, I C Colony, Borivali West, Mumbai, Maharashtra 400103, India","Baby clothing store","+91 22 2893 5504","400103","0","Maharashtra","Baby's Choice",
"Cooperative Housing Society, Housing Society LTD, Shop No 19, D - Wing, Shyam Kamal Road, opposite Sahakari Bhandar, Agarwal Market, Vile Parle East, Mumbai, Maharashtra 400057, India","Baby store","+91 93722 52224","400057","25","Maharashtra","Baby Safari","https://www.instagram.com/baby_safari__"
"Upper Ground Floor - 13, Sainath Plaza, Mulund Railway Station, Patil's, Pandit Jawaharlal Nehru Rd, nr. Mulund West, Mulund West, Mumbai, Maharashtra 400080, India","Baby store","+91 91372 73838","400080","79","Maharashtra","Titapu, Baby & Kids Clothing Discount Store",
"Shop No.5, Supreme Madhukar Building, Shimpoli Rd, Kastur Park, Borivali West, Mumbai, Maharashtra 400092, India","Baby clothing store","+91 98197 14978","400092","15","Maharashtra","Valkan Fashion 4 Kids",
"2, Jagdish Shetty Rd, Kandivali, Ekta Nagar, Kandivali West, Mumbai, Maharashtra 400067, India","Baby clothing store","+91 88793 90081","400067","3","Maharashtra","New fashion point",
"Sapphire Heights, Akurli Rd, Kandivali, Green Hills, Lokhandwala Twp, Kandivali East, Mumbai, Maharashtra 400101, India","Baby store","+91 89289 11801","400101","41","Maharashtra","KinderCanteen",
"shop no 9, gemini bulilding, Marve Rd, near st judes school paly ground, Malad, Divya Park, Jankalyan Nagar, Malad West, Mumbai, Maharashtra 400097, India","Children's clothing store","+91 90049 06182","400097","25","Maharashtra","Lil fly kids and new born shop",
"Shantinath Shopping Centre, SV Rd, Malad, Navy Colony, Mamledarwadi, Malad West, Mumbai, Maharashtra 400064, India","Baby clothing store","+91 96191 82323","400064","20","Maharashtra","Tiny Trends","http://www.twothree.in/"
"Shop no.8, Shiv Shrushti, New Link Rd, opp. Nirman Diagnostic centre, Kandivali, Satya Nagar, Kandivali West, Mumbai, Maharashtra 400067, India","Toy store","+91 72728 84747","400067","914","Maharashtra","Maru Collection","http://marucollection.com/"
"B-105, Farid Estate Rd, Kandivali, Thakur Village, Kandivali East, Mumbai, Maharashtra 400101, India","Baby store","+91 74002 29966","400101","29","Maharashtra","Dumbledo","https://www.dumbledo.com/"
"Shop no. 15, Navrang wadi, Akurli Rd, Hanuman Nagar, Kandivali East, Mumbai, Maharashtra 400101, India","Baby clothing store",,"400101","4","Maharashtra","Om kids wear",
"Shop No.47 Ground Floor, Centrium Mall, opp. Mahada no.1, Kandivali, MHADA Colony, Lokhandwala Twp, Kandivali East, Mumbai, Maharashtra 400101, India","Baby clothing store","+91 74004 81757","400101","25","Maharashtra","The Jaksh Baby Kids Wear",
"Lalji Shopping Centre, 12-13, Swami Vivekananda Rd, Gyan Nagar, Borivali West, Mumbai, Maharashtra 400092, India","Children's clothing store","+91 22 2898 0883","400092","86","Maharashtra","Variety Kids",
"Shop no 2, A, 02, Thakur Rd, opp. Thakur cinema, Thakur, Thakur Village, Kandivali East, Mumbai, Maharashtra 400101, India","Baby clothing store","+91 99209 75154","400101","39","Maharashtra","Little Baby",
"Shukla Shopping Centre, Main Carter Rd, opposite 3rd carter road, Chinchpada, Borivali East, Mumbai, Maharashtra 400066, India","Children's clothing store","+91 98670 27450","400066","181","Maharashtra","The Little Rabbits","https://d-thelittlerabbits.dotpe.in/"
"CHANDAWARKAR ROAD, Raichura Cir, opp. JOYALIKKAS JWELLERS, next to BATA SHOP, Mumbai, Maharashtra 400092, India","Toy store","+91 83698 64543","400092","17","Maharashtra","LITTLE WONDER NX",
"Shop No 7, Shree Vallabh, Mathuradas Road, next to param gold, opp. lijat papad Kandivali, Kandivali, Bhagat Colony, W, Mumbai, Maharashtra 400067, India","Toy store","+91 81049 95709","400067","233","Maharashtra","House of Toys",
"Shop No. 4, Royal House, Mathuradas Road, below Kapol Bank, Kandivali, Bhagat Colony, Kandivali West, Mumbai, Maharashtra 400067, India","Baby store","+91 98706 26343","400067","0","Maharashtra","Born Baby",
"Shop Number 8, Dev Chhaya Building, Bharucha Rd, Maratha Colony, Dahisar East, Mumbai, Maharashtra 400068, India","Children's clothing store",,"400068","11","Maharashtra","Alpa Readymade Centre",
"Padam Kids, A-1102, Eksar Rd, behind Dr. Manish Batt, CKP Colony, Borivali West, Mumbai, Maharashtra 400091, India","Manufacturer","+91 80801 64616","400091","57","Maharashtra","Padam Kids","https://www.indiamart.com/padam-kids/"
"Shop No-19, 2A, HIGHWAY PARK, E-2, Asha Nagar Rd, Kandivali, Gokul Heven, Thakur Complex, Kandivali East, Mumbai, Maharashtra 400101, India","Baby clothing store","+91 98706 57070","400101","14","Maharashtra","Sakshi Baby",
"Shop 9 Tavas Shopping Centre, opposite Railway Station, Kandivali West, Mumbai, Maharashtra 400067, India","Baby store","+91 90824 92728","400067","36","Maharashtra","Kandivali Diaper Point",
"3V6X+6P4, 20a, Rd No. 1, near B.M.C Office, Chembur Gaothan, Chembur, Mumbai, Maharashtra 400071, India","Baby store",,"400071","11","Maharashtra","Little Angels",
"Kusum Bharti, No. 201 Gorai Jeevandhara CHS Limited, Dattapada Rd, opposite Tata Steel, Borivali East, Mumbai, Maharashtra 400066, India","Baby store","+91 93242 40347","400066","17","Maharashtra","ITSYYBOO",
"Rd No. 1, near Ambedkar Garden, Chembur Gaothan, Chembur, Mumbai, Maharashtra 400071, India","Baby store",,"400071","5","Maharashtra","Festoons (For New Borns to Toddlers)",
"Sitaram Niwas, 4, Rd No. 1, opposite BMC Office, Chembur Gaothan, Chembur, Mumbai, Maharashtra 400071, India","Clothing store","+91 85917 34477","400071","0","Maharashtra","Baby Kraft",
"Flat no 302, Shree Saraswati CHS, Bldg B-1, Subhash Nagar, Chembur, Mumbai, Maharashtra 400071, India","Baby store","+91 90828 14408","400071","99","Maharashtra","Little And Wise","http://www.littleandwise.in/"
"Sai Kiran Apartments, Central Aveneu Road, Dayanand Saraswati Rd, Mahadeo Wadi, Chembur, Mumbai, Maharashtra 400071, India","Baby store","+91 86527 67395","400071","18","Maharashtra","Tiny Tots",
"Shop No.6 Laxmi Market, N.G.Acharya Marg, Station Road, Chembur, Acharya Marg, Chembur Gaothan, Chembur East, Mumbai, Maharashtra 400071, India","Baby clothing store","+91 75060 15761","400071","1","Maharashtra","Sunder Stores",
"Shop no.3, Bldg, RB Mehta Marg, opp. Sweet County, Pant Nagar, Ghatkopar East, Mumbai, Maharashtra 400077, India","Toy store","+91 73041 85626","400077","125","Maharashtra","Blue Tango Infants & Toys Store","https://www.bluetango.in/"
"Shop No-12, Jalaram Nagar No-3, V B Lane, Ghatkopar(E), Mumbai, Maharashtra 400077, India","Baby clothing store","+91 98690 67969","400077","27","Maharashtra","Natkhat",
"Shop No.03, Zaver Mahal, RB Mehta Marg, Pant Nagar, Ghatkopar East, Mumbai, Maharashtra 400077, India","Children's store","+91 98339 25575","400077","272","Maharashtra","Blue Tango Toys Gifts and Novelty Store","http://www.bluetango.in/"
"Santacruz Railway Station Rd, near DINAR BUILDING, opposite Keravala Lodge, Navin Nagar, Willingdon, Santacruz (West), Mumbai, Maharashtra 400054, India","Baby store","+91 99679 58204","400054","5","Maharashtra","ALIZA DIAPERS",
"Media Complex, St Paul, 24th Road, Bandra West, Mumbai, Maharashtra 400050, India","Children's store","+91 99872 91674","400050","39","Maharashtra","Pinklay Kids","https://www.pinklay.com/"
"Shop Number 3, Nari Seva Sadan Rd, Asalpha village, Ghatkopar West, Mumbai, Maharashtra 400084, India","Baby store","+91 99876 41437","400084","2","Maharashtra","Aadi Baby Care",
"nursing home, G5, swastik Chambers, Pipe Line Rd, below Kurla, Kurla West, Mumbai, Maharashtra 400070, India","Toy store","+91 70478 74787","400070","63","Maharashtra","ZIZI TOYS","https://mybillbook.in/store/zizi_toys"
"Shop no 41, Dwarka Building, no3, Station Road, near Nityanand hotel, MHADA Colony, Pant Nagar, Ghatkopar East, Mumbai, Maharashtra 400077, India","Baby store",,,"6",,"AAI Agency wholesale diaper.",
"opp. City Plaza, next to Dinar Building, Bajaj Wadi, Railway Colony, Santacruz (West), Mumbai, Maharashtra 400054, India","Baby store","+91 99679 58204","400054","3","Maharashtra","54 Kids Street",
"Road No. 14, Indra Nagar, Indira Nagar, Baiganwadi, Govandi East, Mumbai, Maharashtra 400043, India","Baby clothing store","+91 95946 84387","400043","1","Maharashtra","Sony Diaper",
"SHOP NO 5 , BUILDING NO 1, bellona, 90 Feet Rd, near SHIVAJI TECHNICAL SCHOOL, Pant Nagar, Ghatkopar East, Mumbai, Maharashtra 400075, India","Baby clothing store","+91 99693 60452","400075","4","Maharashtra","KIDORRAH","https://www.kidorrah.com/"
"Shop No.26, Bhairav Bazar, Narayan Gajanan Acharya Marg, opposite Laxmi Market, Chembur Gaothan, Chembur, Mumbai, Maharashtra 400071, India","Clothing store","+91 80804 40445","400071","29","Maharashtra","Mini Moon Children's Wear",
"193, CG Rd, Chembur Colony, Indira Nagar, Chembur - 74, Mumbai, Maharashtra 400074, India","Children's clothing store","+91 98678 81566","400074","18","Maharashtra","Cotton Stock Kid's Wear","http://www.instagram.com/cottonstockkidswear"
"Office No. 503, Signature Business Park, Postal Colony, Chembur, Mumbai, Maharashtra 400071, India","Baby store","+91 91676 84171","400071","9","Maharashtra","Coos N Babbles","https://www.coosnbabbles.com/"
"MEHBOOB E SUBHANI MASJID, 250 BHALEKAR WADI, New Mill Rd, beside MADINA HOTEL, Kurla West, Mumbai, Maharashtra 400070, India","Baby store","+91 78604 04303","400070","454","Maharashtra","Kohinoor Enterprises diaper disposable",
"Plot N40, Road No. 6, Govandi Slums, Rafiq Nagar, Shivaji Nagar, Mumbai, Maharashtra 400043, India","Baby store","+91 80700 40821","400043","0","Maharashtra","Store",
"Plot no 54, Pereira House, 6 T.P.S Road, Old Khar, Khar West, Mumbai, Maharashtra 400052, India","Baby clothing store","+91 22 2646 1231","400052","142","Maharashtra","Lala House",
"Ground floor, UG 008, Parekh Road, Malad West, Mumbai, Maharashtra 400064, India","Children's clothing store","+91 98926 46167","400064","3","Maharashtra","Baby Mall",
"340, 1st Hasnabad Ln, Willingdon, Santacruz (West), Mumbai, Maharashtra 400054, India","Baby store","+91 98198 93280","400054","13","Maharashtra","Value Store",
"Shop No 2, Building No 10, Manshanti CHS, Shell Colony Rd, near Bandra Chowk, Sahakar Nagar1, Shell Colony, Sahakar Nagar, Chembur, Mumbai, Maharashtra 400071, India","Cake shop","+91 97735 59857","400071","274","Maharashtra","KIDSS Cake Factory",
"Basant Garden, Chembur, Mumbai, Maharashtra 400071, India","Toy store","+91 81041 25204","400071","3","Maharashtra","Bobtail","http://www.bobtail.in/"
"Shop No.05, Tilaknagar market, opp. Level 6 Gym, opp. Enrich salon, Chembur West, Tilak Nagar, Kurla, Mumbai, Maharashtra 400089, India","Lingerie store","+91 90296 37361","400089","54","Maharashtra","Ambika Store","http://ambikastore.com/"
"Govandi Slums, Gajanand Colony, Lotus Colony, Govandi East, Mumbai, Maharashtra 400043, India","Baby store","+91 63592 42706","400043","0","Maharashtra","Ananya",
"Shop No.5, Ground Floor, Green Acres, off Anurag Building, Panjrapole, Borla, Naka, Chembur, Mumbai, Maharashtra 400088, India","Health food store","+91 87678 01982","400088","73","Maharashtra","Naturally Yours","https://naturallyyours.in/"
"Shop N2, Vidy Bar, Sai Baba Mandir, Plot N21, Rafiq Nagar Rd, Govandi Slums, Rafiq Nagar, Govandi East, Mumbai, Maharashtra 400043, India","Baby store","+91 99872 05226","400043","0","Maharashtra","Rubeena Store",
"Plot No 32, near Tayyeba Masjid, Govandi Slums, Govandi West, Baiganwadi, Govandi East, Mumbai, Maharashtra 400043, India","Baby store","+91 98215 03981","400043","0","Maharashtra","Pari Diaper House",
"shop no 1, Navdurga Apartments, BS Devashi Marg, opp. lakme company, Best Colony, Govandi East, Mumbai, Maharashtra 400088, India","Grocery store","+91 98191 09090","400088","124","Maharashtra","Aayushi Super Shoppy",
"Shop N0 12, Bismillah Masjid, Plot N0 29, C Line, Rafiq Nagar, Shivaji Nagar, Mumbai, Maharashtra 400043, India","Baby store","+91 77108 63984",,"0",,"Asif Store",
"Shop No.96, KN Gaikwad Marg, Siddharth Colony, Postal Colony, Chembur, Mumbai, Maharashtra 400071, India","General store","+91 78219 19728","400071","70","Maharashtra","Maya Mart",
"Room No 32, H Block, Sai Baba Masjid, Shop No 12, Rafiq Nagar, Govandi East, Mumbai, Maharashtra 400043, India","Baby store","+91 93244 29069","400043","0","Maharashtra","Lal Babu Store",
"L,2, Plot no 44, Road No. 3, Govandi(W), Govandi West, Raman Mama Nagar, Shivaji Nagar, Mumbai, Maharashtra 400043, India","Baby store",,,"1",,"Baby Dry",
"Shop no. 6, shilalaya shopping center, near Natraj cinema chembur (E, Chembur West, Chembur Gaothan, Chembur, Mumbai, Maharashtra 400071, India","Toy store","+91 83559 84097","400071","47","Maharashtra","Ronak Toys Emporium","https://chat.whatsapp.com/J732AmJlpoEBNBdHPESRCG"
"Part 2, Bab E, Rehmat Masjid, Govandi Rafi Nagar Part 2 Bab E Rehmat Masjid, Mumbai, Maharashtra 400043, India","Baby store","+91 87796 92355","400043","0","Maharashtra","Yahiya Store",
"h line/house, Rd Number 9, near Sunni Jana Masjid, Govandi Slums, Govandi West, Phase II, Shivaji Nagar, Mumbai, Maharashtra 400043, India","Baby store","+91 98333 90559","400043","1","Maharashtra","D.C BABY CARE",
"Shop 2, Buddhu Master Chawl, CST Road, next to NASHEMAN HOTEL, Kurla West, Kurla, Mumbai, Maharashtra 400070, India","Diaper service","+91 80970 03196","400070","129","Maharashtra","Diaper House",
"Shop no 1, God Colony, Besides, Nehru Nagar, SBI bank, Kanjurmarg East, Mumbai, Maharashtra 400042, India","Baby store","+91 90043 07595","400042","78","Maharashtra","Baby On Board","https://babyonboardtoys.com/"
"Shop no 5, Kanjurmarg Station Rd, MMRDA Colony, Ambedkar Nagar, Kanjurmarg West, Bhandup West, Mumbai, Maharashtra 400078, India","Baby store","+91 77382 42536","400078","0","Maharashtra","Kanjur Diaper House",
"Shop No 12, Ground Floor, Sanghvi Square, Mahatma Gandhi Rd, opp. Bank Of Baroda, Bhatwadi, Kapol wadi, Ghatkopar West, Mumbai, Maharashtra 400086, India","Children's store","+91 80802 11086","400086","252","Maharashtra","Kitty Kids Department Store","http://kittykids.catalog.to/"
"Shop No.2, Swami Vivekananda Rd, near McDonalds, CHSL, Jawahar Nagar, Goregaon West, Mumbai, Maharashtra 400104, India","Baby store","+91 93242 12981","400104","13","Maharashtra","Angels Island",
"BLOCK NO-15/1, ANUGRAH ,NETAJI ROAD, WEST, Mulund Colony, Mulund West, Mumbai, Maharashtra 400082, India","Baby clothing store","+91 99878 38990","400082","22","Maharashtra","Thakkar Enterprises","http://nuttybunny.in/"
"Ground floor, Ashirwad Building, Tagore Rd, Navyug Colony, Santacruz (West), Mumbai, Maharashtra 400054, India","School supply store","+91 96190 09600","400054","100","Maharashtra","School Essentials by (Suniti Enterprises) I Best School shoes Supplier dealer in mumbai I best School Essentials supplier","https://schoolessentials.co/"
"211, LOTUS BUSINESS PARK, Ram Baug Road, SV Rd, near Chincholi Naka, Malad West, Mumbai, Maharashtra 400064, India","Baby store","+91 87796 57853","400064","30","Maharashtra","Terra (Terragentle) - Premium Baby Wipes and Baby Products in India","https://www.terragentle.in/"
"Ground floor, Laxmi Business Park, B34, New Link Rd, Laxmi Industrial Estate, Suresh Nagar, Andheri West, Mumbai, Maharashtra 400053, India","Clothing store","+91 22 3521 6215","400053","16","Maharashtra","My Milestones - Brand Store","https://mymilestones.in/"
"7, BMC Colony, Jai Bhim Nagar, Dindoshi, Goregaon, Mumbai, Maharashtra 400065, India","Baby store","+91 97837 93407","400065","0","Maharashtra","Sunil",
"Shop No 5, Bilding DR2, Ram Mandir Rd, Mahatma Jyotiba Phule Nagar, Goregaon, Mumbai, Maharashtra 400104, India","Baby store","+91 98670 23230","400104","0","Maharashtra","M.R.pearfum",
"C-73, Pandit Jawaharlal Nehru Rd, near Make me smile, near Ma, Ramgad Nagar, Vishwakarma Nagar, Mulund West, Mumbai, Maharashtra 400080, India","Baby store","+91 92243 87596","400080","2","Maharashtra","Bharat Gupta",
"4th floor, Ijmima Complex, Shop no, 437/438, behind Infinity Mall, Malad West, Mumbai, Maharashtra 400064, India","Baby store","+91 88501 82834","400064","88","Maharashtra","Props Ka Pitara","https://www.propskapitara.com/"
"Shop No 5, Neelam, Bori Colony, Vijay Nagar Colony West, Marol, Andheri East, Mumbai, Maharashtra 400059, India","Baby store","+91 98679 57509","400059","1","Maharashtra","Arifa Fast Food",
"Ram Mandir, R 12, Ram Mandir Rd, Mahatma Jyotiba Phule Nagar, Jogeshwari West, Mumbai, Maharashtra 400104, India","Baby store","+91 79000 03116","400104","0","Maharashtra","New Lakshmi Store",
"H8, 37, Dindoshi BMC Colony, Gen, General Arun Kumar Vaidya Marg, Goregaon, Mumbai, Maharashtra 400065, India","Supermarket","+91 90040 91607","400065","14","Maharashtra","Modern Baniya Mart",
"Shop No 41, opp. Al baik, near Bismillah Bakery, Squatters Colony, New Collector Compound, Malvani, Malad West, Mumbai, Maharashtra 400095, India","Clothing store","+91 95944 27676","400095","8","Maharashtra","Baby Planet Diaper Hub",
"Shop No 4, Bmc Market, Near, Staion, SV Patel Nagar, Andheri West, Mumbai, Maharashtra 400053, India","Baby store",,,"0",,"Royal daipers",
"SHOP NO.4, Pump House, MUMMAS CHOICE, Jijamata Rd, C-Wing, Hanjer Nagar, CHOWK, Andheri East, Mumbai, Maharashtra 400093, India","Gift shop","+91 93211 13204","400093","1271","Maharashtra","MUMMAS CHOICE BEST GIFT SHOP | HOUSEHOLD PRODUCTS","http://www.mummaschoice.in/"
"No 1, Renuka Mata Mandir, Shop No 122, Bhagat Singh II, Goregaon West, Mumbai, Maharashtra 400104, India","Baby store","+91 81080 67804","400104","0","Maharashtra","DG Imitation Shop",
"Shop No15 Room No H Line Govandi Shivaji Nagar Road No 2 Plot No26, Shivaji Nagar, Mumbai, Maharashtra 400043, India","Baby store","+91 77386 37384","400043","0","Maharashtra","Shamshad Store",
"1ST FLOOR, Infiniti Mall, Phase D, Oshiwara, Andheri West, Mumbai, Maharashtra 400053, India","Shopping mall","+91 77382 82421","400053","5","Maharashtra","Max","https://stores.maxfashion.in/max-andheri-west-shopping-centre-andheri-west-mumbai-289933/Home?utm_source=locator&utm_medium=googleplaces"
"Singh Compound, Shop No.8, Navpada Rd, near Nandu Wafer, opp. Ajit Glass Road, Behram Baug, Jogeshwari West, Mumbai, Maharashtra 400102, India","Baby store","+91 90825 32545","400102","0","Maharashtra","Md Wakil",
"Govardhan Giri, Bangur Nagar, Goregaon West, Mumbai, Maharashtra 400104, India","Baby clothing store","+91 90820 64203","400104","2","Maharashtra","Little Lin Store","http://www.littlelin.store/"
"Govandi Slums, Rafiq Nagar, Shivaji Nagar, Mumbai, Maharashtra 400043, India","Baby store","+91 97027 01392","400043","0","Maharashtra","MUDSAR SHAIKH",
"Sabale Nagar, Kurla, Mumbai, Maharashtra 400024, India","Baby store","+91 84519 94831","400024","0","Maharashtra","Shree Hari General Store",
"214, Nirman Industrial Estate, New Link Rd, Malad, Ram Nagar, Malad West, Mumbai, Maharashtra 400064, India","Maternity store","+91 70456 47870","400064","98","Maharashtra","MomToBe - Maternity wear and essentials head office","http://www.momtobe.in/"
"Lower Ground Floor, City Mall Phoneix Market, LBS Rd, Sunder Baug Ln, Kurla West, Mumbai, Maharashtra 400070, India","Shopping mall","+91 99870 80907","400070","2222","Maharashtra","Max","https://stores.maxfashion.in/max-kamani-shopping-centre-kamani-mumbai-105521/Home?utm_source=locator&utm_medium=googleplaces"
"Shop No19 S Block Room No57 Road No 5 Plot No29, Govandi Slums, Baiganwadi, Mumbai, Maharashtra 400043, India","Baby store","+91 91367 49906","400043","0","Maharashtra","Ramzan Store",
"25, Shop Kurla Raoad, Ambedkar Nagar, Kurla West, Kurla, Mumbai, Maharashtra 400070, India","Baby store","+91 89575 13710","400070","0","Maharashtra","Kuldeep General Shop",
"Shop No 1, Ghatkopar, Mumbai, Maharashtra 400086, India","Baby store","+91 73598 49154","400086","0","Maharashtra","Deepika Patel",
"Chimatpada, Marol Naka, Andheri East, Mumbai, Maharashtra 400059, India","Baby store","+91 95944 98244","400059","0","Maharashtra","Prakash Footwear",
"Roshan PAN Card Ration Shop, Ambedkar Marg, Vidyavihar, Mumbai, Maharashtra 400077, India","Baby store",,,"0",,"Roshan PAN Card Ration Shop",
"Andheri - Ghatkopar Link Rd, Azad Nagar, Asalpha, Mumbai, Maharashtra 400086, India","Baby store",,,"0",,"Mehboob Mashak Patel",
"Kalina Kurla Rd, Kolivery Village, Shastri Nagar, Kalina, Kurla, Mumbai, Maharashtra 400029, India","Baby store","+91 98670 09860","400029","0","Maharashtra","Durjan Tea Shop",
"Govandi Slums, Govandi West, 1wu 2nd, Shivaji Nagar, Mumbai, Maharashtra 400043, India","Baby store","+91 98676 73931","400043","0","Maharashtra","MOH SUFIYAN",
"Shop No. 3, Royal Arcade, Building No. 21, Mada Complex Opp. Jal Vayu, MHADA Colony 20, Powai, Mumbai, Maharashtra 400076, India","Supermarket",,"400076","426","Maharashtra","Bhakti Supermarket",
"High St, Hiranandani Gardens, Powai, Mumbai, Maharashtra 400076, India","Baby store",,,"0",,"Rajendra Kirana Store",
"10-A, Orchard Ave, Hiranandani Gardens, Powai, Mumbai, Maharashtra 400076, India","Supermarket","+91 22 3340 0500","400076","21474","Maharashtra","DMart Powai","http://www.dmartindia.com/"
"Phase 2, Max Retail Devision, No F 39, 1st Floor, R City Mall, Lal Bahadur Shastri Marg, Mumbai, Maharashtra 400086, India","Shopping mall","+91 73044 15492","400086","3473","Maharashtra","Max","https://stores.maxfashion.in/max-r-city-ghatkopar-shopping-centre-lbs-road-mumbai-105526/Home"
"Main Market, shop no 8 anver ali batliwala chawl, Kalina Kurla Rd, Kalina, Santacruz East, Mumbai, Maharashtra 400098, India","Cell phone store","+91 93228 08999","400098","550","Maharashtra","Soni Collection",
"First Floor, R City Mall, Unit No F, 23 A, Lal Bahadur Shastri Marg, Ghatkopar West, Mumbai, Maharashtra 400086, India","Clothing store","+91 22 6832 7508","400086","519","Maharashtra","Jockey Exclusive Store","https://stores.jockey.in/jockey-exclusive-store-ghatkopar-west-mumbai-37741/home?utm_source=GBP"
"203/204, Airport Rd, opp. Hotel Leela, Navpada, Marol, Andheri East, Mumbai, Maharashtra 400059, India","Equipment rental agency","+91 90049 98998","400059","274","Maharashtra","Bragpacker","http://www.bragpacker.com/"
"Shop No 133, Indira Nagar, Kalina Kurla Rd, opp. Lucky Restaurant, near Air India Colony, Kolivery Village, Kalina, Santacruz East, Mumbai, Maharashtra 400029, India","Furniture store","+91 93210 70478","400029","2","Maharashtra","Nakoda Furniture - Best Furniture Shop in Mumbai","https://wa.me/c/919320526428"
"Sho No. 2, opp. Satellite Glory, Andheri East, Mumbai, Maharashtra 400059, India","Baby store","+91 98198 47935","400059","0","Maharashtra","Ramesh Pan Shop",
"R City Mall, Lal Bahadur Shastri Marg, Amrut Nagar, Ghatkopar West, Mumbai, Maharashtra 400086, India","Department store","+91 79 6972 7779","400086","3849","Maharashtra","Shoppers Stop Ltd - R City Ghatkopar","https://store.shoppersstop.com/shoppers-stop-ltd-r-city-ghatkopar-department-stores-gathkopar-west-mumbai-436079/Home"
"Dynasty Business Park, A 504, Andheri - Kurla Rd, Vijay Nagar Colony, J B Nagar, Andheri East, Mumbai, Maharashtra 400059, India","Child care agency","+91 99675 50801","400059","0","Maharashtra","Safe Baby","http://www.safebaby.in/"
"Plot no. 115, Ground floor Guru Hargovindji Road S B Singh Colony, J.B. Nagar, Chakala, Andheri East, Mumbai, Maharashtra 400059, India","Car accessories store","+91 91672 75191","400059","0","Maharashtra","CAR N STYLE (Car Accessories & Seat Covers Shop)","http://www.carnstyle.in/"
"Ground Floor, Phoenix Marketcity, No G76, Lal Bahadur Shastri Marg, beside Max, Patelwadi.Kurla, Kurla West, Kurla, Mumbai, Maharashtra 400070, India","Health and beauty shop","+91 70393 50104","400070","198","Maharashtra","Himalaya Wellness Store - Kurla West, Mumbai","https://storelocator.himalayawellness.in/himalaya-wellness/mumbai/Kurla-West/himalaya-wellness-store-in-Kurla-West-mumbai--3LAcxM/home"
"Shop No2 G, Block Room, N28 Road N4, Govandi Slums, Baiganwadi, Shivaji Nagar, Mumbai, Maharashtra 400043, India","Baby store","+91 90821 96158","400043","0","Maharashtra","Mohammad Kamil Khan",
"PHOENIX MARKETCITY, Patelwadi.Kurla, Kurla West, Kurla, Mumbai, Maharashtra 400070, India","Home goods store",,,"2","Maharashtra","Haus & Kinder (Pheonix Mall Kurla)",
"Ikra Creation, Govandi Slums, Rafiq Nagar, Shivaji Nagar, Mumbai, Maharashtra 400043, India","Baby store","+91 83694 54806","400043","0","Maharashtra","Iqra Creation",
"rahmat masjid, Baba Nagar Rd, Rafiq Nagar, Shivaji Nagar, babe, Mumbai, Maharashtra 400043, India","Baby store","+91 98209 66137","400043","0","Maharashtra","Mohd Nabil Rizwan Shaikh",
"Nand Dham Industrial Estate, F-31, Marol Maroshi Rd, Gamdevi, Marol, Andheri East, Mumbai, Maharashtra 400059, India","Wholesaler","+91 74110 00010","400059","5","Maharashtra","SaSaSa International Private Limited","https://www.sasasa.in/"
"Shop No, Ghatkopar, Mumbai, Maharashtra 400086, India","Baby store","+91 97840 44531","400086","0","Maharashtra","Madhavi Reddy",
"shop no 1, Andheri - Ghatkopar Link Rd, TPS Colony, Ghatkopar West, Mumbai, Maharashtra 400086, India","Baby store","+91 73398 44697","400086","0","Maharashtra","payel mehta",
"Shop No 1, Andheri - Ghatkopar Link Rd, Pereira Wadi, Asalpha, Mumbai, Maharashtra 400072, India","Baby store",,,"0",,"Riya Reddy",
"Shop No 2, Bilal Masjid, Andheri - Ghatkopar Link Rd, Nair Wadi, Saki Naka, Mumbai, Maharashtra 400072, India","Baby store","+91 81081 40257","400072","0","Maharashtra","Link Cycles Shop Md Israr Malik",
"Plot N43, Road No. 3, Govandi Slums, Govandi West, Baiganwadi, Shivaji Nagar, Mumbai, Maharashtra 400043, India","Baby store","+91 90825 15345","400043","0","Maharashtra","Mohammad zaim",
"Aryan General Store, Ashok Nagar, Saki Naka, Mumbai, Maharashtra 400070, India","Baby store","+91 82912 25558","400070","2","Maharashtra","Sangeetadevi Bholanath Chaurasia",
"84, 670, Off, New Link Rd, Motilal Nagar III, Goregaon West, Mumbai, Maharashtra 400104, India","Toy store","+91 72082 04541","400104","62","Maharashtra","Anas Souq","https://www.anassouq.com/"
"Gate No 26, Chhatrapati Shivaji Maharaj International Airport Mumbai, Terminal 1 Departure, Near, Domestic Arpt Rd, Mumbai, Maharashtra 400099, India","Toy store","+91 81697 55064","400099","418","Maharashtra","Hamleys- The finest toy shop in the world","https://stores.hamleys.in/hamleys-the-finest-toy-shop-in-the-world-mumbai-t1c-d-airport-toy-shop-chatrapati-shivaji-demostic-airport-mumbai-299135/Home"
"Akbar lala Compound, Nari Seva Sadan Rd, Azad Nagar, Ghatkopar West, Mumbai, Maharashtra 400086, India","Baby clothing store",,"400086","0","Maharashtra","Kidsplus Newborn Baby Booties",
"h line/house, Shop No 17 Q, Road No.5, Govandi Slums, Baiganwadi, Mumbai, Maharashtra 400043, India","Baby store","+91 76330 60514","400043","0","Maharashtra","Jahid Husain Shaikh Store",
"Aashirwad Agency, Gala No 9/10 Sidhapura Industrial Estate, Kurla West, Mumbai, Maharashtra 400070, India","Medical equipment supplier","+91 22 2650 0320","400070","8","Maharashtra","Aashirwad Agency",
"Unit No TF302, Infiniti Mall, New Link Rd, Malad, Mindspace, Malad West, Mumbai, Maharashtra 400064, India","Toy store","+91 88798 84218","400064","3993","Maharashtra","Hamleys- The finest toy shop in the world","https://stores.hamleys.in/hamleys-the-finest-toy-shop-in-the-world-infiniti-malad-toy-shop-malad-west-mumbai-299153/Home"
"Shop No G -1 Plot No 14 Laxmi Niwas Jawahar Nagar S.V ROAD Goregaon, West, Goregaon West, Mumbai, Maharashtra 400104, India","Toy store","+91 98201 57491","400104","541","Maharashtra","Riddhi Toy",
"Road No. 8, Govandi Slums, Nirankar Nagar, Govandi, Mumbai, Maharashtra 400043, India","Baby store","+91 97127 70613","400043","0","Maharashtra","KARAN GANESH SHINDE",
"Room No 21, Block C Line, Shop No 84 H, Rafiq Nagar, Govandi East, Mumbai, Maharashtra 400043, India","Baby store","+91 96536 76443","400043","0","Maharashtra","Rukhsar Shaikh Store",
"Nand Dham Industrial Estate, F-31, Marol Maroshi Rd, Gamdevi, Marol, Andheri East, Mumbai, Maharashtra 400059, India","E-commerce service","+91 91410 00010","400059","123","Maharashtra","Dadi International","http://www.dadi.international/"
"3WW6+8C5 Gavdevi, Sainath Nagar, Indira Nagar, Ghatkopar West, Mumbai, Maharashtra 400086, India","Baby store","+91 99207 11716",,"0",,"Afsara Harcatting Saylun",
"Lotus House, near Lathia Rubber Factory, off Andheri Kurla Rd, Sakinaka, Andheri East, Mumbai, Maharashtra 400072, India","E-commerce service","+91 96644 22164","400072","142","Maharashtra","iBhejo","https://www.ibhejo.com/"
"Shop No 12, Tagore Nagar, Vikhroli East, Mumbai, Maharashtra 400083, India","Baby store",,,"0",,"Badri Thakur",
"Shop No. 11, form Road, near by Police Chowki, opp. 27No. Building, Sangharsh Nagar, Chandivali, Andheri East, Mumbai, Maharashtra 400072, India","Baby store","+91 82914 98264","400072","0","Maharashtra","hardik shubhechaya daiper house",
"2nd floor, Oberoi Mall, No S/13, Western Express Hwy, Yashodham, Goregaon, Mumbai, Maharashtra 400063, India","Toy store","+91 88799 75172","400063","1609","Maharashtra","Hamleys- The finest toy shop in the world","https://stores.hamleys.in/hamleys-the-finest-toy-shop-in-the-world-oberoi-hamleys-toy-shop-goregoan-east-mumbai-299161/Home"
"Kamla Spaces, Swami Vivekananda Rd, Santacruz, Mumbai, Hasmukh Nagar, W, Mumbai, Maharashtra 400054, India","Toy store",,"400054","25","Maharashtra","Toys4all","http://toys4all.in/"
"Shop No:25, Kamdhar Shopping Center, Monghibai Rd, Park Rd, Vile Parle (East), Mumbai, Maharashtra 400057, India","Baby store","+91 99307 21235","400057","0","Maharashtra","Scooby Baby",
"shop no 1, Nandadeep society, Mahatma Gandhi Rd, opp. Jain Mandir, Tilak Nagar, Goregaon West, Mumbai, Maharashtra 400104, India","Traditional Kostume store","+91 88984 29002","400104","21","Maharashtra","KCC Traditional","https://chat.whatsapp.com/Dkp8Qr1ZJc9L0qVsIpqN3P"
"Shop 4 Jay, Chhatrapati Shivaji Maharaj Int'l Airport Rd, Santoshi Mata Nagar, Sahar Village, Andheri East, Mumbai, Maharashtra 400099, India","Baby store","+91 97022 55839","400099","0","Maharashtra","Rohit Pan Shop",
"Shop No 1gg, Andheri - Ghatkopar Link Rd, TPS Colony, Ghatkopar West, Mumbai, Maharashtra 400086, India","Baby store","+91 87583 57164","400086","0","Maharashtra","Anuj Kumar",
"Aboli Signel, 115, Swami Vivekananda Rd, Amboli, Andheri West, Mumbai, Maharashtra 400058, India","Baby store","+91 73075 18127","400058","6","Maharashtra","SHARUKH KHAN",
"Unnat Nagar, 19/160, Mahatma Gandhi Rd, near Jain Hospital, Motilal Nagar III, Goregaon West, Mumbai, Maharashtra 400104, India","Baby store",,"400104","12","Maharashtra","Baby Shower Favor India","https://www.facebook.com/BabyStepsMumbai"
"N3 Plot N28 Road N3, Plot N28, Jeejabai Bhosale Marg, Govandi Slums, Govandi West, Phase 1, Govandi East, Mumbai, Maharashtra 400043, India","Baby store","+91 93216 78717","400043","0","Maharashtra","Shahid Store",
"Room No 68, H Block, Sai Baba Mandir, Shop No 6, Govandi Slums, Rafiq Nagar, Mumbai, Maharashtra 400043, India","Baby store","+91 90289 65664","400043","0","Maharashtra","Shaukat Store",
"Shop No 01, CGS Colony, Ghatkopar West, Mumbai, Maharashtra 400086, India","Baby store","+91 73839 39358","400086","0","Maharashtra","Seljio",
"Shop No 1, Andheri - Ghatkopar Link Rd, TPS Colony, Ghatkopar West, Mumbai, Maharashtra 400086, India","Baby store","+91 89558 14311","400086","0","Maharashtra","Kavita",
"Shop No 1, Andheri - Ghatkopar Link Rd, Bhatwadi, Kapol wadi, Ghatkopar West, Mumbai, Maharashtra 400086, India","Baby store",,,"0",,"Priya Rav",
"G-47, G-47A, UG 72 and 73 and 74, Lal Bahadur Shastri Marg, Kamani, Kurla West, Kurla, Mumbai, Maharashtra 400070, India","Clothing store","+91 92209 02384","400070","166","Maharashtra","UNIQLO Phoenix Marketcity Kurla Mumbai","https://www.uniqlo.com/in/en/"
"Plot No 13, Rd Number 9, near Bmc School, Govandi Slums, Nirankar Nagar, Govandi, Mumbai, Maharashtra 400043, India","Baby store","+91 70395 71290","400043","0","Maharashtra","YUVRAJ ANANDRAJ NAIDU",
"3W99+4PX Search Kar Do, Govandi Slums, Baiganwadi, Govandi East, Mumbai, Maharashtra 400043, India","Baby store",,,"0",,"Tanya Reddy",
"N3, Plot N45, East Road, Govandi Slums, Rafiq Nagar, A Line, Mumbai, Maharashtra 400043, India","Baby store","+91 88550 51433","400043","0","Maharashtra","Munna",
"Saibaba Nagar, Pant Nagar, Ghatkopar, Mumbai, Maharashtra 400077, India","Baby store","+91 6355 924 382","400077","0","Maharashtra","Priya Singh",
"No H Plot, Shop No 1 Line, 27, Road No. 3, Shivaji Nagar, Mumbai, Maharashtra 400043, India","Baby store","+91 86899 08242","400043","0","Maharashtra","Azizul Shaikh",
"second floor, Infinity Mall, Unit No 262 & 263, New Link Rd, nearby Lotus Petrol Pump, Andheri West, Mumbai, Maharashtra 400053, India","Clothing store","+91 70398 51001","400053","0","Maharashtra","Pantaloons (Infinity Mall, Andheri, Mumbai)","https://stores.pantaloons.com/pantaloons/stores-in-mumbai/stores-in-andheri-west/pantaloons-in-andheri-west-mumbai--887a9800-1a20-46b9-bb5d-da23051ee1a3/home"
"Ground Floor, Inorbit Mall, New Link Rd, Malad, Malad West, Mumbai, Maharashtra 400104, India","Clothing store","+91 93190 94409","400104","0","Maharashtra","UNIQLO Inorbit Mall Malad","https://www.uniqlo.com/in/en/"
"Shop No 103, Infinity Mall, Nearby Samsung SmartCafe, New Link Rd, Malad West, Mumbai, Maharashtra 400064, India","Clothing store","+91 82917 20161","400064","0","Maharashtra","Pantaloons (Infiniti Mall, Malad, Mumbai)","https://stores.pantaloons.com/pantaloons/stores-in-mumbai/stores-in-malad-west/pantaloons-in-malad-west-mumbai--c1263cba-f6ef-469d-af93-50d0c9a6c635/home"
"Swatantrya Veer Savarkar, Saki Naka, Mumbai, Maharashtra 400084, India","Cell phone store",,,"1","Maharashtra","BABY'S MOBILE WORLD",
"Sindhi Camp, Nehru Nagar, Kurla, Mumbai, Maharashtra 400024, India","Baby store","+91 91674 64880","400024","0","Maharashtra","Armik Store",
"Room No 24, Babe Rahmat Msajid, S Bloc G Line, Shop N012, Rafiq Nagar, Govandi East, Mumbai, Maharashtra 400043, India","Baby store","+91 93368 46039","400043","0","Maharashtra","Mahafooj Store",
"Shop No 65, Gate No. 05, Plot No. 13, Malad, Old Collector Compound, Malvani, Malad West, Mumbai, Maharashtra 400095, India","Wholesaler","+91 87670 60607","400095","66","Maharashtra","M S Diaper House","https://msdiaperhouse.in/"
"Santacruz, Kolivery Village, Santacruz East, Mumbai, Maharashtra 400029, India","Baby store","+91 88797 49747","400029","0","Maharashtra","S.A Vegetable And Supplies",
"Gala No 3, Jignesh Diamond House, Subhash Ln, Pethe Nagar, Primal Nagar,, Malad East, Mumbai, Maharashtra 400097, India","Baby store","+91 98190 37457","400097","3","Maharashtra","Dhrupti Creation",
"Shop no 1, Road No. 3, near vidyadeep vidhyalay, municipal colony, Vikhroli Park Site, Varsha Nagar, Vikhroli West, Mumbai, Maharashtra 400079, India","Baby store","+91 73033 15040","400079","2","Maharashtra","FAMOUS HEENA DIAPER HOUSE",
"Shop no, shrinath sopping centre, 26, D.J.road, khoka market, Kamala Nagar, Vile Parle West, Mumbai, Maharashtra 400056, India","Baby store","+91 22 2615 3610","400056","1","Maharashtra","Sweet Baby",
"Unit No SF201A, 1st Floor, Infiniti Mall, New Link Rd, Phase D, Shastri Nagar, West, Mumbai, Maharashtra 400102, India","Shopping mall","+91 22 4972 4170","400102","2795","Maharashtra","Max","https://stores.maxfashion.in/max-infiniti-mall-malad-shopping-centre-malad-west-mumbai-105535/Home?utm_source=locator&utm_medium=googleplaces"
"G-21,22,23, Oberoi Mall, Oberoi Garden City, Western Urban Rd, Yashodham, Goregaon, Mumbai, Maharashtra 400063, India","Clothing store","+91 96673 75214","400063","100","Maharashtra","UNIQLO Oberoi Mall Goregaon","https://www.uniqlo.com/in/en/"
"C/53 opp dargah Kailash puri road, Road No. 1, Malad, Chinchowali Colony, Starter Colony, Pandurang Wadi, Malad East, Mumbai, Maharashtra 400097, India","Baby store","+91 82689 17946","400097","0","Maharashtra","Mohd Gulfam",
"Nicholaswadi, Gundavali, Nicolas Wadi Rd, Jijamata Colony, Andheri East, Mumbai, Maharashtra 400069, India","Baby store",,,"0",,"Rajeev Chaurasiya",
"No.7, police chowky, Shop No.1, M.H.B. Market, Gate No.7, Near Shankar Gali, Malad (W Mumbai-400095, near, Malwani, Mumbai, Maharashtra 400095, India","Baby clothing store","+91 93723 31216","400095","11","Maharashtra","K.G.N BABY STORE",
"Vaishali Nagar, Jogeshwari West, Mumbai, Maharashtra 400102, India","Shopping mall","+91 90044 45283","400102","593","Maharashtra","Aadils collection",
"Shop Number13 Old Vora House Opp Post Office G.P Road, Grampanchayat Rd, Goregaon West, Mumbai, Maharashtra 400104, India","Baby store","+91 77058 24559","400104","0","Maharashtra","Dharmendra Yadav",
"shop no 7, Pipe Line Rd, Buddha Colony, Kurla West, Kurla, Mumbai, Maharashtra 400070, India","Baby store","+91 81084 43762","400070","0","Maharashtra","AAmrapali shop",
"Shop No Abc, Hill Pramukh Please, Veera Desai Rd, Amboli, Andheri West, Mumbai, Maharashtra 400053, India","Baby store","+91 98330 69321","400053","2","Maharashtra","AMBOLI HILL PRAMUKH PALACE SRA SAHAKARI GRIHA NIRMAN SANSTHA MARYADIT",
"Shop No 1, Jarimari, Mumbai, Maharashtra 400072, India","Baby store","+91 91676 63801","400072","0","Maharashtra","Abdul Kuddus Shop",
"N3, H Line Room, Shop N3 Plot N23 Govandi, N44, Jeejabai Bhosale Marg, Govandi Slums, Shivaji Nagar, Mumbai, Maharashtra 400043, India","Baby store","+91 96960 03396","400043","0","Maharashtra","Rahim Store",
"Shop No 24, Gopalji Devi Chowk, H D Road, Bhatwadi, Kapol wadi, Ghatkopar West, Mumbai, Maharashtra 400086, India","Baby store","+91 76669 96986","400086","0","Maharashtra","World Fashion",
"Shop No35, G Line S Block Room, 39, Road No.5, Govandi Slums, Govandi West, Baiganwadi, Shivaji Nagar, Mumbai, Maharashtra 400043, India","Baby store","+91 88875 87835","400043","0","Maharashtra","Sharik Store",
"Shop no 07, A k Road, Safed Pul, Saki Naka, Mumbai, Maharashtra 400072, India","Baby store","+91 93266 32902","400072","0","Maharashtra","Nandlal shop",
"Brahmanwadi, Kurla, Mumbai, Maharashtra 400070, India","Baby store","+91 79778 76858","400070","0","Maharashtra","Krishnat Store",
"Shop No 1, Shivaji Nagar, Mumbai, Maharashtra 400043, India","Baby store","+91 70414 73241","400043","0","Maharashtra","Ananya Singh",
"h line/house, Shop No36, 46, 90 Feet Rd, Govandi Slums, Baiganwadi, Mumbai, Maharashtra 400043, India","Baby store","+91 81694 46300","400043","0","Maharashtra","Nafees Store",
"90, Wire Gali, LBS Nagar, Lokmanya Tilak Nagar, Saki Naka, Mumbai, Maharashtra 400072, India","Baby store","+91 83693 78293","400072","0","Maharashtra","The daiper shop",
"Room No 795, Shop 4, Plot No 13, Govandi Slums, Lotus Colony, Shivaji Nagar, Mumbai, Maharashtra 400043, India","Baby store","+91 81040 02026","400043","0","Maharashtra","Vasi Store",
"Shop No33A/k Block H Gali, Plot No 33, Road No. 6, Govandi Slums, Baiganwadi, Mumbai, Maharashtra 400043, India","Baby store","+91 91671 16497","400043","0","Maharashtra","Amjad Store",
"Shop No 35, Jawahar Nagar, Goregaon West, Mumbai, Maharashtra 400104, India","Baby store","+91 73094 53027","400104","0","Maharashtra","Ravi Tiwari",
"Shop 67, Jawahar Nagar, Goregaon West, Mumbai, Maharashtra 400104, India","Baby store","+91 90826 43738","400104","0","Maharashtra","Deepa Fabric",
"Ghass Compound, Oshiwara, Jogeshwari West, Mumbai, Maharashtra 400102, India","Luggage wholesaler",,,"4",,"Hayat plast Udyog.",
"B-24, V Vidyalaya Rd, Shri Nagar, Goregaon West, Mumbai, Maharashtra 400104, India","Baby store","+91 90045 85806","400104","0","Maharashtra","Bimlesh",
"Green turtle malad west oposit infinite mall, 102b, New Link Rd, near D-Mart & Infinity Mall, Malad, Ekta Nagar, Malad(W, Mumbai, Maharashtra 400064, India","Toy store","+91 99300 47505","400064","65","Maharashtra","GREENTURTLE","https://www.greenturtle.store/"
"Shop No.-1, Sejal Park, Colony No 3, Bhagat Singh II, Goregaon West, Mumbai, Maharashtra 400104, India","Baby store","+91 72087 53502","400104","0","Maharashtra","Metro Collection",
"sienna tower, Lodha Fiorenza, B - 2801, Western Urban Rd, next to hub mall, Aarey Milk Colony, Goregaon, Mumbai, Maharashtra 400065, India","Baby store","+91 97698 87715","400065","0","Maharashtra","BabyBoo",
"Shop 2 Room 56, Govandi Slums, Lotus Colony, Shivaji Nagar, Mumbai, Maharashtra 400043, India","Baby store","+91 93247 78205","400043","0","Maharashtra","Misam Store",
"Level 2, Arrival of CSIA, Terminal 2, CSM International Airport, Mumbai, Maharashtra 400099, India","Toy store","+91 93244 89468","400099","600","Maharashtra","Hamleys- The finest toy shop in the world","https://stores.hamleys.in/hamleys-the-finest-toy-shop-in-the-world-mumbai-t2a-toy-shop-csm-international-airport-mumbai-299134/Home"
"Shop No 8, Sonawane Chawal, Station Rd, Vikhroli East, Mumbai, Maharashtra 400083, India","Baby store","+91 79777 66214","400083","0","Maharashtra","Hungama Collection",
"Shop T21C, 3rd Floor, R City Mall, Fire Brigade, Lal Bahadur Shastri Marg, near Vikroli, Amrut Nagar, Ghatkopar West, Mumbai, Maharashtra 400086, India","Toy store","+91 22 6901 0345","400086","2327","Maharashtra","Hamleys- The finest toy shop in the world","https://stores.hamleys.in/hamleys-the-finest-toy-shop-in-the-world-toy-shop-ghatkopar-west-mumbai-433028/Home"
"Shop N0 30, Babe Rahmta Masjid, Plot NO 64, Baba Nagar Rd, Rafiq Nagar, Shivaji Nagar, Mumbai, Maharashtra 400043, India","Baby store","+91 90101 87083","400043","0","Maharashtra","Sakina Store",
"Sanmati Society, opp. Kanta apt, Sugam Society, Savitribai Phule Nagar, Pant Nagar, Ghatkopar East, Mumbai, Maharashtra 400075, India","Toy store","+91 83690 69568","400075","36","Maharashtra","Toy Phactory","http://www.toyphactory.com/"
"Nobel Hygiene Pvt Ltd (c/o DSA Electro Control Pvt Ltd A20, Cross Rd, MIDC Central Rd, Mulgaon, Andheri East, Mumbai, Maharashtra 400093, India","Baby store","+91 1800 266 0640","400093","2","Maharashtra","Teddyy Baby Diaper","https://teddyydiaper.in/"
"4th Floor, A Wing, Indiana Business Center, Haus & Kinder, Makwana Rd, Andheri East, Mumbai, Maharashtra 400059, India","Bedding store",,"400059","190","Maharashtra","Haus & Kinder | Home & Baby Essentials","https://hausandkinder.com/"
"Shop No,63, Rafi Nagar2, near New Kanrastaan Rd, Shivaji Nagar, Naidu Colony, Pant Nagar, Malad East, Mumbai, Maharashtra 400075, India","Baby store","+91 85917 17660","400075","0","Maharashtra","TS Store",
"Level 3, Mumbai International Airport Domestic Departure, Mumbai Airport, near JW Marriot Hotel, Navpada, Vile Parle East, Vile Parle, Mumbai, Maharashtra 400072, India","Toy store","+91 93244 90256","400072","110","Maharashtra","Hamleys- The finest toy shop in the world","https://stores.hamleys.in/hamleys-the-finest-toy-shop-in-the-world-mumbai-international-airport-toy-shop-mumbai-airport-mumbai-299133/Home"
"Shop no.1, N.M/14/85, Industrial Road, Amrut Nagar, Ghatkopar West, Mumbai, Maharashtra 400086, India","Baby store","+91 75064 64630","400086","6","Maharashtra","Bharat Diaper House",
"Kapoor House, Plot No. A-37 Street No.2, M.I.D.C, Marol, Andheri East, Mumbai, Maharashtra 400093, India","Corporate office","+91 98209 92877","400093","47","Maharashtra","Everything Kids","https://www.everythingkids.in/"
"Shop No 1019 Chawl No 127, No 7, MHB Colony, Gaikwad Nagar, Malvani, Malad West, Mumbai, Maharashtra 400095, India","Baby store","+91 98700 23359","400095","0","Maharashtra","Mamma's Choice Enterprises",
"Shop No.48, Malik Liyaqat Hussain Marg, opp. St. Joseph School, Ambedkar Nagar, Kurla West, Kurla, Mumbai, Maharashtra 400070, India","Baby store","+91 77386 48421","400070","3","Maharashtra","KHAN PAMPER COLLECTION",
"Shop No 4 H, Block S Line Room, Plot No 39, Road No. 8, Govandi Slums, Govandi West, Baiganwadi, Shivaji Nagar, Mumbai, Maharashtra 400043, India","Baby store","+91 97026 40975","400043","1","Maharashtra","Sahezad Store",
"Ashok Heights, 1, Andheri, Mumbai, Maharashtra 400069, India","Baby store","+91 90224 70560","400069","1","Maharashtra","Archi R Chaurasiya",
"Sane Guruji Nagar, Motilal Nagar III, Goregaon West, Mumbai, Maharashtra 400104, India","Baby store",,,"0","Maharashtra","Mothercare",
"Shop No. c3, W Andheri Market Rd, near SV Road, Fish Market Area, Navneeth Colony, Andheri West, Mumbai, Maharashtra 400058, India","Baby store",,,"1",,"Khan pamper collection",
"Plot No, 1 & 2 Floor, Kagalwala House, 175, CST Road, behind Metro house, Kalina, Santacruz East, Mumbai, Maharashtra 400098, India","Baby store","+91 90049 76661","400098","0","Maharashtra","PuppetBox","https://puppetbox.in/"
"Kadam nagar, Behram Baug, Jogeshwari West, Maharastra, Mumbai, Maharashtra 400102, India","Store","+91 83491 85999","400102","2","Maharashtra","New baby bazar",
"Shop No 05, Gulshan Nagar, Behram Baug, Jogeshwari West, Mumbai, Maharashtra 400102, India","Baby store","+91 98670 61394","400102","3","Maharashtra","KHAN COLLECTION",
"Shop No 1 Pream Nagar, Teen Dongari, New Link Rd, near Sai Baba Mandir, Goregaon West, Mumbai, Maharashtra 400104, India","Baby store","+91 82861 01516","400104","0","Maharashtra","Mammas Choice",
"Kingston Height, C-406, Chincholi Bunder Rd, Malad, Chincholi Bunder, Malad West, Mumbai, Maharashtra 400064, India","Baby store",,"400064","0","Maharashtra","Babyluxurio",
"Sahyog Sall, 4, New Link Rd, Anand Nagar, Jogeshwari West, Mumbai, Maharashtra 400102, India","Baby store","+91 95945 19005","400102","0","Maharashtra","Kambeshwar Novelty Store",
"Remi Commercio, 1006, Off Link Rd, Industrial Area, Andheri West, Mumbai, Maharashtra 400053, India","Baby store",,,"0",,"Gugu Cart Baby Products & Parenting Portal","https://gugucart.com/"
"Shop No.12/13, Super Market Arcade, Monghibai Rd, Navpada, Vile Parle East, Vile Parle, Mumbai, Maharashtra 400057, India","Children's clothing store","+91 83569 68545","400057","72","Maharashtra","Tinytots Kids Wear",
"Shitladevi Chawl, D.N.Nagar, Andheri West, Mumbai, Maharashtra 400053, India","Baby store",,,"0",,"MummaMinute",
"Group No :2, 1/4,Abdulla Chawl,Ganesh Marg Hariyali village, Tagore Nagar, Vikhroli East, Mumbai, Maharashtra 400083, India","Baby store","+91 77389 28753","400083","0","Maharashtra","House Of Diaper (Vikhroli)",
"Lok Raunak, LOK RAUNAK TOWERS, B1-402, Marol Maroshi Rd, Bori Colony, Shivaji Nagar JJC, Marol, Andheri East, Mumbai, Maharashtra 400059, India","Clothing store","+91 99691 64089","400059","16","Maharashtra","Kika Cloth Diapers","https://kikaclothdiapers.stores.instamojo.com/"
"C-Wing, Saideep 2 chs, 304, near Swami vivekanand high school, Chembur, Maharashtra 400058, India","Baby store","+91 79772 32311","400058","0","Maharashtra","PaMa baby products","https://www.indiamart.com/parasstrading/"
"Oberoi Woods Tower A, Mohan Gokhale Rd, Aarey Milk Colony, Goregaon, Mumbai, Maharashtra 400065, India","Baby store","+91 99203 67673","400065","2","Maharashtra","Cuddle n Care",
"Shop No. 56, Ground Floor, City Centre Mall, Swami Vivekananda Rd, Divyapuri CHS, Shri Nagar, Goregaon West, Mumbai, Maharashtra 400104, India","Children's clothing store","+91 98207 27527","400104","13","Maharashtra","Teeny Tony kids wear",
"A-51, PRAVASI INDUSTRIAL ESTATE, off Aarey Road, Yashodham, Goregaon, Mumbai, Maharashtra 400063, India","Baby clothing store","+91 98212 47770","400063","0","Maharashtra","Dear One Baby Products",
"Ramji Ashar Building, 3/73, Mahatma Gandhi Rd, opposite Pooja Hotel, Pant Nagar, Ghatkopar East, Mumbai, Maharashtra 400077, India","Game store","+91 96199 98801","400077","262","Maharashtra","My Toys","https://mytoys.catalog.to/"
"Shop no.1, kantilal compound, Pump house, house Jijamata marg, opp. AMBIKA TOWERS, opp. Durga restaurant & bar, Andheri East, Mumbai, Maharashtra 400093, India","Wholesaler","+91 81042 43454","400093","3","Maharashtra","Diapers & More..",
"Shop No 4/200, Gazal Gol BUILDING, 70, BELGRAMI Road, Friends Colony, Kurla West, Kurla, Mumbai, Maharashtra 400070, India","Baby store","+91 90825 39480","400070","1","Maharashtra","DAIPER NEST",
"Marathon Monte Plaza, E-310, opposite P&T Colony, Asha Nagar, Mulund West, Mumbai, Maharashtra 400080, India","Chocolate factory","+91 99207 23723","400080","64","Maharashtra","Vivanda Chocolate Co.","https://vivanda.in/"
"Between Pillar no. 14B - 15B, Shop no.164, below Balasaheb Thackeray Flyover, near momin nagar, Jogeshwari West, Mumbai, Maharashtra 400102, India","Baby store","+91 72087 53502","400102","0","Maharashtra","Metro Collection",
"Bombay Diaper House Shop No.83 Bldg-17 Market Beside Community Hall Sangharsh Nagar Chandivali Mum-400072, Mumbai, Maharashtra 400072, India","Baby store","+91 70399 30264","400072","47","Maharashtra","Bombay Diaper House",
"Bus Stop, Shop No 1, Municipal Colony, Last, Parksite Colony, Vikhroli West, Mumbai, Maharashtra 400079, India","Baby store","+91 76667 52225","400079","2","Maharashtra","Sayyed Azimuddin Enterprises",
"Unilever House, BD Sawant Marg, Chakala, Andheri (E, Mumbai, Maharashtra 400099, India","Baby store","+91 1800 102 2221","400099","0","Maharashtra","baby Dove",
"Saki Vihar Rd, Krishna Nagar, Powai, Mumbai, Maharashtra 400072, India","Baby store","+91 88501 93882","400072","0","Maharashtra","MANOJ KUMAR YADAV",
"10-A, 2nd Cross Rd, Lokhandwala Complex, Andheri West, Mumbai, Maharashtra 400053, India","Baby store","+91 22 2632 9830",,"3","Maharashtra","BEAR HUG MOTHER AND BABY PRODUCTS",
"land no 4, Room no 1 Abida Manzil, Gaothan, Andheri West, Mumbai, Maharashtra 400058, India","Baby store",,,"2",,"Royal daipers online mart",
"Shop No:- B, Building, 2, Nahar's Amrit Shakti Rd, opp. Lok Milan, MHADA Colony, Chandivali, Powai, Mumbai, Maharashtra 400072, India","Clothing store","+91 97698 86675","400072","15","Maharashtra","Kidz Klozet",
"2 Village Road, MMRDA Colony, Ambedkar Nagar, Kanjurmarg West, Kanjurmarg East, Mumbai, Maharashtra 400078, India","Baby store","+91 95940 51653","400078","0","Maharashtra","Sarbjeet",
"Unit No 22, Unit 22, Aarey Milk Colony, Goregaon, Mumbai, Maharashtra 400065, India","Baby store",,,"0",,"ABU HOSSAIN SEIKH",
"MD Kini Road Near Raj Bakery, opposite State Bank Bhandup, Bhandup East, Mumbai, Maharashtra 400042, India","Clothing store","+91 90296 76756","400042","8","Maharashtra","KUMKUM",
"Shop no. 15, Lamxmi narayan mandir bldg, Mahatma Gandhi Rd, opposite Gandhi Market, Pant Nagar, Ghatkopar East, Mumbai, Maharashtra 400077, India","Baby clothing store","+91 77389 96717","400077","12","Maharashtra","KHODAL NEW BORN & KIDS SHOES",
"Shop No 4, 32, Khandan Galli, Motilal Nagar II, Goregaon West, Mumbai, Maharashtra 400104, India","Baby store","+91 82911 21331","400104","15","Maharashtra","Clap Clap",
"Shop No 03, Saki Vihar Rd, Milind Nagar, Marol, Powai, Mumbai, Maharashtra 400072, India","Baby store","+91 93218 36770","400072","1","Maharashtra","Manish Beauty",
"Shop. 1, Mulund, Mulund West, Mumbai, Maharashtra 400080, India","Baby store","+91 84248 45350","400080","0","Maharashtra","Ganesh Bag Shop",
"Adarsh Nagar, Jogeshwari West, Mumbai, Maharashtra 400102, India","Baby store","+91 98333 78544","400102","12","Maharashtra","Momentoes 3D Casting For Children, Adults & Pets.",
"Sachin Housing Colony, Patil Nagar, Nane Pada, Mulund East, Mumbai, Maharashtra 400081, India","Baby store","+91 93269 05242","400081","0","Maharashtra","DINESH",
"shree ram niwas, 9, Jangal Mangal Rd, Tembipada, Kokan Nagar, Bhandup West, Mumbai, Maharashtra 400078, India","Jewelry store",,"400078","1","Maharashtra","Baby shower decorations anu creation",
"Shoo No 2, Jai Bhim Nagar, Hunma Nagar, Goregaon, Mumbai, Maharashtra 400065, India","Baby store","+91 98203 58801","400065","0","Maharashtra","SUKHARAJ SHARMA",
"16, Lal Bahadur Shastri Marg, Sai Nagar, C.G.S. Colony, Kanjurmarg East, Mumbai, Maharashtra 400042, India","Baby store","+91 85910 39899","400042","0","Maharashtra","Ravi Tonka Moolya",
"Shop No 012, L&T Emerald Isle Powai, Raje Sambhaji Nagar, Marol, Andheri East, Mumbai, Maharashtra 400072, India","Baby store","+91 81042 94928","400072","6","Maharashtra","N.M SHAH",
"A-2, S Pratap Singh Rd, Satyavijay Society, Gadhav Naka, Panchsheel Nagar, Bhandup West, Mumbai, Maharashtra 400078, India","Baby store","+91 95173 35908","400078","1","Maharashtra","Aarif Karne",
"Shop No. 1, Sapna Sangeet Society, Yogi Hills (Inside Road), Swapna Nagari, Nirmal Nagar, Mulund West, Mumbai, Maharashtra 400080, India","Baby store","+91 91674 03325","400080","0","Maharashtra","Vishamberlal Yadv",
"Sahajivan Nivas, 10/7, Tembipada, Kokan Nagar, Bhandup West, Mumbai, Maharashtra 400078, India","Baby store","+91 88508 82732","400078","0","Maharashtra","Sawant Flower Shop",
"Shop no 3, SV Rd, near Himalaya hotal, Gulshan Nagar, Shukla Estate, Entery, Jogeshwari West, Mumbai, Maharashtra 400102, India","Baby clothing store","+91 98708 31203","400102","27","Maharashtra","Ronak kids collection.",
"Shop No 13, Benzer building, Lokhandwala Complex, Andheri West, Mumbai, Maharashtra 400053, India","Children's store","+91 93218 53455","400053","28","Maharashtra","SOFT TOT",
"5VCG+3X2, Film City Rd, nearby Mamta Nursing Home, Jai Bhim Nagar, Goregaon, Mumbai, Maharashtra 400065, India","Baby store","+91 99671 54563","400065","0","Maharashtra","New Ss Dipper Point",
"shop no 3, diapers store, neona tower, K Hemani Neona, tower, Pandit Jawaharlal Nehru Rd, Vishwakarma Nagar, Mulund West, Mumbai, Maharashtra 400080, India","Surgical supply store","+91 93203 39934","400080","0","Maharashtra","Diapers Store - Lantr Healthcare - Diaper at Wholesale Rate","https://lantrhealthcare.in/"
"Subhash Nagar, Mohili, Ghatkopar West, Mumbai, Maharashtra 400084, India","Children's store","+91 85911 90682","400084","2","Maharashtra","CutiePea Kids Store and More","http://www.cutiepea.in/"
"Shop No.5/6/7, Chembur Guest House Building, N.G. Acharya Marg, New Bombay Toys, Chembur, opposite Natraj Cinema, Mumbai, Maharashtra 400071, India","Baby store","+91 98699 39657","400071","6","Maharashtra","Hari Om Collection",
"Shop No 06, Subhash Road, Ashok Nagar, Mulund West, Mumbai, Maharashtra 400080, India","Baby store","+91 93218 56474","400080","0","Maharashtra","Vijay Centre",
"Shop no 1A, Maneesha chs, Gandhi Nagar, Gavanpada, Mulund East, Mumbai, Maharashtra 400081, India","Toy store","+91 96193 25211","400081","2","Maharashtra","Mumbai toys & more",
"Shop no 05, near by bhavna jewellers, Gulshan Nagar, Oshiwara, Jogeshwari West, Mumbai, Maharashtra 400102, India","Baby store","+91 98197 10429","400102","47","Maharashtra","Diaper shop",
"Shop No. 35A, Evershine Apts, 2, JP Rd, Gharkul Society, Ratan Nagar, Seven Bunglow, Andheri West, Mumbai, Maharashtra 400053, India","Baby clothing store","+91 99304 83814","400053","5","Maharashtra","Baby Villa - New Born Baby Clothes & Care",
"Shop No 3, Sahyadri Nagar, Kanjurmarg, Quarry Rd, near Rani Chawl, Bhandup West, Mumbai, Maharashtra 400078, India","Baby store","+91 85914 33824","400078","1","Maharashtra","Daiper Point",
"Police Chowky, Gaon Devi, Vakola Pipeline Rd, near Vakola, Santacruz East, Mumbai, Maharashtra 400055, India","Baby store","+91 22 2667 2781","400055","28","Maharashtra","Gupta Stores",
"2, Bldg, behind MHADA Building, next to Sabir Caterers, Sona Intp Colony, Tagore Nagar, Vikhroli East, Mumbai, Maharashtra 400083, India","Baby store",,"400083","2","Maharashtra","Bombay Diapers",
"NAHAR BUSINESS Centre, 9D, DP Rd Number 2, MHADA Colony, Chandivali, Powai, Mumbai, Maharashtra 400072, India","Baby store","+91 82910 56004","400072","0","Maharashtra","Yummy Mummys-India's Best Baby & Mommy Store in Mumbai","https://yummymummys.in/"
"Shop no.6, Rama Ratan CHS, Gavanpada, Mulund East, Mumbai, Maharashtra 400081, India","Surgical supply store","+91 93203 39934","400081","51","Maharashtra","DIAPERS STORE - Lantr Healthcare - Diaper at Wholesale rate","https://lantrhealthcare.in/"
"Shop No 03 Bldg No 29, SHIV SHAHI PRAKALP, IGIDR, Nagri Niwara Cooperative Housing Society, Goregaon, Mumbai, Maharashtra 400065, India","Baby store","+91 96532 52650","400065","11","Maharashtra","BABY KIDS WEAR",
"HDIL Dreams, Bhandup West, Mumbai, Maharashtra 400078, India","Second hand store","+91 79773 79469","400078","15","Maharashtra","PreHugged | PreHugged Bazaar - a NO COMMISSION community platform","https://prehugged.com/"
"shop no 1 gafoor chawl nr Suraj Chinese opposite neelam wines sarvoday nagar gate, Bhandup, w, Mumbai, Maharashtra 400078, India","Surgical supply store","+91 93203 39934","400078","63","Maharashtra","DIAPERS STORE - Lantr Healthcare - Diaper Wholesale","http://lantrhealthcare.in/"
"Natraj market, 16/A, next to Mukesh Khatri shop, opp. kasturba talkies, Malad, Vijaykar Wadi, Malad West, Mumbai, Maharashtra 400064, India","Baby store","+91 91529 79501","400064","7","Maharashtra","Shree Sainath stores",
"Shop no 3, Thankar Building, beside surbhi snacks, near jama masjid, Railway Colony, Andheri West, Mumbai, Maharashtra 400058, India","Baby store","+91 95949 59934","400058","5","Maharashtra","MELA WEAR",
"Shop Number 4 SaI NIWAS Bagwe Compound, Tembipada Rd, Bhandup West, Mumbai, Maharashtra 400078, India","Children's clothing store","+91 93234 80992","400078","8","Maharashtra","Me Kids ( New Born & Children Fancy Cloths)",
"1009 10th Floor Manisha Corporate Park 3 MG Road, Station (W, near Mulund, Mumbai, Maharashtra 400080, India","E-commerce service",,,"17",,"Cute Potato India","http://cutepotatoindia.com/"
"Vrindavan Society, Shantivan Society, Raheja Twp, Malad East, Mumbai, Maharashtra 400097, India","Baby clothing store","+91 99670 74456","400097","13","Maharashtra","Little Joey","http://www.littlejoey.in/"
"ground floor, Drushti Sapphire, Shop No-A-S3, opposite Shivaji Technical School, Pant Nagar, Ghatkopar East, Mumbai, Maharashtra 400075, India","Gift shop","+91 89282 37876","400075","0","Maharashtra","NIYO TOYS","http://niyoindiastore.com/"
"Shop 122, orchard mall, Royal Palms, Aarey Milk Colony, Goregaon, Mumbai, Maharashtra 400065, India","Baby store","+91 93722 83591","400065","3","Maharashtra","The baby closet",
"Shop No 09, Saki Vihar Rd, Murarji Nagar, Passpoli, Goregaon, Mumbai, Maharashtra 400087, India","Baby store","+91 98336 48222","400087","0","Maharashtra","Roysten Shop",
"Shop no. 15, Ground Floor, Nalanda Shopping Centre, Station Rd, opposite I.B Patel School, Jawahar Nagar, Goregaon West, Mumbai, Maharashtra 400104, India","Baby store","+91 81044 30075","400104","0","Maharashtra","P For Panda","https://pforpanda.co.in/"
"Shop No-2, Chagpar Khimji Building, Ram Ratan Trivedi Rd, Vidya Vihar, Mulund West, Mumbai, Maharashtra 400080, India","Baby clothing store","+91 98335 15356","400080","12","Maharashtra","Baby Zone",
"Shop No. 101/103, Galleria Shopping Mall, 76, Hiranandani Gardens, Panchkutir Ganesh Nagar, Powai, Mumbai, Maharashtra 400076, India","Baby store","+91 93242 63238","400076","1","Maharashtra","Li'l cherie The baby shop",
"Shop No. 15, CHS, Centre Point Market, Zaver Rd, Mulund West, Mumbai, Maharashtra 400080, India","Clothing store","+91 98199 94064","400080","357","Maharashtra","Cuddly",
"Shop No 3, Rangwala building, Mahatma Gandhi Rd, opp. vadupaksh, Bhatwadi, Kapol wadi, Ghatkopar West, Mumbai, Maharashtra 400086, India","Baby store","+91 77382 42536","400086","0","Maharashtra","Ghatkopar Diaper House",
"Shop No S41, R City Mall, Depot, South Wing, Lal Bahadur Shastri Marg, near Vikhroli, Amrut Nagar, Ghatkopar West, Mumbai, Maharashtra 400086, India","Baby clothing store","+91 22 6832 1345","400086","253","Maharashtra","Mothercare","https://stores.mothercare.in/mothercare-rcity-mall-ghatkoper-baby-clothes-ghatkopar-west-mumbai-298189/Home?utm_source=locator&utm_medium=googleplaces"
"Shop No, 5Vcg+Ch4 Jai Bhai Nagar, Konkan Division, Jai Bhim Nagar, Goregaon, Mumbai, Maharashtra 400065, India","Baby store","+91 86918 16009","400065","2","Maharashtra","S.P. Daiper Stores",
"Plot 161, Marol Maroshi Rd, near Raza Jama Masjid, Mahavir Nagar, Marol, Andheri East, Mumbai, Maharashtra 400059, India","Baby store","+91 75062 13722","400059","3","Maharashtra","Marol Daipers",
"Shop No.4, Poornima Shopping Centre, center, MG Road, Mulund West, Mumbai, Maharashtra 400080, India","Store",,"400080","19","Maharashtra","Krishna kids wear | New Born | Baby kids | Shoes",
"Lal Bahadur Shastri Marg, GKW Colony, Bhandup West, Mumbai, Maharashtra 400078, India","Baby store","+91 79770 55410","400078","324","Maharashtra","Firstcry.Com Store Bhandhup West, Mumbai","https://www.firstcry.com/"
"B1704, Rustomjee Azziano, Majiwada, Thane West, Thane, Maharashtra 400086, India","Baby store","+91 97023 14940","400086","1024","Maharashtra","SuperBottoms","https://superbottoms.com/"
"Shop No.1 Kandpile Sadan, Babanrao Kulkarni Rd, Mulund East, Mumbai, Maharashtra 400081, India","Toy store","+91 96719 99316","400081","0","Maharashtra","Shree Ambaji Toys",
"2nd Floor, Diamond Shivagiri House, Gala No. 5, Khairani Rd, near Ayyappa Mandir, Nair Wadi, Saki Naka, Mumbai, Maharashtra 400072, India","Baby clothing store","+91 98205 23084","400072","4","Maharashtra","Orbit Enterprises",
"shop no .46, Road No. 1, near madina masjid, near building no.14, Vikhroli Park Site, BMC Colony, Vikhroli West, Mumbai, Maharashtra 400079, India","Baby store","+91 97697 27080","400079","15","Maharashtra","Diaper hub","https://sites.google.com/view/diapershub/home"
"Shop No. 9, Embassy Building, Apna Ghar Society, Unit No. 6, near Food Inn Restaurant, Lokhandwala Complex, Andheri West, Mumbai, Maharashtra 400053, India","Toy store","+91 75068 98924","400053","0","Maharashtra","Harish Collection",
"Inox Cinema, Neelyog Square, Art Studio 9, Jawahar Road, Landmark:, opp. Ghatkopar Railway Station, Saibaba Nagar, Mumbai, Maharashtra 400077, India","Baby clothing store",,"400077","15","Maharashtra","Ke and Kaa",
"B1, Nandkishore Industrial Estate, Off Mahakali Caves Rd, near Paper Box Industrial Estate, Gundavali, Andheri East, Mumbai, Maharashtra 400093, India","Manufacturer","+91 80 4861 4289","400093","0","Maharashtra","Avon Lifestyle Pvt Ltd - Promotional Umbrella Manufacturers in Mumbai, India","http://www.umbrellamanufacturers.net/"
"Raigad Chowk, Shop no 2, Damji Sadan, near Hanuman Mandir, Ghatkopar East, Mumbai, Maharashtra 400077, India","Baby store","+91 70216 75497","400077","12","Maharashtra","Aastha Diaper Point",
"Shop Number 8, Shopping Centre, Station Road, Santacruz (W), Santacruz West, Mumbai, Maharashtra 400054, India","Baby store","+91 22 2649 2780","400054","2","Maharashtra","Smile Baby",
"Shop No 03, Aneeba fashion, Belgrami Rd, near Gol building, Kurla West, Kurla, Mumbai, Maharashtra 400070, India","Clothing store","+91 86918 65834","400070","56","Maharashtra","Aneeba Kidswear Retail & Wholesale | Jeans T-Shirt Cord Set","https://aneebakidswear.com/"
"Bandi Bazaar, Nair Wadi, Asalpha, Mumbai, Maharashtra 400072, India","Baby clothing store",,,"1","Maharashtra","KGN Clothing",
"noor baby diaper,s, Santacruz (w, Willingdon, Santacruz (West), Mumbai, Maharashtra 400054, India","Baby store",,"400054","0","Maharashtra","Noor baby diaper",
"Road No. 2, Govandi Slums, Govandi West, Phase 1, Shivaji Nagar, Mumbai, Maharashtra 400043, India","Children's clothing store","+91 82918 76331","400043","14","Maharashtra","Fashion World","https://www.instagram.com/fashion_world.l1?utm_source=qr&igsh=MXV5YXFmZ2J6MGMyNw=="
"Shop 1 2 3, Raigad Darshan, Station, below Metro Station D N Nagar, Sahayog Nagar, Bhudargarh Colony, Andheri West, Mumbai, Maharashtra 400053, India","Children's store","+91 99203 19191","400053","266","Maharashtra","Glory Shopee",
"L 244/1, LBS MARG, Dreams Mall Rd, Bhandup West, Mumbai, Maharashtra 400078, India","Baby store",,,"2",,"INFINITY",
"Plot no 18-j-2 ROAD NO 9, MARKET, Govandi Slums, Govandi West, Baiganwadi, Govandi East, Mumbai, Maharashtra 400043, India","Day care center",,,"0",,"Khan Brothers Baby Mart",
"Shop No 5, Vaidya Bungalow, Mahatma Gandhi Rd, near Oopposite Bankl Of India, Ghatkopar West, Mumbai, Maharashtra 400086, India","Children's clothing store",,"400086","0","Maharashtra","Siddhi Kids Wear",
"Vinobha Bhave Nagar, Kurla West, Kurla, Mumbai, Maharashtra 400070, India","Baby clothing store",,"400070","0","Maharashtra","Peekaboo Kids Closet",
"Shop No.15, 1st Floor, East Point Mall, SG Barve Marg, Jagruti Nagar, Nehru Nagar, Kurla, Mumbai, Maharashtra 400024, India","Children's clothing store","+91 84510 61403","400024","41","Maharashtra","DAPP KIDS",
"Chakala, Andheri East, Mumbai, Maharashtra 400099, India","Baby clothing store","+91 98190 39685","400099","20","Maharashtra","chibby","http://www.chibby.in/?utm_source=google&utm_medium=wix_google_business_profile&utm_campaign=10202584056813994649"
"Shop no 10, matchwala compound, Santacruz Railway Station Rd, near mahavir tha home Store, Bajaj Wadi, Railway Colony, Santacruz (West), Mumbai, Maharashtra 400054, India","Clothing store","+91 79773 01323","400054","0","Maharashtra","ASTHA New born baby and kids wear",
"Jyot Lila, Gokhale Nagar, Chaitanya Nagar, Tirandaz, Powai, Mumbai, Maharashtra 400076, India","Clothing store","+91 98338 52233","400076","43","Maharashtra","Jyot Lila",
"Shop No.6, Elchiwala Building, Mahatma Gandhi Rd, opp. Kapol Wadi, Ghatkopar West, Mumbai, Maharashtra 400086, India","Children's clothing store","+91 98702 69964","400086","32","Maharashtra","Saloni Kids Wear",
"Shop No.31, Jalaram Nagar No.2, Vallabh Baugh Lane, Mahatma Gandhi Rd, Ghatkopar East, ANKITATAILORS, Maharashtra 400077, India","Tailor","+91 97733 56083","400077","4","Maharashtra","BHULKU NEW BORN BABY SHOP & KIDS IMPORTED CLOTHING & ACCESSORISE",
"Lal Bahadur Shastri Marg, Amrut Nagar, Ghatkopar West, Mumbai, Maharashtra 400086, India","Clothing store","+91 1800 889 8000","400086","0","Maharashtra","H&M","https://www2.hm.com/en_in/customer-service/shopping-at-hm/store-locator/india/mumbai/r-city/IN0026.html?utm_source=google_location&utm_medium=organic&utm_content=IN0026&utm_campaign=pi_INQ00AAU0AA004"
"Samhita Complex, 23, Anil Chambers Telephone Exchange, behind Saki Naka, Andheri East, Mumbai, Maharashtra 400072, India","Children's clothing store","+91 77188 54563","400072","0","Maharashtra","Little Clothings","http://www.littleclothings.com/"
"Q/10, Plot 43, Road No. 6, Govandi Slums, Govandi West, Sai Baba Nagar, Govandi East, Mumbai, Maharashtra 400043, India","Children's clothing store",,"400043","0","Maharashtra","HABIB GARMENTS",
"Shop No-6&7,Milan Commercial Centre,Anuradha Co-Op Society, 2 nr, Milan Subway, Santacruz (West), Mumbai, Maharashtra 400054, India","Children's clothing store","+91 98679 75780","400054","16","Maharashtra","Havok Clothings","http://www.havokclothing.com/"
"Silakaari The Fashion Café, Shah Industrial Premises, CSL, Deonar Village Rd, landmark Unit 11, opp. Tridhaatu Morya, Deonar, Govandi East, Mumbai, Maharashtra 400088, India","Clothing store",,"400088","80","Maharashtra","Silakaari - The Fashion Store !","http://silakaari.com/"
"opp. L2K, near Codes, Khar, Old, Khar West, Mumbai, Maharashtra 400052, India","Baby clothing store",,"400052","4","Maharashtra","Cherry Kids Wear",
"Shop No 5, Lal Bahadur Shastri Marg, Kurla West, Kurla, Mumbai, Maharashtra 400070, India","Children's clothing store","+91 98678 18725","400070","2","Maharashtra","G JUNIOR",
"Phoenix Market City Mall, Kaveri Estate, Lal Bahadur Shastri Marg, below PVR Cinemas, Kurla West, Kurla, Mumbai, Maharashtra 400070, India","Clothing store","+91 86579 59712","400070","2589","Maharashtra","Pantaloons (Phoenix Market City, Mumbai)","https://stores.pantaloons.com/pantaloons/stores-in-mumbai/stores-in-kurla-west/pantaloons-in-kurla-west-mumbai--f4fc3f4a-fe5e-4892-b28a-70f6f66f099f/home"
"Marina Bldg, Juhu Tara Rd, Nazir Wadi, Theosophical Housing Colony, Juhu, Mumbai, Maharashtra 400049, India","Boutique","+91 22 2612 4007","400049","6","Maharashtra","Chic Baby","http://www.chicbaby.in/"
"Shop No. 01, Line No. B, Plot No. 06, near Hindustan Bank, Shivaji Nagar Number 1, Govandi West, Shivaji Nagar, Govandi East, Mumbai, Maharashtra 400043, India","Women's clothing store","+91 91360 81118","400043","18","Maharashtra","Farwaniya Hijab",
"Shop No .7, Halwai Nagar Building, Sahar Rd, opp. Jain Temple, Navpada, Netaji Subhash Nagar, Andheri East, Mumbai, Maharashtra 400069, India","Clothing store","+91 95940 19983","400069","5","Maharashtra","Vstyle",
"Shop no. 3, Mohini Tower, 5th Rd, behind hotel shiv Sagar, Govind Dham, Khar West, Mumbai, Maharashtra 400052, India","Baby clothing store",,"400052","2","Maharashtra","Little duck",
"Shop no. 19, Nilkanth Market, Mahatma Ghandhi Rd, & 20, Ghatkopar East, Mumbai, Maharashtra 400077, India","Children's clothing store","+91 87793 83195","400077","10","Maharashtra","Viraj Children's Wear",
"New post office, sayba palace, 34-35/A, New Mill Rd, Kurla West, Kurla, Mumbai, Maharashtra 400070, India","Baby clothing store","+91 98218 08088","400070","5","Maharashtra","Sayba kid's wear",
"8th floor, Eudora building, 17th Rd, Khar, Khar West, Mumbai, Maharashtra 400052, India","Children's clothing store","+91 98206 88721","400052","23","Maharashtra","Balsara Boutique (Frills and Flowers)",
"504, Linking Rd, opp. Mc. Donalds, Khar West, Mumbai, Maharashtra 400052, India","Children's clothing store","+91 93245 99564","400052","46","Maharashtra","Selection",
"Shop Number 05, Super Bazar, Santacruz Railway Station Rd, Navin Nagar, Willingdon, Santacruz (West), Mumbai, Maharashtra 400054, India","Baby clothing store","+91 76666 77755","400054","2","Maharashtra","YUSRAH KIDS WEAR",
"3. 12/36, Kurla W Sta Rd, Brahmanwadi, Kurla, Mumbai, Maharashtra 400070, India","Children's clothing store","+91 97027 75520","400070","0","Maharashtra","Kids World",
"Sanitorium Ln, Bhatwadi, Kapol wadi, Pant Nagar, Ghatkopar West, Mumbai, Maharashtra 400086, India","Children's clothing store","+91 98947 51201","400086","1","Maharashtra","Arihant Emporium",
"37, Hill Rd, opp. Elco Market, Santosh Nagar, Bandra West, Mumbai, Maharashtra 400050, India","Children's clothing store","+91 99670 22325","400050","22","Maharashtra","Dots",
"Shant Sakha building, Nehru Rd, above Adar Udupi Refreshments, Navpada, Vile Parle East, Vile Parle, Mumbai, Maharashtra 400057, India","Baby clothing store","+91 98605 01589","400057","7","Maharashtra","Cuddles & Coddles",
"Shop No.3, Roshan House,plot Nbr 130 35th Road, Old Khar, Khar Rd, W, Mumbai, Maharashtra 400052, India","Children's clothing store","+91 97027 82045","400052","3","Maharashtra","Krishna Collection (Children wear)","http://www.krishnacollection.com/"
"Air india, 180, Kalina Kurla Rd, opposite union bank, Santacruz, Mumbai, Vidya Nagari, Kalina, e, Mumbai, Maharashtra 400098, India","Children's clothing store","+91 86919 07005","400098","1","Maharashtra","Deepak Stores",
"5B, 160, Mittal Industrial Estate Rd, Mittal Industrial Estate, Marol, Andheri East, Mumbai, Maharashtra 400059, India","Children's clothing store",,"400059","90","Maharashtra","Kidipoo","http://www.kidipoo.com/"
"B/1, Plot no 38, Road No.5, Govandi Slums, Govandi West, Adasa Nagar, Shivaji Nagar, Mumbai, Maharashtra 400043, India","Children's clothing store","+91 81089 78207","400043","1","Maharashtra","A.S.brothers",
"Silver Pearl Building, 204, 218, Waterfield Road, Bandra West, Mumbai, Maharashtra 400050, India","Baby store","+91 91674 40140","400050","4","Maharashtra","Malabar Baby India","https://allthingsbaby.com/collections/malabar-baby"
"Shop no.6 & 14 Amrapali shopping centre, Vaikunthlal Mehta Rd, near sahakari Bhandar, JVPD Scheme, Vile Parle West, Maharashtra 400049, India","Clothing supplier","+91 98201 40342","400049","9","Maharashtra","Urban clothing",
"Shop No 2, Plot No 555, 33rd Rd, Khar, Khar West, Mumbai, Maharashtra 400052, India","Children's clothing store","+91 98670 79796","400052","5","Maharashtra","Masti Kids Wear",
"Shop no.49, Shyam Kamal Building, A, Monghibai Rd, Agarwal Market, Vile Parle East, Vile Parle, Mumbai, Maharashtra 400057, India","Clothing store","+91 22 4978 5517","400057","3","Maharashtra","Tycoon Menswear",
"Sai Commercial Complex, 504, Linking Rd, Khar West, Mumbai, Maharashtra 400052, India","Clothing store","+91 22 2604 6009","400052","6","Maharashtra","Tan-Zeb",
"Business Suites 9, SV Rd, Saraswat Nagar, Willingdon, Santacruz (West), Mumbai, Maharashtra 400054, India","Children's clothing store","+91 77388 21102","400054","57","Maharashtra","Vern Kids from the House of Telon India","https://telonindia.com/"
"near Railway Station, Khar, Khar (E, Jawahar Nagar, Khar East, Mumbai, Maharashtra 400051, India","Clothing store","+91 97690 12295","400051","64","Maharashtra","Maharashtra Family Shop",
"120, Fashqua, Deepchand Shopping Centre, Santacruz Railway Station Rd, Bajaj Wadi, Railway Colony, Santacruz (West), Mumbai, Maharashtra 400054, India","Children's clothing store","+91 97695 95325","400054","12","Maharashtra","Shavli",
"santacruz(w, Shop No.2 , Rajnath Singh Estate, near Sambhaji Garden, Kothu Wadi, Mumbai, Maharashtra 400054, India","Children's clothing store","+91 99095 63278","400054","1","Maharashtra","Yukti Fashion -Girls Wear","https://www.yuktifashion.in/"
"Shop No 01,02,03, First Floor, K Star Mall, VN Purav Marg, near Diamon Garden, Diamond Garden, Basant Garden, Chembur, Mumbai, Maharashtra 400071, India","Clothing store","+91 86579 59735","400071","560","Maharashtra","Pantaloons (K-Star Mall, Mumbai)","https://stores.pantaloons.com/pantaloons/stores-in-mumbai/stores-in-chembur/pantaloons-in-chembur-mumbai--4aa6e2cf-17a9-4c7d-8e3d-78bc66ce4cdd/home"
"Ghatkopar, Sindhu Wadi, Ghatkopar East, Mumbai, Maharashtra 400077, India","Baby clothing store",,"400077","0","Maharashtra","VEDANSH CREATION",
"Shop No F18C, First Floor, R City Mall, Lal Bahadur Shastri Marg, Amrut Nagar, Ghatkopar West, Mumbai, Maharashtra 400086, India","Clothing store","+91 86579 59709","400086","2052","Maharashtra","Pantaloons (R City Mall, Mumbai)","https://stores.pantaloons.com/pantaloons/stores-in-mumbai/stores-in-ghatkopar-west/pantaloons-in-ghatkopar-west-mumbai--de0457e5-c932-4f1a-9503-10042fd85df6/home"
"67, Ground Floor, Lal Bahadur Shastri Marg, Amrut Nagar, Ghatkopar West, Mumbai, Maharashtra 400086, India","Clothing store","+91 1800 209 9901","400086","1576","Maharashtra","Westside","https://www.westside.com/?utm_source=google-gmb&utm_medium=gmb-seo-url&utm_campaign=westside-gmb"
"PUSHPANJALI SOCIETY, SV Rd, Santacruz (West), Mumbai, Maharashtra 400054, India","Baby clothing store",,"400054","0","Maharashtra","MISS OLIVE",
"Shop 2, Biradari Building, Mahatma Gandhi Rd, opposite बैंक ऑफ़ बरोडा, Bhatwadi, Kapol wadi, Ghatkopar West, Mumbai, Maharashtra 400086, India","Children's clothing store","+91 98211 65688","400086","9","Maharashtra","Chheda Readymade Store",
"Arun bazer, Santacruz Railway Station Rd, Willingdon, Santacruz, Mumbai, Maharashtra 400054, India","Children's clothing store",,"400054","0","Maharashtra","Kids clothes",
"K L, Victoria Santacruz W, CTS. No. G, 2 of Village, 30/1 & G/30, Mumbai, Maharashtra 400054, India","Clothing store","+91 1800 889 8000","400054","208","Maharashtra","H&M","https://www2.hm.com/en_in/customer-service/shopping-at-hm/store-locator/india/mumbai/hm-k-l-victoria/IN0068.html?utm_source=google_location&utm_medium=organic&utm_content=IN0068&utm_campaign=pi_INQ00AAU0AA004"
"Santacruz Railway Station Rd, Near seasons showroom gate, Railway Colony, Santacruz (West), Mumbai, Maharashtra 400054, India","Children's clothing store",,"400054","0","Maharashtra","Elegant Fashion",
"Shop Number, 3R5R+6R9, 18, Kherwadi Rd, Kherwadi, Bandra East, Mumbai, Maharashtra 400051, India","Men's clothing store",,"400051","2","Maharashtra","Dollar",
"At Kumu, Villa Chawl, Room No 3 Ground Floor Situated & Lying, Kothu Wadi, Santacruz (West), Mumbai, Maharashtra 400054, India","Clothing supplier","+91 98922 41951","400054","5","Maharashtra","Jay Ambe Apparels ( Me-Alija)",
"Lal Bahadur Shastri Marg, Kamani, Kurla West, Kurla, Mumbai, Maharashtra 400070, India","Clothing store","+91 1800 889 8000","400070","3264","Maharashtra","H&M","https://www2.hm.com/en_in/customer-service/shopping-at-hm/store-locator/india/mumbai/phoenix-market-city/IN0008.html?utm_source=google_location&utm_medium=organic&utm_content=IN0008&utm_campaign=pi_INQ00AAU0AA004"
"CROWN, 2nd Hasnabad Ln, Willingdon, Santacruz West, Mumbai, Maharashtra 400054, India","Designer clothing store","+91 81083 24443","400054","1","Maharashtra","fARHEENzs SELECTIONs & COLLECTIONs","http://www.farheenzs.com/"
"Gandhi Bazaar, near Jhulelal Mandir, Chembur Camp, Mumbai, Maharashtra 400074, India","Lingerie store","+91 97733 48340","400074","16","Maharashtra","Anil Hosiery Store",
"Gali no d3 plot, No 27, Govandi Slums, Govandi West, Phase 1, Shivaji Nagar, Mumbai, Maharashtra 400043, India","Children's clothing store",,"400043","0","Maharashtra","S A KIDS FASHION",
"Ground Floor, Unit No.G-9, R City Mall, Lal Bahadur Shastri Marg, Amrut Nagar, Ghatkopar West, Mumbai, Maharashtra 400086, India","Western apparel store","+91 22 4783 1373","400086","23","Maharashtra","Gap R City","https://gap.ajio.com/"
"Shop no.1, Taxi Stand, Road No. 1, near sai baba mandir, opposite parksite, Vikhroli Park Site, Parksite Colony, Vikhroli West, Mumbai, Maharashtra 400079, India","Baby store","+91 72084 04644","400079","3","Maharashtra","Diaper House baby & adults diaper Wholesale",
"Shop No 2, Ground floor, K Star Mall, VN Purav Marg, opposite Daimond Garden, Diamond Garden, Sindhi Society, Chembur, Mumbai, Maharashtra 400071, India","Clothing store","+91 22 3562 9505","400071","743","Maharashtra","Jockey Exclusive Store","https://stores.jockey.in/jockey-exclusive-store-sindhi-society-mumbai-6249/home"
"Near Kapolwadi, Samavsaran Building, Mahatma Gandhi Rd, Ghatkopar West, Mumbai, Maharashtra 400086, India","Children's clothing store","+91 98195 54550","400086","3","Maharashtra","Rachana","http://rachanasansad.edu.in/"
"Shop No.6, Myra Sadan, W, Sonapur Ln, opp. City Hospital, Kurla West, Kurla, Mumbai, Maharashtra 400070, India","Children's clothing store","+91 90822 11552","400070","0","Maharashtra","My Choice",
"3V8H+G9J, Kurla W Sta Rd, Kurla West, Kurla, Mumbai, Maharashtra 400070, India","Children's clothing store","+91 91372 12421","400070","0","Maharashtra","Junior Party",
"13, 3rd floor, Raju Mansion, CLUSTER_MUMBAI SUBURBAN_402, Off, Vallabhbaug Ln, Railway Police Colony, Ghatkopar East, Mumbai, Maharashtra 400075, India","Baby store",,"400075","0","Maharashtra","TRAVELICIOUS BABY",
"Shop no, Bakhtawar Building, 4, Kalina Jama Masjid Ln, Kolivery Village, Kalina, Andheri West, Mumbai, Maharashtra 400029, India","Children's clothing store",,"400029","19","Maharashtra","Alishba kids store",
"Shop no.04, Bldg, Pandit Jawaharlal Nehru Rd, Mulund West, Mumbai, Maharashtra 400080, India","Women's clothing store","+91 83559 08281","400080","144","Maharashtra","Kalpana Best Kid's & Ladies Wear shop",
"shop no.1, Station Rd, opp. ramwadi, Tagore Nagar, Vikhroli East, Mumbai, Maharashtra 400083, India","Clothing store","+91 98197 97981","400083","65","Maharashtra","SANSKRUTI women & kids fashion wear संस्कृती लेडीज आणी किड्स फॅशन वेर",
"City Mall, Phoenix Market, Unit No F-64, First Floor, Lal Bahadur Shastri Marg, Mumbai, Maharashtra 400070, India","Clothing store","+91 22 4011 3429","400070","238","Maharashtra","Jockey Exclusive Store","https://stores.jockey.in/jockey-exclusive-store-kurla-west-mumbai-37608/home?utm_source=GBP"
"Mehtab Lane, Shop No 7 Mehtab Lane, SG Barve Marg, opposite Royal Hotel, Kurla West, Mumbai, Maharashtra 400070, India","Children's clothing store","+91 98922 42054","400070","3","Maharashtra","Sweeties Kids",
"Shop No 459, New Mill Rd, near Post office, BMC Colony, W, Kurla, Mumbai, Maharashtra 400070, India","Clothing store",,"400070","4","Maharashtra","One Man Show - Kids Wear",
"Milan shopping centre, 6, Mahatma Gandhi Rd, Bhatwadi, Kapol wadi, Ghatkopar West, Mumbai, Maharashtra 400086, India","Clothing store","+91 98330 50708","400086","4","Maharashtra","Mascot House of New Born & children's wear","http://www.mascot.in/"
"Plot No 16 ,Line -A,Room no - 1 , Road no 2, Bhaji Market Shivaji Nagar, Govandi East, Mumbai, Maharashtra 400043, India","Children's clothing store",,"400043","5","Maharashtra","HAPPY KIDz COLLECTION",
"17, C/1, Road No. 2, Govandi Slums, Govandi West, Phase 1, Shivaji Nagar, Mumbai, Maharashtra 400043, India","Children's clothing store","+91 83558 41928","400043","1","Maharashtra","Fatima Traders & Wholesaler",
"Shop no 2, Laxmi chayya building, Bhandup Station Rd, near top 10 mobile shop, Bhandup West, Mumbai, Maharashtra 400078, India","Children's clothing store","+91 97734 20641","400078","6","Maharashtra","Jack N Jill",
"Shop 38, Pipermentwala Estate, Lal Bahadur Shastri Marg, Dina Bama Estate, Bhandup West, Mumbai, Maharashtra 400078, India","Children's clothing store","+91 77383 81606","400078","99","Maharashtra","HanselNGretel.in","http://hanselngretel.in/"
"Shop no. 13, Besides Ration shop, W, Kurla, Mumbai, Maharashtra 400070, India","Baby clothing store","+91 93727 42973","400070","1","Maharashtra","Krishna Ethnic wear",
"Plot No, 8, Sadashiv Bhavan, 35, Ram Ratan Trivedi Rd, Vidya Vihar, Mulund West, Mumbai, Maharashtra 400080, India","Baby clothing store","+91 83694 20704","400080","147","Maharashtra","National Dresses",
"Shop Number.3, Haji Nazar Ali Chawl, New Mill Rd, BMC Colony, Kurla West, Kurla, Mumbai, Maharashtra 400070, India","Baby clothing store","+91 93240 96075","400070","4","Maharashtra","A To Z Mini Market",
"6, Sahar Rd, opp. Jain Tempal, Halwai Nagar, Koldongri, Andheri ( E, Mumbai, Maharashtra 400069, India","Baby clothing store","+91 91679 21362","400069","4","Maharashtra","OM SAI GARMENTS",
"1st Rd, Khar, Ram Krishna Nagar, Khar West, Mumbai, Maharashtra 400052, India","Clothing store","+91 93222 21515","400052","0","Maharashtra","Kwality Dresses",
"D-6, Jai Shastri Nagar, Highland Park, Mulund West, Mumbai, Maharashtra 400082, India","Baby clothing store","+91 93246 12542","400082","12","Maharashtra","Mum's Caress","http://www.mumscaress.com/"
"Gala No B/2, First Floor, Lokmanya Tilak Nagar, Saki Naka, Mumbai, Maharashtra 400072, India","Baby clothing store","+91 99671 43068","400072","33","Maharashtra","Arvesa","http://arvesa.in/"
"Shop No 1, 2, Lal Bahadur Shastri Marg, Kurla West, Kurla, Mumbai, Maharashtra 400070, India","Baby clothing store","+91 98333 43998","400070","55","Maharashtra","SOBRON KIDS WEAR",
"Nehru Nagar, Kurla, Mumbai, Maharashtra 400024, India","Baby store","+91 83568 30369","400024","0","Maharashtra","Majid Clothes",
"Amity Appartment, Hill Road, Kurla West, New Hall Road, Christian Gaon, Mumbai, Maharashtra 400070, India","Baby store","+91 98929 63609","400070","0","Maharashtra","We Care Diaper Points",
"90 Feet Rd, Friends Colony, Bhandup East, Mumbai, Maharashtra 400042, India","Baby clothing store","+91 99200 41049","400042","4","Maharashtra","Cuddle Quilts...Warmth from the Heart❤️","https://www.instagram.com/cuddle_quilts?igsh=MXJwa3RzaTMzZnpnbw=="
"Lal Bahadur Shastri Marg, Amrut Nagar, Ghatkopar West, Mumbai, Maharashtra 400086, India","Children's clothing store",,"400086","906","Maharashtra","Mia & Mio",
"shop no 4A, Sanghvi Square, Mahatma Gandhi Rd, opp. bank of baroda, near chadva crockery, Bhatwadi, Kapol wadi, Ghatkopar West, Mumbai, Maharashtra 400086, India","Children's store","+91 98334 65522","400086","28","Maharashtra","New hello tweety",
"Shop No. 788, 1/2Azad, Nagar, near Sai Baba Mandir, Kasturi Park, Maneklal Estate, Ghatkopar West, Mumbai, Maharashtra 400086, India","Baby store","+91 98674 18580","400086","0","Maharashtra","Brother Diapers",
"Swami Vivekananda Rd, opp. Railway Station, Gyan Nagar, Mhatre Wadi, Borivali West, Mumbai, Maharashtra 400092, India","Stationery store","+91 98213 70707","400092","0","Maharashtra","Anupam Stationery Superstore Private Limited","https://www.anupamsuperstore.com/"
"Kabhi Bhi, Plot No 13, Rd Number 9, near Apna Naka, Govandi Slums, Govandi West, Aoo, Shivaji Nagar, Mumbai, Maharashtra 400043, India","Baby store","+91 79833 26633","400043","0","Maharashtra","IRFAN",
"Postal Colony, Chembur, Mumbai, Maharashtra 400071, India","Baby store","+91 77269 84053","400071","0","Maharashtra","Diviya Ready",
"Shop No. 3, Jas Villa, Near, Orlem Market Ln, Malad, Orlem, Malad West, Mumbai, Maharashtra 400064, India","Baby clothing store","+91 96197 97694","400064","0","Maharashtra","New Baby's",
"1st Floor, Cots and Cuddles, 24, Swami Vivekananda Rd, above DTDC, opposite Dream Suzuki Showroom, Mumbai, Maharashtra 400058, India","Toy store","+91 70457 15842","400058","350","Maharashtra","Cots and Cuddles","https://www.cotsandcuddles.com/"
"i-Plot, SAI SHRADDHA BUILDING, A1, Shop No.5, Daulat Nagar, Santacruz (West), Mumbai, Maharashtra 400054, India","Baby store",,,"5",,"Ahad Baby Shop","https://ahadbabyshop.in/"
"Shop no 113, hi tech commercial complex, LIG Colony, Vinobha Bhave Nagar, Kurla West, Kurla, Mumbai, Maharashtra 400070, India","Baby store",,,"0",,"National Enterprises",
"Shop No 18, Moti Building, opp. Sodawala Lane, Roshan Nagar, Borivali, W, Mumbai, Maharashtra 400092, India","Children's clothing store","+91 86558 81724","400092","191","Maharashtra","Mumkins Kids Wear","http://www.mumkins.in/"
"Lal Tiwari Rd, near faizane Raza masjid, Kandivali, Ganesh Nagar, Kandivali West, Mumbai, Maharashtra 400067, India","Children's store","+91 75060 25351","400067","0","Maharashtra","Vip kids clothing store | kandiwali |",
"Shop No 6-7, Kalpataru Sparkle, near MIG Club, Siddharth Nagar, Bandra East, Mumbai, Maharashtra 400051, India","Clothing store","+91 85910 63709","400051","87","Maharashtra","Fabindia, Bandra East","http://www.fabindia.com/"
"Shop Number 10, Sharda Bhuvan, Narayan Joshi Rd, Jethava Nagar, Kandivali West, Mumbai, Maharashtra 400067, India","Baby clothing store","+91 88792 18055","400067","0","Maharashtra","Alankaar Dresses",
"Super Shopping Complex, Shop No. 25, nadco, SV Rd, near Trupti Farsan, Andheri West, Mumbai, Maharashtra 400058, India","Toy store","+91 98677 35675","400058","69","Maharashtra","Big Town - toys and bag store",
"Shop No. 1, Goyal Shopping Arcade, Bharucha Rd, Sundar Nagar, Borivali West, Mumbai, Maharashtra 400092, India","Baby clothing store",,"400092","6","Maharashtra","Sunita Kids Wear",
"22/173, Motilal Nagar No. 1, near Buddh Mandir, Motilal Nagar I, Goregaon West, Mumbai, Maharashtra 400104, India","Baby clothing store","+91 81697 26392","400104","31","Maharashtra","Kilkaari Kidswear Private Limited","https://kilkaari.shop/"
"Shop No.F-47/48, Moksh Plaza, SV Rd, near BORIVALI RAILWAY STATION, Mhatre Wadi, Borivali West, Mumbai, Maharashtra 400092, India","Children's clothing store","+91 79779 64134","400092","107","Maharashtra","Pogo Kids Wear","https://www.instagram.com/pogokidsborivali/"
"Shop No 54, Malad Shopping Centre,Ground Floor, SV Rd, Malad West, Mumbai, Maharashtra 400064, India","Children's clothing store","+91 98213 33663","400064","53","Maharashtra","Panchratna Apparel","https://www.instagram.com/panchratna.apparel?r=nametag"
"Shop Number 8, Jawahar Darshan Building, Shivaji Chowk, Daftary Road, Malkani Estate, Malad East, Mumbai, Maharashtra 400097, India","Baby clothing store","+91 77180 37869","400097","49","Maharashtra","Lovely Kids Wear- Kids Wear in Malad",
"Shop no.46, new, Bhoomi Park Phase 2 Rd, Malad, Jankalyan Nagar, Malad West, Mumbai, Maharashtra 400095, India","Children's clothing store","+91 91678 89054","400095","15","Maharashtra","RITURAJ best kid's & new born shop","https://www.instagram.com/rituraj_apparels?igsh=bzF5M3BhZmxzZXEz"
"shop No. 6, New Highway Park, E-3, Kandivali, Gokul Heven, Thakur Complex, Kandivali East, Mumbai, Maharashtra 400101, India","Children's clothing store","+91 98190 91438","400101","2","Maharashtra","SMALL WONDER THAKUR COMPLEX",
"PRAVASI INDUSTRIAL ESTATE, Vishveshwar Nagar Rd, Yashodham, Goregaon, Mumbai, Maharashtra 400063, India","Baby clothing store","+91 88284 85837","400063","2","Maharashtra","Parekh Clothing Company",
"Shop No. 4, DP Rd, near Ambedkar School, Kandivali, Gandhi Nagar, Ganesh Nagar, Kandivali West, Mumbai, Maharashtra 400067, India","Clothing store","+91 97737 38406","400067","0","Maharashtra","Tawakkal Garments",
"Shop No 1, Modispaces Volga, Sundar Vihar Socity, Shimpoli Rd, opp. Bank of Baroda, Rayani Gram, Borivali West, Mumbai, Maharashtra 400092, India","Baby clothing store","+91 81695 44933","400092","79","Maharashtra","Elegant kids studio",
"A-3, Veena Sargam, Boraspada Rd, Mahavir Nagar, Panchsheel Garden, Siddhivinayak Nagar, Kandivali West, Mumbai, Maharashtra 400067, India","Baby store",,"400067","12","Maharashtra","Do Little Kids Fashion",
"Bharat optimus, Marve Rd, Malad, Adarsh Nagar, Malad West, Mumbai, Maharashtra 400064, India","Baby store","+91 98203 03865","400064","0","Maharashtra","Baby Giggles by Nipa Shah","http://www.instagram.com/babygiggles.in"
"2, Evershine Nagar Rd, Malad, Evershine Nagar, Malad West, Mumbai, Maharashtra 400064, India","Baby clothing store","+91 98203 62449","400064","15","Maharashtra","Sweety Collection",
"Room no 9, Baxising Chawl, near times of india, Bandongri, Tanji Nagar, Kurar Village, Malad East, Mumbai, Maharashtra 400097, India","Baby clothing store",,"400097","1","Maharashtra","Chamunda Garments",
"Shop Number 9, B, Lokhandwala Cir, Kandivali, MHADA Colony, Lokhandwala Twp, Kandivali East, Mumbai, Maharashtra 400101, India","Clothing store","+91 98924 13230","400101","19","Maharashtra","Cute Baby",
"Shop No.7, Bharucha Rd, Maratha Colony, Dahisar East, Mumbai, Maharashtra 400068, India","Clothing store","+91 85915 14482","400068","0","Maharashtra","Rangila",
"Harishankar Joshi Marg, Anand Nagar, Dahisar East, Mumbai, Maharashtra 400068, India","Baby clothing store","+91 98677 84648","400068","0","Maharashtra","Veditha Enterprises","/url?q=http://vedithastore.myshopify.com/&opi=79508299&sa=U&ved=0ahUKEwj8pdKagrCRAxURLFkFHTOSKeAQ61gIEygQ&usg=AOvVaw1Ct_k23vzeEj1ajVmepTtS"
"Shop No: 3, Besides Hotel Gajanan, Main Carter Rd, near BORIVALI RAILWAY STATION, Borivali East, Mumbai, Maharashtra 400066, India","Clothing store",,"400066","54","Maharashtra","NEW COTTON WORLD - Kids Collection & Ladies Outfits",
"108, Dr DG Palkar Rd, HSG. Society, Gorai 2, Borivali West, Mumbai, Maharashtra 400091, India","Children's clothing store",,"400091","4","Maharashtra","Roop Darshan Exclusive Kids & Ladies Ready Made & Garments",
"Shop Number 57, SV Rd, opposite Indraprasth, near Railway Station, Gyan Nagar, Mhatre Wadi, Borivali West, Mumbai, Maharashtra 400092, India","Clothing store","+91 85912 47988","400092","255","Maharashtra","Kalapi NX Kids & Women's Wear",
"Crystal Lawn Society, E-5, beside Central Bank of India, Kandivali, Nabard Nagar, Thakur Complex, Kandivali East, Mumbai, Maharashtra 400101, India","Clothing store","+91 72085 54477","400101","138","Maharashtra","Image NX",
"Unit No F-55,56, First Floor, Phoenix Marketcity Mall, Lal Bahadur Shastri Marg, opposite Decathlon Sports, Kurla, Mumbai, Maharashtra 400070, India","Clothing store","+91 93727 28934","400070","197","Maharashtra","Fabindia, Phoenix Marketcity Mall, Kurla","http://www.fabindia.com/"
"E19, Kandivali, Kranti Nagar, Kandivali East, Mumbai, Maharashtra 400101, India","Baby store","+91 97680 82363","400101","0","Maharashtra","Shingar Novelty",
"Shop No.48, Indraprastha Shopping Center, Swami Vivekananda Rd, Borivali West, Mumbai, Maharashtra 400092, India","Baby clothing store","+91 99876 08001","400092","3","Maharashtra","Anita Kids Wear",
"shiv Mandir chawl, B-15, near Gorakhnath provision store, Kandivali, Janupada, Thakur Village, Kandivali East, Mumbai, Maharashtra 400101, India","Baby clothing store","+91 83699 33650","400101","1","Maharashtra","Krishna distributors",
"6RHG+9V8, behind Old Mhb Police Station, Swagat Society, MHB Colony, Gorai 1, Borivali West, Mumbai, Maharashtra 400091, India","Baby store",,,"0",,"Sunita Baby Care",
"Ground and First Floor, Vora Codename live 360, Boraspada Rd, beside Raghuleela Mega Mall, Kandivali, Jai Bhim Sanjay Nagar, Kandivali West, Mumbai, Maharashtra 400067, India","Clothing store","+91 86577 26642","400067","13","Maharashtra","Pantaloons (Vora Skyline, Kandivali)","https://stores.pantaloons.com/pantaloons/stores-in-mumbai/stores-in-kandivali-west/pantaloons-in-kandivali-west-mumbai--2cf277be-d44a-454c-ba37-33f0ae72fa74/home"
"Shop Non1, Kandivali Kandivali, Kandivali, Janata Nagar, Kandivali East, Mumbai, Maharashtra 400101, India","Baby store","+91 92510 38381","400101","0","Maharashtra","Luxury",
"Poisar Market Rd, Station Road, Kandivali West, Mumbai, Maharashtra 400067, India","Baby store","+91 97693 29959","400067","0","Maharashtra","Dineshkumar Store",
"Chinchpada, Borivali, Mumbai, Maharashtra 400066, India","Clothing manufacturer","+91 98339 91113","400066","4","Maharashtra","PINKY BABY",
"Shop No, 02, Lal Tiwari Rd, Shop 2, Jagdish Shetty Rd, Kandivali, Ekta Nagar, Baji Mkt, Ganesh Nagar, Kandivali West, Mumbai, Maharashtra 400067, India","Baby store","+91 90657 87512","400067","0","Maharashtra","Jitendra Bag Shop",
"Chaurasiya Fruit Corner, Bihari Tekdi, Poisar, Borivali West, Mumbai, Maharashtra 400101, India","Baby store","+91 91673 19930","400101","1","Maharashtra","Chaurasiya Food",
"Kandivli Industrial Estate, 76C, Charkop, Kandivali West, Mumbai, Maharashtra 400067, India","Manufacturer","+91 98201 93102","400067","24","Maharashtra","Sukhson - Is a leading Plastic Products Manufacturer from Bottles, Container, Corporate Gifts, Baby Potty Seat, Chair, Dry Fruit Box, Fruits Vegetable Basket, Salt Pepper, Multi Utility Set, Racks etc.","http://www.sukhsonindia.com/"
"Shop Number 15, Shree Vitthal Nagar Rd, near 웨스턴 어번 로드 CHS, Devipada, Borivali East, Mumbai, Maharashtra 400066, India","Clothing store","+91 75060 16762","400066","458","Maharashtra","EVERSHINE MEN'S WEAR","https://evershinemenswear.com/"
"Sharma Chall, R R, Kata Road 3, Meghdoot, Mhatre Wadi, Borivali, Mumbai, Maharashtra 400092, India","Baby store","+91 88285 89880","400092","0","Maharashtra","P d hariya",
"Shop no 10 / E20, Creek View Apartment, chsl, Yogi Nagar Marg, near aura hotel, Yogi Nagar, Borivali West, Mumbai, Maharashtra 400091, India","Clothing alteration service",,"400091","7","Maharashtra","Shyam Ladies Tailors","https://youtube.com/@shyamt32?si=0ceZZwMVi9FLSpXN"
"Kishori Khesari Flower, Kandivali, Charkop Gaon, Kandivali West, Mumbai, Maharashtra 400067, India","Baby store","+91 70625 10092","400067","0","Maharashtra","Kishori Pulavar",
"Shop Number 4/5, Om Shanti Chowk, Chandavarkar Rd, Roshan Nagar, Borivali, w, Mumbai, Maharashtra 400092, India","Clothing store","+91 89287 23983","400092","1047","Maharashtra","Indrani Silk","http://www.indranisilks.com/"
"Shree ji Shopping Centre, Hospital, Mahatma Gandhi Rd, Kandivali, Bhagat Colony, Kandivali West, Mumbai, Maharashtra 400067, India","Baby store","+91 82912 31667","400067","0","Maharashtra","J K Medical And General Store",
"31, Chikku Wadi Rd, Malad, Sai Krupa Nagar, Chikuwadi, Malad West, Mumbai, Maharashtra 400067, India","Baby store","+91 788 061 3691","400067","0","Maharashtra","Khuwaja Gareeb Nawaz",
"Koli House, Malwani Church, 01, Marve Rd, Malad, Chikuwadi, Malad West, Mumbai, Maharashtra 400095, India","Baby store",,,"0",,"Agastya Kirana Store",
"Shop Number 10, Baja, Super Shopping Complex, Bajaj Cross Road, Kandivali, Jethava Nagar, Kandivali West, Mumbai, Maharashtra 400067, India","Wedding store","+91 76669 40262","400067","16","Maharashtra","Sawariya Collection",
"Poisar Gav, Ali Ibrahim Chawl, Poisar, Kandivali East, Mumbai, Maharashtra 400067, India","Baby store","+91 98349 42418","400067","0","Maharashtra","Lalchand Store",
"8, Jagdish Shetty Rd, Kandivali, Ekta Nagar, Kandivali West, Mumbai, Maharashtra 400067, India","Baby store","+91 85918 38687","400067","0","Maharashtra","Rajasthan Collection DINESHRJAIN",
"Shivaji Chowk, SN Dube Rd, Rawalpada, Dahisar East, Mumbai, Maharashtra 400068, India","Clothing store","+91 86527 03598","400068","3","Maharashtra","Ashvik Clothes","http://ashvikclothes.com/"
"Shop No 1, Kandivali Kandivali, Food Corporation of India Warehouse, Borivali, Mumbai, Maharashtra 400066, India","Baby store","+91 75749 64889","400066","0","Maharashtra","Deepika Patel",
"Purusham Garments Pvt. Ltd., Target Mall, Chandavarkar Rd, opp. Rajmahal Hotel, Borivali, Mumbai, Maharashtra 400092, India","Clothing store","+91 98204 74761","400092","472","Maharashtra","Purusham","http://www.purusham.com/"
"2, Tulsi Tavar T P S, Rod, Hanuman Nagar, Daulat Nagar, Borivali, Mumbai, Maharashtra 400066, India","Baby store","+91 99196 69859","400066","0","Maharashtra","Raviprakash Fruit",
"Shop No.1, Dias Apartments, near Fish Market, I C Colony, Borivali West, Mumbai, Maharashtra 400103, India","Baby store","+91 98205 92234","400103","0","Maharashtra","Nic Nat Enterprises",
"Shop No 1, Kandivali Kandivali, Food Corporation of India Warehouse, Borivali, Mumbai, Maharashtra 400066, India","Baby store","+91 96020 15998","400066","0","Maharashtra","Dabhi Narendrakumar Girdharilal",
"Shop No. 49/50, Profit Centre, 90 Feet Rd, Kandivali, Mahavir Nagar, Kandivali West, Mumbai, Maharashtra 400067, India","Clothing store","+91 22 4604 8776","400067","880","Maharashtra","Jockey Exclusive Store","https://stores.jockey.in/jockey-exclusive-store-charkop-mumbai-6382/home"
"Jagannath Yadav Chawl, Hanuman Nagar Rd, Akurli Rd, Kandivali, Akurli Nagar, Kandivali East, Mumbai, Maharashtra 400101, India","Baby store","+91 82862 41984","400101","0","Maharashtra","Tayeba Collection MOHAMMAD SARFARAJ ABDUL MAJID SAYED",
"Mann Mandir Chs, New Saibaba Nagar, Hemu Colony, Sector I, Kandivali West, Mumbai, Maharashtra 400067, India","Children's clothing store",,"400067","0","Maharashtra","J P Section",
"1, Kandivali, Jethava Nagar, Kandivali West, Mumbai, Maharashtra 400067, India","Baby store","+91 86570 80161","400067","0","Maharashtra","Shyamsundar Rajbhar",
"37borivali, Borivali, Mumbai, Maharashtra 400066, India","Baby store","+91 92793 83827","400066","0","Maharashtra","Pawan Kumar Shop",
"Gala no 7, Siddhivinayak industrial estate, near Akurli metro station, Kandivali, Narsi Pada, Kandivali East, Mumbai, Maharashtra 400101, India","Clothing store","+91 98205 50280","400101","4","Maharashtra","Inkwale","http://www.inkwale.com/"
"Shop No 21, Sheetal Bar, Vaishali Nagar, Dahisar East, Mumbai, Maharashtra 400068, India","Baby store","+91 82867 83598","400068","0","Maharashtra","Shiv Kumar Gupta",
"Gala 123, Aura Biplex, SV Rd, Shastri Nagar, Mulji Nagar, Borivali West, Mumbai, Maharashtra 400092, India","Clothing store","+91 90040 92385","400092","1461","Maharashtra","Fabric Lounge","https://www.fabriclounge.in/"
"C/8, F, Malad Industrial Estates, Malad, Kanchpada, Malad West, Mumbai, Maharashtra 400064, India","Baby clothing store",,"400064","0","Maharashtra","Mahikrite India",
"Shop No, 1kandivali Kandivali, Food Corporation of India Warehouse, Borivali, Mumbai, Maharashtra 400066, India","Baby store","+91 83061 69309","400066","0","Maharashtra","Ragvi",
"Mahalaxmi welfare society, Kandivali, Janupada, Thakur Village, Kandivali East, Mumbai, Maharashtra 400101, India","Clothing store","+91 98923 96075","400101","2","Maharashtra","S.s clothing collection","https://www.instagram.com/s.s_clothing_collection?igsh=ZzZ0dHgwY3k3dDl5"
"Shop no 2 Kranti Nagar, Akurli Rd, Gokul Nagar, Kandivali East, Mumbai, Maharashtra 400101, India","Baby store","+91 70459 84782","400101","0","Maharashtra","Pitale Soup Shop",
"67, Sundar Nagar, Borivali, Mumbai, Maharashtra 400092, India","Baby store","+91 88505 39228","400092","2","Maharashtra","Yeshwant D Shah HUF",
"Rampur Raygarh, Kandivali, Shiv Sagar, Kandivali East, Azamgarh, Mumbai, Uttar Pradesh 276001, India","Baby store",,,"0",,"Sadhana Shop",
"Shop No 1, Kandivali, Janata Nagar, Ghatkopar, Mumbai, Maharashtra 400101, India","Baby store",,,"0",,"Manoj Kumar",
"Nanddham Society, Cross Rd Number 2, opp. THAKUR COLLEGE OF ENGINEERING AND TECHNOLOGY, ठाकुर, Singh Agri Estate, Kandivali East, Mumbai, Maharashtra 400101, India","Baby clothing store",,"400101","0","Maharashtra","Right Vision Baby Care",
"187, Abhinav Nagar Rd 5, Abhinav Nagar, Borivali East, Mumbai, Maharashtra 400066, India","Baby store",,,"0",,"Manoj Kumar",
"Shop No.6, Indraprasth, SV Rd, Mangal Kunj, Datta Park, Borivali West, Mumbai, Maharashtra 400092, India","Men's clothing store","+91 91679 32889","400092","3","Maharashtra","Star Plus Boy Zone",
"1st Floor, Goyal Shopping Arcade, 114/115, Lokmanya Tilak Rd, opp. Borivali Railway Station, Sundar Nagar, Borivali, Mumbai, Maharashtra 400092, India","Uniform store",,"400092","185","Maharashtra","Variety Uniforms | All Types of Uniform Manufacturer & Supplier",
"Tilak Nagar Lucknow Rd, Kandivali, Hanuman Nagar, Kandivali East, Azamgarh, Mumbai, Uttar Pradesh 276001, India","Baby store","+91 80155 40374","276001","0","Uttar Pradesh","Manish Shop",
"Shop No. 11, INDRAPRASTHA SHOPPING CENTRE, 92, Swami Vivekananda Rd, Mangal Kunj, Datta Park, Borivali West, Mumbai, Maharashtra 400092, India","Lingerie store","+91 98199 78147","400092","856","Maharashtra","A1 Collection LLp",
"7V48+764, Anannd Nagar Dahisar, Malad East, Mumbai, Maharashtra 400068, India","Baby store","+91 91374 05663","400068","0","Maharashtra","Suryoday Stores",
"Raghuleela Mega Mall, 104, Poisar, Kandivali West, Mumbai, Maharashtra 400067, India","Children's clothing store","+91 86521 31510","400067","0","Maharashtra","TERRY BERRY KID'S WEAR",
"GATE NO 5 SHOP, 1189, Abdul Hamid Marg, Malad, Old Collector Compound, Malvani, Malad West, Mumbai, Maharashtra 400095, India","Children's clothing store","+91 79774 70370","400095","0","Maharashtra","FUNKY'Z KIDS",
"Shop No:G-40, Moksh Plaza, SV Rd, Mhatre Wadi, Borivali West, Mumbai, Maharashtra 400092, India","Children's clothing store","+91 98339 98997","400092","0","Maharashtra","Half Ticket",
"LITLLE HUB NX , 322/43 SWAPNAPURTI C.H.S. LTD. , CHARKOP MARKET, SECTOR NUMBER 3, RSC Rd Number 32, Kandivali West, Mumbai, Maharashtra 400067, India","Baby store",,"400067","0","Maharashtra","LITTLE HUB NX",
"Gold Crust Building, GF & FF, Opp Manubhai Jewelers, Lokmanya Tilak Rd, nr. Railway Stn, Borivali, W, Maharashtra 400092, India","Clothing store",,"400092","4097","Maharashtra","Westside - Borivali, Mumbai","https://www.westside.com/?utm_source=google-gmb&utm_medium=gmb-seo-url&utm_campaign=westside-gmb"
"SHIV KRUPA CHS, 4, RDP 8, Sector 8, Kandivali West, Mumbai, Maharashtra 400092, India","Baby store","+91 80809 94413","400092","1","Maharashtra","Food House",
"Kandivali, MHADA Colony, Lokhandwala Twp, Kandivali East, Mumbai, Maharashtra 400101, India","Baby store",,,"0",,"Sprog Food",
"Room no. 04, Khalil Chawl, Mahatma Gandhi Rd, near S.T. Depot, Sukarwadi, Borivali East, Mumbai, Maharashtra 400066, India","Children's clothing store","+91 788 064 0226","400066","1","Maharashtra","Ashirwad Creation","https://www.ashirvadcreations.in/"
"1/3, opp. Amrut hotel, nr. New Link Road, Kandivali, Kandivalis Dharavi, Maharashtra Nagar, Kandival, Mumbai, Maharashtra 400067, India","Baby store","+91 70216 15775","400067","0","Maharashtra","Samar Enterprises",
"V Saok Mall, opposite Kamla Sport Club, Mahavir Nagar, Sector 10, Kandivali West, Mumbai, Maharashtra 400067, India","Clothing store","+91 1800 891 0001","400067","10015","Maharashtra","Fashion Factory","https://location.reliancefashionfactorystores.com/fashion-factory-ff-mumbai-kandivali-clothing-stores-kandivali-west-mumbai-286972/Home"
"B-237, OIC, New Link Rd, Goregaon West, Mumbai, Maharashtra 400104, India","Baby store","+91 98205 05363","400104","0","Maharashtra","LITTLE DREAMZ",
"Yashprabha CHS, Kastur Park Rd, Shimpoli, Borivali West, Mumbai, Maharashtra 400092, India","Clothing store","+91 86575 40854","400092","2666","Maharashtra","Zudio - Yashprabha Chs, Mumbai","https://www.zudio.com/"
"Shop 1&2, Madhav Apartment, Shimpoli Rd, Kastur Park, Borivali West, Mumbai, Maharashtra 400092, India","Clothing store","+91 22 2898 3390","400092","659","Maharashtra","Parichay Department Store","https://www.parichaydepartmentstore.in/"
"Shop no. 2, Ground, Poonam Heights, 2, Swami Vivekananda Rd, Udyog Nagar, Goregaon West, Mumbai, Maharashtra 400104, India","Children's clothing store","+91 72300 34824","400104","0","Maharashtra","Mumkins Kids Wear","https://www.mumkins.in/"
"2, Kandivali, Mumbai, Maharashtra 400101, India","Baby store","+91 91168 89967","400101","0","Maharashtra","Ramesh Patel",
"426, 427, Swami Vivekananda Rd, next to Jyoti Plaza, opposite Anandvan Ashram, Kandivali, A/1-A, Roopkamal Society, Kandivali West, Mumbai, Maharashtra 400067, India","Baby store","+91 99702 92784","400067","0","Maharashtra","BIGGIE BABY",
"Star Bazar Utopia Garden Grove Mall Sector 8, Kandivali West, Village Eksar, Chikoowadi, Borivali West, Mumbai, Maharashtra 400092, India","Clothing store","+91 77210 39046","400092","1929","Maharashtra","Zudio - Utopia Garden Grove Mall, Borivali","https://www.zudio.com/"
"Shop No.24 O C C Gate No.5, Malad, New Mahakali Nagar, Malvani, Malad West, Mumbai, Maharashtra 400095, India","Children's clothing store","+91 83559 70065","400095","3","Maharashtra","Alif Kids Wear",
"ok, Kandivali, Singh Agri Estate, Kandivali East, Mumbai, Maharashtra 400101, India","Baby store",,,"0",,"Baby n Beyond",
"Shop No-7/8, E-3, Highway Park, Thakur Complex, Asha Nagar Rd, Gokul Heven, Saraf Chaudhary Nagar, Kandivali East, Mumbai, Maharashtra 400101, India","Clothing store","+91 72085 54466","400101","48","Maharashtra","Softouch",
"Lalji pada market, Sahyog Ln, Kandivali, Kandivali West, Mumbai, Maharashtra 400067, India","Baby clothing store",,"400067","0","Maharashtra","Pooja cloth store",
"vidhyarthi bhuvan, Main Carter Rd, Chinchpada, Borivali East, Mumbai, Maharashtra 400066, India","Children's clothing store","+91 98337 77235","400066","8","Maharashtra","Deep sagar/best ethnicwear in mumbai","https://www.indiamart.com/deep-sagar-mumbai/"
"Shop No.14, Serene Shelter, next to Saraswat Bank, opp. Aryan Hospital, Nehru Nagar, Kurla, Mumbai, Maharashtra 400024, India","Baby store","+91 76667 86243","400024","43","Maharashtra","Diaper Point",
"Shop No 189, Indraprasth Shopping Centre, Mangal Kunj, Datta Park, Borivali West, Mumbai, Maharashtra 400092, India","Baby clothing store","+91 75061 47744","400092","3","Maharashtra","Nikki Collection",
"Jagdish Shetty Rd, Kandivali, Ganesh Nagar, Kandivali West, Mumbai, Maharashtra 400067, India","Children's clothing store",,"400067","3","Maharashtra","Sat saheb collection Children's wear",
"sangeeta building, babuline naka, 16 new, dadiseth road, Kandivali, Irani Wadi, Malad West, Mumbai, Maharashtra 400067, India","Baby store",,"400067","1","Maharashtra","Suman babysitting",
"B-803, SHREE NAMAN TOWERS, SV Rd, Kandivali, Bhadran Nagar, Kandivali West, Mumbai, Maharashtra 400067, India","Baby store","+91 98191 23139","400067","51","Maharashtra","Johnson Hosiery Works","http://thelovebaby.co.in/"
"Plot no 14/k, 8, Rd Number 9, Govandi Slums, Govandi West, Baiganwadi, Govandi East, Mumbai, Maharashtra 400043, India","Children's clothing store","+91 74088 19578","400043","25","Maharashtra","Unique kids wear",
"Shop No 2, Sai Mall, Bharucha Rd, near PPH.School, opp. bhatladevi Mandir, Maratha Colony, Dahisar East, Mumbai, Maharashtra 400068, India","Clothing store","+91 84509 20980","400068","3","Maharashtra","Rich Look Nx New Born baby & Kids Wear dahisar east",
"Swati Building, 9, Haji Bapu Rd, Mahindra Nagar, Kailash Chandra Cooperative Housing Society, Malad East, Mumbai, Maharashtra 400097, India","Baby clothing store",,"400097","2","Maharashtra","Trendy Threads - Your perfect place for kids Clothing",
"Shri Vallabh Shopping Mall, near, Swami Vivekananda Rd, next to Borivali Jail, Meghdoot, Mhatre Wadi, Borivali West, Mumbai, Maharashtra 400092, India","Clothing store","+91 86579 59720","400092","8106","Maharashtra","Pantaloons (Sri Vallabh Shopping Centre, Mumbai)","https://stores.pantaloons.com/pantaloons/stores-in-mumbai/stores-in-borivali-west/pantaloons-in-borivali-west-mumbai--7526808c-3515-4ce8-b142-3a5199e3a596/home"
"Shop No1, Sanghvi Square, Mahatma Gandhi Rd, Ghatkopar, Kapol wadi, W, Mumbai, Maharashtra 400086, India","Toy store","+91 22 2510 1900","400086","0","Maharashtra","Twinkle Toys & Costmetic",
"Fish Market , K.V.Road, Kanjurmarg Village Road, Mirashi Nagar, Kanjurmarg East, Mumbai, Maharashtra 400042, India","Clothing store","+91 81697 84372","400042","0","Maharashtra","Apple Collection","http://www.applecollection.in/"
"8/9, Super Shopping Complex, SV Rd, Railway Colony, Andheri West, Mumbai, Maharashtra 400058, India","Children's clothing store",,"400058","0","Maharashtra","Honesty Stores",
"Swapna Nagari, Nirmal Nagar, Mulund West, Mumbai, Maharashtra 400080, India","Baby clothing store",,"400080","0","Maharashtra","Thrifttown","http://www.thrifttown.in/"
"Bharat Sports Corner, Complex, Mahatma Gandhi Rd, Pant Nagar, Ghatkopar East, Mumbai, Maharashtra 400077, India","Toy store","+91 98212 80251","400077","303","Maharashtra","Bharat Toys",
"Sunteck City, Shop no 2 building no 16, Gulab Apartment, W Near, 4th avenue, Amrut Nagar, Jogeshwari West, Mumbai, Maharashtra 400102, India","Baby clothing store","+91 70211 93029","400102","0","Maharashtra","MINIQUE - best kidswear in jogeshwari",
"Shop no 8, Pearl Platinum Ajit Glass, Off, Swami Vivekananda Rd, Oshiwara, Jogeshwari West, Mumbai, Maharashtra 400102, India","Children's clothing store","+91 98190 65486","400102","0","Maharashtra","Uptrend Fashion - Kids Wear",
"Shop No. 60, Prasad Shopping Centre, Kakaji Nagar, Jawahar Nagar, Goregaon West, Mumbai, Maharashtra 400104, India","Clothing store","+91 93264 44729","400104","35","Maharashtra","Tiny Baby","https://shop.tinybaby.in/"
"Prem nagar near jansakti police choki oppsite smita bar mumbai, Jogeshwari East, Maharashtra 400060, India","Baby store",,,"3",,"Burhani A to Z daipers",
"Phoenix Marketcity Mall, Lal Bahadur Shastri Marg, opp. Dhawarka Hotel, Patelwadi.Kurla, Ashok Nagar, Kurla, Mumbai, Maharashtra 400070, India","Beauty supply store","+91 99302 44935","400070","546","Maharashtra","Mamaearth Exclusive Store","https://mamaearth.in/"
"Shop No 4, Rushabh Apartment, Pandit Jawaharlal Nehru Rd, Gavani Pada, Sarvodaya Nagar, Mulund West, Mumbai, Maharashtra 400080, India","Toy store","+91 90829 52556","400080","18","Maharashtra","Mahaveer Stationery, Toys,Games and Gifts Store",
"Datta Mandir Rd, Nahur West, Subhash Nagar, Bhandup West, Mumbai, Maharashtra 400078, India","Art studio","+91 80801 16695","400078","48","Maharashtra","Dhru Kreations",
"Friends Colony, Saswati, Mumbai, Maharashtra 400042, India","T-shirt store","+91 93216 29154","400042","27","Maharashtra","Pagal Awwrat","https://pagalawwrat.com/"
"Tainwala House, Rd Number 18, opp. Plot No. 118, Marol MIDC Industry Estate, Andheri East, Mumbai, Maharashtra 400093, India","Manufacturer","+91 22 6716 6166","400093","19","Maharashtra","Tainwala Personal Care Products Pvt. Ltd.","http://www.tainwala.net/"
"Building 9B,Room No.12, Koyna Society, Plot no.6, Parishad, Nagri Niwara Cooperative Housing Society, Goregaon, Mumbai, Maharashtra 400065, India","Corporate gift supplier","+91 86929 61330","400065","22","Maharashtra","Mauli Celebrations - Corporate and Personalised Gift Hampers","https://maulicelebrations.com/"
"4V5C+VF5, Near sai baba mandir, Marol Pipeline Rd, opp. Mukund Hospital, Mumbai, Maharashtra 400059, India","Baby store",,,"0",,"Royal collection",
"City Max 401, Relief Road, Oshiwara, Jogeshwari West, Mumbai, Maharashtra 400102, India","Baby store",,,"0",,"Tourist And Travels",
"4RXQ+4M8, Gulshan Nagar, Oshiwara, Jogeshwari West, Mumbai, Maharashtra 400102, India","Baby store",,,"0",,"Gulshan nagar Jogeshwari",
"Dhanuka rebuild 405, Manmandir Co.operative Housing Society, D.N.Nagar, Andheri West, Mumbai, Maharashtra 400053, India","Baby store",,,"0",,"Asquare",
"Shop No G36, Ground Floor, R Galleria, Runwal Greens, Mulund - Goregaon Link Rd, Nahur West, Goregoan, Bhandup West, Mumbai, Maharashtra 400078, India","Clothing store","+91 22 6501 0263","400078","842","Maharashtra","Jockey Exclusive Store","https://stores.jockey.in/jockey-exclusive-store-bhandup-west-mumbai-32318/home"
"Infiniti Mall, near Raheja Classic Complex Oshiwara, Phase D, Shastri Nagar, Andheri West, Mumbai, Maharashtra 400053, India","Clothing store","+91 22 6702 1345","400053","5130","Maharashtra","Westside - Infiniti Mall, Andheri, Mumbai","https://www.westside.com/?utm_source=google-gmb&utm_medium=gmb-seo-url&utm_campaign=westside-gmb"
"BLDG No 3, Shalimar Apt, Shop No 2, opp. Taiba Masjid, Amrut Nagar, Jogeshwari West, Mumbai, Maharashtra 400102, India","Clothing store",,"400102","18","Maharashtra","Kids Universe Kids Wear",
"Shop 1, Motilal Nagar I, Goregaon West, Vasai-Virar, Mumbai, Maharashtra 400104, India","Baby store","+91 89838 78315","400104","0","Maharashtra","Shiv Shakti Water Supplier",
"Shop No 5, Mayfair Meridian, Ceasar Rd, near St Blaise Church, Navneeth Colony, Andheri West, Mumbai, Maharashtra 400058, India","Furniture store","+91 91679 89941","400058","0","Maharashtra","Godrej Interio - Furniture Store in Andheri West, Mumbai","https://stores.godrejinterio.com/godrej-interio-furniture-store-in-andheri-west-mumbai-andheri-store-home-furniture-shop-andheri-west-mumbai-282979/Home?utm_source=locator&utm_medium=googleplaces"
"400061 Complex, 2/4, JP Rd, Veraoa Road, Achal Avichal Chanchal, Versova, Andheri West, Andheri, Mumbai, Maharashtra 400061, India","Baby store","+91 93261 15206","400061","0","Maharashtra","Aman Kumar Shop",
"No -01, 168/1339, Db More Marg, Kala Galli, Motilal Nagar I, Goregaon West, Mumbai, Maharashtra 400104, India","Toy store","+91 87796 57838","400104","21","Maharashtra","Laxmi Agency",
"Shop No.4, Grenville Chs Ltd, Plot No. 98A, near Lokhandwala Circle, Lokhandwala Complex, Andheri West, Andheri, Mumbai, Maharashtra 400053, India","Cosmetics store","+91 70398 28282","400053","2320","Maharashtra","Beautiful - Lokhandwala, Andheri","https://beautiful.in/?utm_source=google_business_profile&utm_medium=organic&utm_campaign=beautiful_andheri"
"Shop No.4, Dream Land Apt, near Ruby Hospital, Jogeshwari, (W, Vaishali Nagar, Jogeshwari West, Mumbai, Maharashtra 400102, India","Dress store","+91 99208 10972","400102","61","Maharashtra","Aaraish Islamic Dresses","https://aaraish.co.in/"
"Shop No 7 & 8 and 8A, Kamal Apartment, Swami Samarth Nagar, Lokhandwala Complex, Andheri West, Mumbai, Maharashtra 400053, India","Clothing store","+91 88280 66570","400053","2193","Maharashtra","Jockey Exclusive Store","https://stores.jockey.in/jockey-exclusive-store-andheri-west-mumbai-13391/home"
"Shop No. E-06, Vivina Shopping Centre (Nadco Shopping Centre), Near Railway Station, Ifiniti Rd, Railway Colony, Andheri West, Mumbai, Maharashtra 400058, India","Baby clothing store","+91 98337 78863","400058","0","Maharashtra","Chiller Party",
"First Floor, Oberoi Mall, Shop No, F-11, Goregaon, Mumbai, Maharashtra 400063, India","Clothing store","+91 90040 68589","400063","2","Maharashtra","Being Human Clothing","https://www.beinghumanclothing.com/"
"no 63, purandar building, Room no 317,B wing 3 rd floor, Mankhurd West, Mumbai, Maharashtra 400043, India","Baby store",,,"2",,"Dakshta palna Ghar",
"01, Cross Pakhadi Rd, Versova, Andheri West, Mumbai, Maharashtra 400061, India","Baby store","+91 90044 81526","400061","0","Maharashtra","Salman Kanda And Batata Shop",
"Lokhandwala Complex Market, Shop No.6, Sunnyside CHS LTD, Andheri West, Mumbai, Maharashtra 400053, India","Lingerie store","+91 91525 83777","400053","245","Maharashtra","Betty 5","https://www.bettyindia.com/"
"shop no. 20, Ground Floor, Greenville Co-op Housing Society Ltd, Lokhandwala Rd, opp. Samarth Vaibhav, Highland Park, Andheri West, Andheri, Mumbai, Maharashtra 400053, India","Pet store","+91 96199 32918","400053","213","Maharashtra","Heads Up For Tails Pet Store & Spa - Andheri, Mumbai","https://stores.headsupfortails.com/pet-store-in-maharashtra-mumbai-andheri-17418/home"
"Yari Rd, opp. DMART, Mangal Nagar, Versova, Andheri West, Mumbai, Maharashtra 400061, India","Grocery store",,"400061","11565","Maharashtra","DMart","http://www.dmartindia.com/"
"Shop No .6, Kenwood Hsg. Soc, opp. Hi.Point Restaurant, Lokhandwala Complex, Andheri West, Andheri, Mumbai, Maharashtra 400053, India","Children's clothing store","+91 22 2630 1662","400053","0","Maharashtra","Cool Kidz",
"Block S Line Room, 28, Road No. 8, Govandi Slums, Govandi West, Baiganwadi, Shivaji Nagar, Mumbai, Maharashtra 400043, India","Baby store","+91 91379 47420","400043","0","Maharashtra","Soheb Shaikh",
"Shop No. 3, Lala compound, Mahakali Caves Rd, near Sacred heart high school, Sher E Punjab Colony, Andheri East, Mumbai, Maharashtra 400093, India","Party store","+91 70399 75674","400093","95","Maharashtra","Swara Party Shop","https://swarapartyshop.co.in/"
"Pream nagar irla vile parle west Mumbai 400045, Navpada, Prem Nagar, Vile Parle West, Mumbai, Maharashtra 400056, India","Baby store","+91 98674 29195","400056","0","Maharashtra","Santosg Prajapati",
"Ground Floor Unit No. 5 - 14, & First Floor, Shiv Solitaire Garment Hub, Unit No. 105 to 115, Caves Rd, Subhash Nagar, Jogeshwari East, Mumbai, Maharashtra 400060, India","Clothing store","+91 74004 34767","400060","196","Maharashtra","Zudio - Shiv Solitare Garment Hub, Mumbai","https://www.zudio.com/"
"No. 118, Damji Shamji Industrial Estate, 1st Floor, Off. Mahakali Caves Road, Near Nelco Bus Stop, Andheri East, Mumbai, Maharashtra 400093, India","Manufacturer","+91 97572 61737","400093","152","Maharashtra","Sam Inc.","http://www.saminconline.com/"
"Mhada Colony, Andheri West, Mumbai, Maharashtra 400053, India","Handbags shop","+91 81085 78910","400053","49","Maharashtra","Kala Ki Talaash","http://www.kalakitalaash.com/"
"4A Indu Park C.H.S, 151, 152, Sangeetkar N Dutta Marg, Andheri West, Mumbai, Maharashtra 400053, India","Boutique",,"400053","2","Maharashtra","Masaya Home","http://www.masayahome.com/"
"Unit No 11 & 12 Ground Floor, Laxmi Business Park, New Link Rd, Laxmi Industrial Estate, Andheri West, Mumbai, Maharashtra 400053, India","Mattress store","+91 73044 17550","400053","2552","Maharashtra","The Sleep Company Experience Store - Andheri West","https://thesleepcompany.in/pages/mattress-store-in-andheri?utm_source=locator&utm_medium=googleplaces"
"No. 48, De Mall, Veera Desai Rd, Mhada Colony, Azad Nagar, Andheri West, Mumbai, Maharashtra 400053, India","Sportswear store","+91 96209 99362","400053","3032","Maharashtra","Decathlon Sports - Andheri West","https://www.decathlon.in/store/andheriwest"
"Shop Number 5, Bhagwan Bhavan, Sir Mathuradas Vasanji Rd, Sai Baba Wadi, Natwar Nagar, Andheri East, Mumbai, Maharashtra 400069, India","Men's clothing store",,"400069","6","Maharashtra","Reload",
"Shop No 1, Plot, Bawa Boutique, Rd Number 10, Govandi Slums, Govandi West, Baiganwadi, Govandi East, Mumbai, Maharashtra 400043, India","Baby store","+91 97027 62698","400043","0","Maharashtra","Fashion Club",
"Ambari tiniali 10, New D. N. Nagar, D.N.Nagar, Andheri West, Mumbai, Maharashtra 400053, India","Baby store","+91 80116 10479","400053","0","Maharashtra","Jamal Uddin",
"25 R, New Link Rd, opposite Laxmi Plaza, Laxmi Industrial Estate, Suresh Nagar, Andheri West, Mumbai, Maharashtra 400053, India","Beauty supply store","+91 80807 76677","400053","519","Maharashtra","Beauty Palace - Wholesale Beauty & Cosmetic Products, Salon Equipment's, Spa Kit & Products","http://www.beautypalace.in/"
"Shop 9, Hubtown Premiere, Madran Kamgar Nagar, Ambivali, JP Rd, Andheri West, Mumbai, Maharashtra 400053, India","Clothing store","+91 84548 01366","400053","556","Maharashtra","Jockey Exclusive Store","https://stores.jockey.in/jockey-exclusive-store-ambivali-mumbai-32131/home"
"3VFJ+C9V, SG Barve Marg, Ambedkar Nagar, Kurla West, Kurla, Mumbai, Maharashtra 400070, India","Baby store",,,"0",,"Maza Diaperwala",
"Unit No F5, Oberoi Mall, off Western Express Highway, Yashodham, Goregaon, Mumbai, Maharashtra 400063, India","Men's clothing store","+91 80 3700 2258","400063","1034","Maharashtra","Manyavar","https://stores.manyavar.com/manyavar-mens-clothing-goregaon-east-mumbai-126782/Home"
"Vijay Nagar, Andheri East, Mumbai, Maharashtra 400069, India","Baby store","+91 86558 82830","400069","0","Maharashtra","Anil Yadav",
"3002, Jeejabai Bhosale Marg, N1, Gajanand Colony, RamannNagar, Shivaji Nagar, Mumbai, Maharashtra 400043, India","Baby store","+91 77000 55560","400043","0","Maharashtra","Mubeen Store",
"Plot No 13 Room No 798, Govandi Slums, Lotus Colony, Shivaji Nagar, Mumbai, Maharashtra 400043, India","Baby store","+91 98676 37788","400043","0","Maharashtra","Sadiq Store",
"N4 Plot 34, K Block Road N4, Govandi, Plot 34, Road, K Block, Baiganwadi, Mumbai, Maharashtra 400043, India","Baby store","+91 93103 72242","400043","0","Maharashtra","Meraj Store",
"Plot No 13, Rd Number 9, near BMC School, Govandi Slums, Govandi West, Baiganwadi, Shivaji Nagar, Mumbai, Maharashtra 400043, India","Baby store","+91 62031 07724",,"1",,"Subham Singh Solanki",
"1st Floor, SYNTHOFINE ESTATE, A 101, behind Virwani Industrial Estate, Hanuman Tekdi, Goregaon, Mumbai, Maharashtra 400063, India","Store","+91 96190 12333","400063","106","Maharashtra","Luv My India","https://www.luvmyindia.com/"
"Shop No 48, Malik Liyaqat Hussain Marg, opp. St Joseph School, Ambedkar Nagar, Kurla West, Kurla, Mumbai, Maharashtra 400070, India","Baby store","+91 98195 00340","400070","0","Maharashtra","Pamper Collection",
"Shop No 3 Room No 56, Govandi Slums, Lotus Colony, Shivaji Nagar, Mumbai, Maharashtra 400043, India","Baby store","+91 91673 56832","400043","0","Maharashtra","Rahims Store",
"SHOP NO 5, Station Rd, opposite Star Residency, Khajurwadi, Momin Nagar, Jogeshwari West, Mumbai, Maharashtra 400102, India","Discount store","+91 84596 68738","400102","81","Maharashtra","Mumbai Discount Bazaar",
"3W45+WRH, Khardev Nagar, Chembur 1, Chembur, Mumbai, Maharashtra 400071, India","Baby store","+91 80941 48458","400071","0","Maharashtra","Sarika",
"Jagruti Nagar, Nehru Nagar, Kurla, Mumbai, Maharashtra 400024, India","Baby store","+91 91371 89230","400024","1","Maharashtra","Shaikh store",
"CG Rd, Indira Nagar, Chembur, Mumbai, Maharashtra 400071, India","Baby store","+91 98670 10041","400071","1","Maharashtra","Aarif Sop",
"10, Nehru Nagar, Kurla, Mumbai, Maharashtra 400024, India","Baby store","+91 92196 50594","400024","0","Maharashtra","Ajay Store",
"WING-A, MAHALAXMI APARTMENT, 13-c, Sainath Mandir Chowk, Chembur West, Tilak Nagar, Chembur, Mumbai, Maharashtra 400089, India","Baby store","+91 88284 93465","400089","0","Maharashtra","Lalkishor",
"Second Floor, Oberoi Mall, Shop S - 23 A, off Western Express Highway, Yashodham, Goregaon, Mumbai, Maharashtra 400063, India","Gourmet grocery store","+91 70459 47622","400063","2076","Maharashtra","Nature's Basket Goregaon East","https://m.naturesbasket.co.in/"
"Shop No, 1, VN Purav Marg, Panchsheel Nagar, Chunabhatti, Sion, Mumbai, Maharashtra 400022, India","Baby store","+91 99301 17705","400022","2","Maharashtra","Laxmi Electric",
"Shop No 12, Shiv Shakti Nagar, Chembur, Mumbai, Maharashtra 400071, India","Baby store","+91 88285 31047","400071","0","Maharashtra","Farman Shop",
"Shop no8, A12, Road No. 1, near Hanuman Mandir, behind BMC Hospital, Parksite Colony, Vikhroli West, Mumbai, Maharashtra 400079, India","Shopping mall","+91 97692 54594","400079","1","Maharashtra","BTC BAZAAR",
"Raheja Vihar, Chandivali, Powai, Mumbai, Maharashtra 400072, India","Grocery store","+91 98671 97333","400072","73","Maharashtra","D H Mart",
"Plot No 8/K, 5, Road No. 2, near Umar Masjid, Govandi Slums, Govandi West, Phase 1, Shivaji Nagar, Mumbai, Maharashtra 400043, India","Baby store","+91 87677 56056","400043","0","Maharashtra","Mahira Daiper",
"Shop No. 9, Sargam CHS, Building No. 40, Oshiwara Mhada Complex, New Link Road Extension, near Link Plaza Commercial Complex, Oshiwara, Andheri West, Mumbai, Maharashtra 400102, India","Toy store","+91 70217 17200","400102","0","Maharashtra","Patel Toys & Stationers",
"Shop No 1, Mhada Colony, Gautam Nagar, Shivaji Nagar, Mumbai, Maharashtra 400043, India","Baby store","+91 90791 37165","400043","0","Maharashtra","Jasmita Pandy",
"Shell Colony Rd, Shramjivi Nagar, Sai Baba Nagar, Kurla, Mumbai, Maharashtra 400071, India","Baby store",,,"0",,"Jagajiban Rabi Baishya",
"Deonar Village Rd, Deonar, Govandi East, Mumbai, Maharashtra 400088, India","Baby store","+91 93268 80510","400088","0","Maharashtra","Verendra Store",
"Shop No12 G, Block Room, No24, Road No. 11, Govandi Slums, Govandi West, Baiganwadi, Shivaji Nagar, Mumbai, Maharashtra 400043, India","Baby store","+91 84249 94937","400043","0","Maharashtra","Rohit Store",
"N3 Plot N28, Govandi Baiganwadi, Road N3 Plot N28 Cblock, Road, Cblock, Mumbai, Maharashtra 400043, India","Baby store","+91 97026 65099","400043","0","Maharashtra","Iqrar Store",
"32, Mahda Colony, Nehru Nagar, Kurla, Mumbai, Maharashtra 400024, India","Baby store","+91 89283 48996","400024","0","Maharashtra","Sushil Store",
"Govandi Slums, Govandi West, Adasa Nagar, Govandi East, Mumbai, Maharashtra 400043, India","Baby store","+91 98679 05465","400043","0","Maharashtra","Nile Traders",
"Lig, MIG Colony, Kurla West, Kurla, Mumbai, Maharashtra 400070, India","Baby store","+91 98198 81252","400070","0","Maharashtra","Fancy Sweets",
"Plot No 11, Rd Number 9, near Baiganwadi, Shivaji Nagar Number 2, Govandi West, Baiganwadi, Govandi, Mumbai, Maharashtra 400043, India","Baby store","+91 77229 94678","400043","0","Maharashtra","Chhotu",
"Govandi Slums, Lotus Colony, Govandi East, Mumbai, Maharashtra 400043, India","Baby store","+91 96697 94961","400043","0","Maharashtra","Niharikaa Mehtaa",
"1, ACC Nagar, Chembur, Mumbai, Maharashtra 400043, India","Baby store","+91 89624 53463","400043","0","Maharashtra","Mariam",
"Nehru Nagar, Kurla, Mumbai, Maharashtra 400024, India","Baby store","+91 92437 32723","400024","0","Maharashtra","sarika Saxsena",
"1, Road No. 1, Govandi Slums, Govandi West, Adasa Nagar, Govandi, Mumbai, Maharashtra 400043, India","Baby store","+91 70391 42397","400043","0","Maharashtra","MADAN LAL",
"7, Pipe Line Rd, Bandi Bazaar, Mohili Village, Saki Naka, Mumbai, Maharashtra 400072, India","Clothing store",,"400072","895","Maharashtra","Fashion Street.",
"Shop No 4, G Block S Line Room, 44, Road No. 11, Govandi Slums, Govandi West, Baiganwadi, Shivaji Nagar, Mumbai, Maharashtra 400043, India","Baby store","+91 97683 04438","400043","0","Maharashtra","MAYUR DADA GADE",
"No 4 H Blok, Shop, Road 13, Govandi Rd, Baiganwadi, Mumbai, Maharashtra 400043, India","Baby store","+91 79772 57289","400043","0","Maharashtra","Shamsul store",
"Ibn Faisal, 8254 Prince Ahmad Ibn Abdulrahman, PL Lokhande Marg, Mumbai, Maharashtra 400043, India","Baby store","+91 80825 30597","400043","0","Maharashtra","Toufiq Shop",
"Kamalabai Nagar, Govandi West, Goavandi, Shivaji Nagar, Mumbai, Maharashtra 400043, India","Baby store","+91 84342 18475","400043","0","Maharashtra","Abhishek Kumar",
"Shop No 5, 2B, Stn, Patel chambers, Narayan Gajanan Acharya Marg, Laxmi Market, Chembur West, Chembur Gaothan, Chembur, Mumbai, Maharashtra 400071, India","Party store","+91 99670 74999","400071","0","Maharashtra","Jay Enterprise",
"Shop No 1 Plot 14 Road No 9, 43, Govandi Slums, Mumbai, Maharashtra 400043, India","Baby store","+91 70397 90829","400043","0","Maharashtra","Rehan Shaikh",
"Oberoi Garden City, Western Express Hwy, Yashodham, Goregaon, Mumbai, Maharashtra 400063, India","Clothing store","+91 82918 42145","400063","1802","Maharashtra","The Souled Store","https://www.thesouledstore.com/"
"First Floor, Oberoi Mall, Western Express Hwy, Yashodham, Goregaon, Mumbai, Maharashtra 400063, India","Western apparel store",,"400063","444","Maharashtra","Gap Oberoi Mall","https://www.gap.com/"
"Shop no.6, Ismail Baug, 49/18, Kasturba Rd, opp. Rly. Stn, nr. Jain temple, Malad, Vijaykar Wadi Industrial, Vijaykar Wadi, Malad West, Mumbai, Maharashtra 400064, India","Clothing store","+91 98703 68520","400064","19","Maharashtra","R.L. Enterprises",
"SHOP NO.6 BLDG NO.38 GREEN APT. VAISHALI NAGAR, JOGESHWARI (W), MUMBAI-400 102 SHOP NO.6 BLDG NO.38 GREEN APT. VAISHALI NAGAR, JOGESHWARI (W), MUMBAI, Mumbai, Maharashtra 400102, India","Toy store",,"400102","23","Maharashtra","ALFAAZ NOOR TOYS COLLECTION",
"L- 29, Gokul Dham Shopping Center, Film City Centre, General AK Vaidya Marg, Yashodham, Malad East, Sai Rd, Gokuldham Colony, Goregaon, Mumbai, Maharashtra 400063, India","Grocery store","+91 22 2842 8960","400063","114","Maharashtra","Shanti Stores",
"Shop No 89 G Block Q Line Room 79 Road No 5, Main Mumbai, Baiganwadi, Mumbai, Maharashtra 400043, India","Baby store","+91 93261 32534","400043","0","Maharashtra","MOHDHAROONSIRAJUDDINANSARI",
"opp. Labbaik Store, Kasaiwada, Takshashila Nagar, Qureshi Nagar, Kurla, Mumbai, Maharashtra 400070, India","Baby store","+91 95684 91525","400070","0","Maharashtra","Zaidi",
"Unit 27 / 28, Oberoi Mall, 28, Western Urban Road, Yashodham, Goregaon, Mumbai, Maharashtra 400063, India","Clothing store","+91 93114 57813","400063","819","Maharashtra","Marks & Spencer","http://www.marksandspencer.in/"
"Road No. 8, Govandi Slums, Govandi West, Baiganwadi, Shivaji Nagar, Mumbai, Maharashtra 400043, India","Baby store","+91 98335 94355","400043","1","Maharashtra","Pardeep Vegetables",
"S.N, 3W3H RHR, Annabhau Sathe Nagar, Govandi East, Mumbai, Maharashtra 400043, India","Baby store","+91 96199 73712","400043","0","Maharashtra","PRAKASH NANABHAU PATOLE",
"Shop No 5, Safa Marwah Apt, M.H, Pathan Road, opp. HUMERA PARK, Malad, MBH Colony, Pathan Wadi, Malad East, Mumbai, Maharashtra 400097, India","Clothing store","+91 82918 23090","400097","19","Maharashtra","Al Naaz Garments",
"Shop No 68, G Block S Line, Govandi Slums, Govandi West, Adasa Nagar, Govandi East, Mumbai, Maharashtra 400043, India","Baby store","+91 88892 41052","400043","0","Maharashtra","Kavya Sharma",
"No 4, Shop No4 G Block S Line Room Road, Plot No 29, Shivaji Nagar, Mumbai, Maharashtra 400043, India","Baby store","+91 97025 62324","400043","0","Maharashtra","Rukshad Israr Khan Store",
"shop no 1, Mhada Colony, Natvar Parekh Compound, Govandi East, Mumbai, Maharashtra 400043, India","Baby store","+91 72406 67338","400043","0","Maharashtra","sanjana verma",
"Shop No.11&12, Building No.5, Matruchhaya CHS, 5, Sainath Mandir Chowk, opp. Universal School, Chembur West, Tilak Nagar, Chembur, Mumbai, Maharashtra 400089, India","Gift shop","+91 98196 31390","400089","73","Maharashtra","Guru Krupa Nx - Exclusive Gift Shop, Best Toy Store & Luxury Perfumes Boutique; Back to School Essentials",
"Nehru Ni 1, Nehru Nagar, Kurla, Mumbai, Maharashtra 400024, India","Baby store","+91 89057 59031","400024","0","Maharashtra","Madhavi",
"Shop 2, Road No. 3, Govandi Slums, Govandi West, Phase 1, Shivaji Nagar, Mumbai, Maharashtra 400043, India","Baby store","+91 88568 11818","400043","0","Maharashtra","UMEESH SHEKURAO KARE",
"Road No. 11, near Chai Khalifa, Govandi Slums, Govandi West, Baiganwadi, Govandi, Mumbai, Maharashtra 400043, India","Baby store","+91 95126 55247","400043","0","Maharashtra","Sneha",
"Rd Number 9, Govandi Slums, Govandi West, Adasa Nagar, GOVANDI, Mumbai, Maharashtra 400043, India","Baby store","+91 80037 41886","400043","0","Maharashtra","KIRTI",
"Denmar Shop No 1, Deonar, Chembur, Mumbai, Maharashtra 400043, India","Baby store","+91 96803 58872","400043","0","Maharashtra","Ankita",
"Road No.5, Govandi Slums, Govandi West, Adasa Nagar, Govandi, Mumbai, Maharashtra 400043, India","Baby store","+91 90820 41091","400043","0","Maharashtra","MUKESH KUMAR",
"Jai Mangal Society, 3, Haji Bapu Rd, opposite Durga Bar & Restaurant, Devchand Nagar, Dhobi Ghat, Malad East, Mumbai, Maharashtra 400097, India","Gift shop","+91 22 2877 6137","400097","16","Maharashtra","Shanti Stores",
"Rd Number 9, Govandi Slums, Govandi West, Adasa Nagar, GOVANDI, Mumbai, Maharashtra 400043, India","Baby store","+91 82393 93706","400043","0","Maharashtra","SANJAY KUMAR",
"Shop No.1, Building No.42, Anand Tower, opp. Delicious Hotel, Chembur West, Tilak Nagar, Chembur, Mumbai, Maharashtra 400089, India","Toy store","+91 98196 31390","400089","37","Maharashtra","Guru Krupa Novelty - Toy Store & Gift Store","https://instagram.com/gurukrupanx_"
"Road No 9 Govandi Mumbai Raod No 9, Mumbai, Maharashtra 400043, India","Baby store","+91 84249 05227","400043","1","Maharashtra","MEHNDI HASAN SALMANI",
"Shop No 15 & 16, Krishna Height, near Axis Bank Branch, Upper Govind Nagar, Malad East, Mumbai, Maharashtra 400097, India","Pen store","+91 98191 45803","400097","269","Maharashtra","Student Mall",
"Road No. 6, near Me A Money, Kamalabai Nagar, Govandi Colony, Adasa Nagar, Shivaji Nagar, Mumbai, Maharashtra 400043, India","Baby store","+91 88905 19746","400043","0","Maharashtra","Pallavi Roy",
