,address,categoryName,phone,postalCode,reviewsCount,state,title,website
78,"Shop No 2, Marol Maroshi Rd, opp. Bhavani Nagar, Mahavir Nagar, Marol, Andheri East, Mumbai, Maharashtra 400059, India",Baby clothing store,+91 99673 50976,400059.0,59,Maharashtra,First Smile New Born Paradise,
416,"Shant Sakha building, Nehru Rd, above Adar Udupi Refreshments, Navpada, Vile Parle East, Vile Parle, Mumbai, Maharashtra 400057, India",Baby clothing store,+91 98605 01589,400057.0,7,Maharashtra,Cuddles & Coddles,
412,"Shop Number 05, Super Bazar, Santacruz Railway Station Rd, Navin Nagar, Willingdon, Santacruz (West), Mumbai, Maharashtra 400054, India",Baby clothing store,+91 76666 77755,400054.0,2,Maharashtra,YUSRAH KIDS WEAR,
409,"New post office, sayba palace, 34-35/A, New Mill Rd, Kurla West, Kurla, Mumbai, Maharashtra 400070, India",Baby clothing store,+91 98218 08088,400070.0,5,Maharashtra,Sayba kid's wear,
101,"Shop No-19, 2A, HIGHWAY PARK, E-2, Asha Nagar Rd, Kandivali, Gokul Heven, Thakur Complex, Kandivali East, Mumbai, Maharashtra 400101, India",Baby clothing store,+91 98706 57070,400101.0,14,Maharashtra,Sakshi Baby,
581,"Lalji pada market, Sahyog Ln, Kandivali, Kandivali West, Mumbai, Maharashtra 400067, India",Baby clothing store,,400067.0,0,Maharashtra,Pooja cloth store,
407,"Shop no. 3, Mohini Tower, 5th Rd, behind hotel shiv Sagar, Govind Dham, Khar West, Mumbai, Maharashtra 400052, India",Baby clothing store,,400052.0,2,Maharashtra,Little duck,
584,"Shop No 189, Indraprasth Shopping Centre, Mangal Kunj, Datta Park, Borivali West, Mumbai, Maharashtra 400092, India",Baby clothing store,+91 75061 47744,400092.0,3,Maharashtra,Nikki Collection,
401,"opp. L2K, near Codes, Khar, Old, Khar West, Mumbai, Maharashtra 400052, India",Baby clothing store,,400052.0,4,Maharashtra,Cherry Kids Wear,
391,"Chakala, Andheri East, Mumbai, Maharashtra 400099, India",Baby clothing store,+91 98190 39685,400099.0,20,Maharashtra,chibby,http://www.chibby.in/?utm_source=google&utm_medium=wix_google_business_profile&utm_campaign=10202584056813994649
94,"Shop no 2, A, 02, Thakur Rd, opp. Thakur cinema, Thakur, Thakur Village, Kandivali East, Mumbai, Maharashtra 400101, India",Baby clothing store,+91 99209 75154,400101.0,39,Maharashtra,Little Baby,
590,"Swati Building, 9, Haji Bapu Rd, Mahindra Nagar, Kailash Chandra Cooperative Housing Society, Malad East, Mumbai, Maharashtra 400097, India",Baby clothing store,,400097.0,2,Maharashtra,Trendy Threads - Your perfect place for kids Clothing,
92,"Shop No.47 Ground Floor, Centrium Mall, opp. Mahada no.1, Kandivali, MHADA Colony, Lokhandwala Twp, Kandivali East, Mumbai, Maharashtra 400101, India",Baby clothing store,+91 74004 81757,400101.0,25,Maharashtra,The Jaksh Baby Kids Wear,
91,"Shop no. 15, Navrang wadi, Akurli Rd, Hanuman Nagar, Kandivali East, Mumbai, Maharashtra 400101, India",Baby clothing store,,400101.0,4,Maharashtra,Om kids wear,
595,"Swapna Nagari, Nirmal Nagar, Mulund West, Mumbai, Maharashtra 400080, India",Baby clothing store,,400080.0,0,Maharashtra,Thrifttown,http://www.thrifttown.in/
597,"Sunteck City, Shop no 2 building no 16, Gulab Apartment, W Near, 4th avenue, Amrut Nagar, Jogeshwari West, Mumbai, Maharashtra 400102, India",Baby clothing store,+91 70211 93029,400102.0,0,Maharashtra,MINIQUE - best kidswear in jogeshwari,
88,"Shantinath Shopping Centre, SV Rd, Malad, Navy Colony, Mamledarwadi, Malad West, Mumbai, Maharashtra 400064, India",Baby clothing store,+91 96191 82323,400064.0,20,Maharashtra,Tiny Trends,http://www.twothree.in/
389,"Vinobha Bhave Nagar, Kurla West, Kurla, Mumbai, Maharashtra 400070, India",Baby clothing store,,400070.0,0,Maharashtra,Peekaboo Kids Closet,
85,"2, Jagdish Shetty Rd, Kandivali, Ekta Nagar, Kandivali West, Mumbai, Maharashtra 400067, India",Baby clothing store,+91 88793 90081,400067.0,3,Maharashtra,New fashion point,
84,"Shop No.5, Supreme Madhukar Building, Shimpoli Rd, Kastur Park, Borivali West, Mumbai, Maharashtra 400092, India",Baby clothing store,+91 98197 14978,400092.0,15,Maharashtra,Valkan Fashion 4 Kids,
382,"Bandi Bazaar, Nair Wadi, Asalpha, Mumbai, Maharashtra 400072, India",Baby clothing store,,,1,Maharashtra,KGN Clothing,
81,"shop no.1, vazvilla chs, I C Colony, Borivali West, Mumbai, Maharashtra 400103, India",Baby clothing store,+91 22 2893 5504,400103.0,0,Maharashtra,Baby's Choice,
512,"Shop No.48, Indraprastha Shopping Center, Swami Vivekananda Rd, Borivali West, Mumbai, Maharashtra 400092, India",Baby clothing store,+91 99876 08001,400092.0,3,Maharashtra,Anita Kids Wear,
377,"Inox Cinema, Neelyog Square, Art Studio 9, Jawahar Road, Landmark:, opp. Ghatkopar Railway Station, Saibaba Nagar, Mumbai, Maharashtra 400077, India",Baby clothing store,,400077.0,15,Maharashtra,Ke and Kaa,
621,"Shop No. E-06, Vivina Shopping Centre (Nadco Shopping Centre), Near Railway Station, Ifiniti Rd, Railway Colony, Andheri West, Mumbai, Maharashtra 400058, India",Baby clothing store,+91 98337 78863,400058.0,0,Maharashtra,Chiller Party,
374,"2nd Floor, Diamond Shivagiri House, Gala No. 5, Khairani Rd, near Ayyappa Mandir, Nair Wadi, Saki Naka, Mumbai, Maharashtra 400072, India",Baby clothing store,+91 98205 23084,400072.0,4,Maharashtra,Orbit Enterprises,
431,"Ghatkopar, Sindhu Wadi, Ghatkopar East, Mumbai, Maharashtra 400077, India",Baby clothing store,,400077.0,0,Maharashtra,VEDANSH CREATION,
434,"PUSHPANJALI SOCIETY, SV Rd, Santacruz (West), Mumbai, Maharashtra 400054, India",Baby clothing store,,400054.0,0,Maharashtra,MISS OLIVE,
109,"Shop No.6 Laxmi Market, N.G.Acharya Marg, Station Road, Chembur, Acharya Marg, Chembur Gaothan, Chembur East, Mumbai, Maharashtra 400071, India",Baby clothing store,+91 75060 15761,400071.0,1,Maharashtra,Sunder Stores,
111,"Shop No-12, Jalaram Nagar No-3, V B Lane, Ghatkopar(E), Mumbai, Maharashtra 400077, India",Baby clothing store,+91 98690 67969,400077.0,27,Maharashtra,Natkhat,
513,"shiv Mandir chawl, B-15, near Gorakhnath provision store, Kandivali, Janupada, Thakur Village, Kandivali East, Mumbai, Maharashtra 400101, India",Baby clothing store,+91 83699 33650,400101.0,1,Maharashtra,Krishna distributors,
502,"Room no 9, Baxising Chawl, near times of india, Bandongri, Tanji Nagar, Kurar Village, Malad East, Mumbai, Maharashtra 400097, India",Baby clothing store,,400097.0,1,Maharashtra,Chamunda Garments,
501,"2, Evershine Nagar Rd, Malad, Evershine Nagar, Malad West, Mumbai, Maharashtra 400064, India",Baby clothing store,+91 98203 62449,400064.0,15,Maharashtra,Sweety Collection,
167,"Govardhan Giri, Bangur Nagar, Goregaon West, Mumbai, Maharashtra 400104, India",Baby clothing store,+91 90820 64203,400104.0,2,Maharashtra,Little Lin Store,http://www.littlelin.store/
149,"BLOCK NO-15/1, ANUGRAH ,NETAJI ROAD, WEST, Mulund Colony, Mulund West, Mumbai, Maharashtra 400082, India",Baby clothing store,+91 99878 38990,400082.0,22,Maharashtra,Thakkar Enterprises,http://nuttybunny.in/
498,"Shop No 1, Modispaces Volga, Sundar Vihar Socity, Shimpoli Rd, opp. Bank of Baroda, Rayani Gram, Borivali West, Mumbai, Maharashtra 400092, India",Baby clothing store,+91 81695 44933,400092.0,79,Maharashtra,Elegant kids studio,
496,"PRAVASI INDUSTRIAL ESTATE, Vishveshwar Nagar Rd, Yashodham, Goregaon, Mumbai, Maharashtra 400063, India",Baby clothing store,+91 88284 85837,400063.0,2,Maharashtra,Parekh Clothing Company,
493,"Shop Number 8, Jawahar Darshan Building, Shivaji Chowk, Daftary Road, Malkani Estate, Malad East, Mumbai, Maharashtra 400097, India",Baby clothing store,+91 77180 37869,400097.0,49,Maharashtra,Lovely Kids Wear- Kids Wear in Malad,
490,"22/173, Motilal Nagar No. 1, near Buddh Mandir, Motilal Nagar I, Goregaon West, Mumbai, Maharashtra 400104, India",Baby clothing store,+91 81697 26392,400104.0,31,Maharashtra,Kilkaari Kidswear Private Limited,https://kilkaari.shop/
489,"Shop No. 1, Goyal Shopping Arcade, Bharucha Rd, Sundar Nagar, Borivali West, Mumbai, Maharashtra 400092, India",Baby clothing store,,400092.0,6,Maharashtra,Sunita Kids Wear,
487,"Shop Number 10, Sharda Bhuvan, Narayan Joshi Rd, Jethava Nagar, Kandivali West, Mumbai, Maharashtra 400067, India",Baby clothing store,+91 88792 18055,400067.0,0,Maharashtra,Alankaar Dresses,
480,"Shop No. 3, Jas Villa, Near, Orlem Market Ln, Malad, Orlem, Malad West, Mumbai, Maharashtra 400064, India",Baby clothing store,+91 96197 97694,400064.0,0,Maharashtra,New Baby's,
70,"Shop No. 1, Teresa Triumph CHS, opp. blue fox hotel, beside Sukhdayak Society, Bamanpuri, J.B. Nagar, J B Nagar, Andheri East, Mumbai, Maharashtra 400059, India",Baby clothing store,+91 72081 95597,400059.0,97,Maharashtra,MABEL BABY STORE,
473,"90 Feet Rd, Friends Colony, Bhandup East, Mumbai, Maharashtra 400042, India",Baby clothing store,+91 99200 41049,400042.0,4,Maharashtra,Cuddle Quilts...Warmth from the Heart❤️,https://www.instagram.com/cuddle_quilts?igsh=MXJwa3RzaTMzZnpnbw==
547,"C/8, F, Malad Industrial Estates, Malad, Kanchpada, Malad West, Mumbai, Maharashtra 400064, India",Baby clothing store,,400064.0,0,Maharashtra,Mahikrite India,
470,"Shop No 1, 2, Lal Bahadur Shastri Marg, Kurla West, Kurla, Mumbai, Maharashtra 400070, India",Baby clothing store,+91 98333 43998,400070.0,55,Maharashtra,SOBRON KIDS WEAR,
469,"Gala No B/2, First Floor, Lokmanya Tilak Nagar, Saki Naka, Mumbai, Maharashtra 400072, India",Baby clothing store,+91 99671 43068,400072.0,33,Maharashtra,Arvesa,http://arvesa.in/
468,"D-6, Jai Shastri Nagar, Highland Park, Mulund West, Mumbai, Maharashtra 400082, India",Baby clothing store,+91 93246 12542,400082.0,12,Maharashtra,Mum's Caress,http://www.mumscaress.com/
120,"SHOP NO 5 , BUILDING NO 1, bellona, 90 Feet Rd, near SHIVAJI TECHNICAL SCHOOL, Pant Nagar, Ghatkopar East, Mumbai, Maharashtra 400075, India",Baby clothing store,+91 99693 60452,400075.0,4,Maharashtra,KIDORRAH,https://www.kidorrah.com/
119,"Road No. 14, Indra Nagar, Indira Nagar, Baiganwadi, Govandi East, Mumbai, Maharashtra 400043, India",Baby clothing store,+91 95946 84387,400043.0,1,Maharashtra,Sony Diaper,
466,"6, Sahar Rd, opp. Jain Tempal, Halwai Nagar, Koldongri, Andheri ( E, Mumbai, Maharashtra 400069, India",Baby clothing store,+91 91679 21362,400069.0,4,Maharashtra,OM SAI GARMENTS,
465,"Shop Number.3, Haji Nazar Ali Chawl, New Mill Rd, BMC Colony, Kurla West, Kurla, Mumbai, Maharashtra 400070, India",Baby clothing store,+91 93240 96075,400070.0,4,Maharashtra,A To Z Mini Market,
554,"Nanddham Society, Cross Rd Number 2, opp. THAKUR COLLEGE OF ENGINEERING AND TECHNOLOGY, ठाकुर, Singh Agri Estate, Kandivali East, Mumbai, Maharashtra 400101, India",Baby clothing store,,400101.0,0,Maharashtra,Right Vision Baby Care,
464,"Plot No, 8, Sadashiv Bhavan, 35, Ram Ratan Trivedi Rd, Vidya Vihar, Mulund West, Mumbai, Maharashtra 400080, India",Baby clothing store,+91 83694 20704,400080.0,147,Maharashtra,National Dresses,
463,"Shop no. 13, Besides Ration shop, W, Kurla, Mumbai, Maharashtra 400070, India",Baby clothing store,+91 93727 42973,400070.0,1,Maharashtra,Krishna Ethnic wear,
206,"Akbar lala Compound, Nari Seva Sadan Rd, Azad Nagar, Ghatkopar West, Mumbai, Maharashtra 400086, India",Baby clothing store,,400086.0,0,Maharashtra,Kidsplus Newborn Baby Booties,
126,"Plot no 54, Pereira House, 6 T.P.S Road, Old Khar, Khar West, Mumbai, Maharashtra 400052, India",Baby clothing store,+91 22 2646 1231,400052.0,142,Maharashtra,Lala House,
68,"Unit No 17, 2nd Flr, Jio World Drive Mall, Bandra Kurla Complex Rd, near MAKER MAXITY, Bandra Kurla Complex, Bandra East, Mumbai, Maharashtra 400051, India",Baby clothing store,+91 85914 04166,400051.0,206,Maharashtra,Mothercare,https://stores.mothercare.in/mothercare-jio-world-drive-baby-clothes-bandra-east-mumbai-298156/Home?utm_source=locator&utm_medium=googleplaces
505,"Harishankar Joshi Marg, Anand Nagar, Dahisar East, Mumbai, Maharashtra 400068, India",Baby clothing store,+91 98677 84648,400068.0,0,Maharashtra,Veditha Enterprises,/url?q=http://vedithastore.myshopify.com/&opi=79508299&sa=U&ved=0ahUKEwj8pdKagrCRAxURLFkFHTOSKeAQ61gIEygQ&usg=AOvVaw1Ct_k23vzeEj1ajVmepTtS
27,"43, Shimpoli Rd, Vivekanand Nagar, Borivali West, Mumbai, Maharashtra 400092, India",Baby clothing store,,400092.0,2,Maharashtra,Baby Moo,
48,"Shop No.4, Lal Bahadur Shastri Marg, opp. Sheetal Cinema, Kurla West, Kurla, W, Mumbai, Maharashtra 400070, India",Baby clothing store,+91 98205 39946,400070.0,18,Maharashtra,Kids Zone,
29,"Sarita Prabhat Industrial & Residential Complex, Sagar building, Gala Number 204, Western Urban Rd, near Toll Plaza, near CNG pump, Diamond Industrial Estate, Dahisar East, Mumbai, Maharashtra 400068, India",Baby clothing store,+91 93728 51546,400068.0,1087,Maharashtra,Knitroot India Pvt Ltd,https://www.knitroot.com/
252,"No.7, police chowky, Shop No.1, M.H.B. Market, Gate No.7, Near Shankar Gali, Malad (W Mumbai-400095, near, Malwani, Mumbai, Maharashtra 400095, India",Baby clothing store,+91 93723 31216,400095.0,11,Maharashtra,K.G.N BABY STORE,
52,"Building No. 14, Vaishali CHS, Shop no12, opposite Shayadri Ground, Tilak Nagar, Kurla, Mumbai, Maharashtra 400089, India",Baby clothing store,,400089.0,9,Maharashtra,Cuddles Babies & Kids wear,
53,"First Floor, Kannada Welfare Society, next to Sunil Restaurant & Bar, behind 90 Feet Road, Railway Police Colony, Ghatkopar East, Mumbai, Maharashtra 400075, India",Baby clothing store,+91 91377 97974,400075.0,22,Maharashtra,Little Hatchlings,https://www.littlehatchlings.in/
358,"Vrindavan Society, Shantivan Society, Raheja Twp, Malad East, Mumbai, Maharashtra 400097, India",Baby clothing store,+91 99670 74456,400097.0,13,Maharashtra,Little Joey,http://www.littlejoey.in/
323,"Shop no. 15, Lamxmi narayan mandir bldg, Mahatma Gandhi Rd, opposite Gandhi Market, Pant Nagar, Ghatkopar East, Mumbai, Maharashtra 400077, India",Baby clothing store,+91 77389 96717,400077.0,12,Maharashtra,KHODAL NEW BORN & KIDS SHOES,
345,"Shop No. 35A, Evershine Apts, 2, JP Rd, Gharkul Society, Ratan Nagar, Seven Bunglow, Andheri West, Mumbai, Maharashtra 400053, India",Baby clothing store,+91 99304 83814,400053.0,5,Maharashtra,Baby Villa - New Born Baby Clothes & Care,
363,"Shop No-2, Chagpar Khimji Building, Ram Ratan Trivedi Rd, Vidya Vihar, Mulund West, Mumbai, Maharashtra 400080, India",Baby clothing store,+91 98335 15356,400080.0,12,Maharashtra,Baby Zone,
336,"Shop no 3, SV Rd, near Himalaya hotal, Gulshan Nagar, Shukla Estate, Entery, Jogeshwari West, Mumbai, Maharashtra 400102, India",Baby clothing store,+91 98708 31203,400102.0,27,Maharashtra,Ronak kids collection.,
307,"A-51, PRAVASI INDUSTRIAL ESTATE, off Aarey Road, Yashodham, Goregaon, Mumbai, Maharashtra 400063, India",Baby clothing store,+91 98212 47770,400063.0,0,Maharashtra,Dear One Baby Products,
64,"Lokhandwala Complex, Andheri West, Mumbai, Maharashtra 400053, India",Baby clothing store,+91 96198 23360,400053.0,17,Maharashtra,Aby Baby,
367,"Shop No S41, R City Mall, Depot, South Wing, Lal Bahadur Shastri Marg, near Vikhroli, Amrut Nagar, Ghatkopar West, Mumbai, Maharashtra 400086, India",Baby clothing store,+91 22 6832 1345,400086.0,253,Maharashtra,Mothercare,https://stores.mothercare.in/mothercare-rcity-mall-ghatkoper-baby-clothes-ghatkopar-west-mumbai-298189/Home?utm_source=locator&utm_medium=googleplaces
66,"Shop No 302, Infinity Mall, New Link Rd, next to Goregaon Sports Club, Malad, Mindspace, Malad West, Mumbai, Maharashtra 400064, India",Baby clothing store,+91 93244 94084,400064.0,202,Maharashtra,Mothercare,https://stores.mothercare.in/mothercare-infiniti-malad-baby-clothes-malad-west-mumbai-298157/Home?utm_source=locator&utm_medium=googleplaces
34,"Shop No.1, Shivaji Chowk, Guru Gobind Singh Marg, Mulund Colony, Mulund West, Mumbai, Maharashtra 400082, India",Baby clothing store,+91 93720 51150,400082.0,10,Maharashtra,Nice Baby,
325,"Shop No 03, Saki Vihar Rd, Milind Nagar, Marol, Powai, Mumbai, Maharashtra 400072, India",Baby store,+91 93218 36770,400072.0,1,Maharashtra,Manish Beauty,
324,"Shop No 4, 32, Khandan Galli, Motilal Nagar II, Goregaon West, Mumbai, Maharashtra 400104, India",Baby store,+91 82911 21331,400104.0,15,Maharashtra,Clap Clap,
326,"Shop. 1, Mulund, Mulund West, Mumbai, Maharashtra 400080, India",Baby store,+91 84248 45350,400080.0,0,Maharashtra,Ganesh Bag Shop,
321,"Unit No 22, Unit 22, Aarey Milk Colony, Goregaon, Mumbai, Maharashtra 400065, India",Baby store,,,0,,ABU HOSSAIN SEIKH,
471,"Nehru Nagar, Kurla, Mumbai, Maharashtra 400024, India",Baby store,+91 83568 30369,400024.0,0,Maharashtra,Majid Clothes,
472,"Amity Appartment, Hill Road, Kurla West, New Hall Road, Christian Gaon, Mumbai, Maharashtra 400070, India",Baby store,+91 98929 63609,400070.0,0,Maharashtra,We Care Diaper Points,
327,"Adarsh Nagar, Jogeshwari West, Mumbai, Maharashtra 400102, India",Baby store,+91 98333 78544,400102.0,12,Maharashtra,"Momentoes 3D Casting For Children, Adults & Pets.",
710,"Road No 9 Govandi Mumbai Raod No 9, Mumbai, Maharashtra 400043, India",Baby store,+91 84249 05227,400043.0,1,Maharashtra,MEHNDI HASAN SALMANI,
330,"Shoo No 2, Jai Bhim Nagar, Hunma Nagar, Goregaon, Mumbai, Maharashtra 400065, India",Baby store,+91 98203 58801,400065.0,0,Maharashtra,SUKHARAJ SHARMA,
320,"2 Village Road, MMRDA Colony, Ambedkar Nagar, Kanjurmarg West, Kanjurmarg East, Mumbai, Maharashtra 400078, India",Baby store,+91 95940 51653,400078.0,0,Maharashtra,Sarbjeet,
476,"Shop No. 788, 1/2Azad, Nagar, near Sai Baba Mandir, Kasturi Park, Maneklal Estate, Ghatkopar West, Mumbai, Maharashtra 400086, India",Baby store,+91 98674 18580,400086.0,0,Maharashtra,Brother Diapers,
369,"Plot 161, Marol Maroshi Rd, near Raza Jama Masjid, Mahavir Nagar, Marol, Andheri East, Mumbai, Maharashtra 400059, India",Baby store,+91 75062 13722,400059.0,3,Maharashtra,Marol Daipers,
479,"Postal Colony, Chembur, Mumbai, Maharashtra 400071, India",Baby store,+91 77269 84053,400071.0,0,Maharashtra,Diviya Ready,
302,"Group No :2, 1/4,Abdulla Chawl,Ganesh Marg Hariyali village, Tagore Nagar, Vikhroli East, Mumbai, Maharashtra 400083, India",Baby store,+91 77389 28753,400083.0,0,Maharashtra,House Of Diaper (Vikhroli),
304,"C-Wing, Saideep 2 chs, 304, near Swami vivekanand high school, Chembur, Maharashtra 400058, India",Baby store,+91 79772 32311,400058.0,0,Maharashtra,PaMa baby products,https://www.indiamart.com/parasstrading/
305,"Oberoi Woods Tower A, Mohan Gokhale Rd, Aarey Milk Colony, Goregaon, Mumbai, Maharashtra 400065, India",Baby store,+91 99203 67673,400065.0,2,Maharashtra,Cuddle n Care,
500,"Bharat optimus, Marve Rd, Malad, Adarsh Nagar, Malad West, Mumbai, Maharashtra 400064, India",Baby store,+91 98203 03865,400064.0,0,Maharashtra,Baby Giggles by Nipa Shah,http://www.instagram.com/babygiggles.in
310,"Shop No 4/200, Gazal Gol BUILDING, 70, BELGRAMI Road, Friends Colony, Kurla West, Kurla, Mumbai, Maharashtra 400070, India",Baby store,+91 90825 39480,400070.0,1,Maharashtra,DAIPER NEST,
499,"A-3, Veena Sargam, Boraspada Rd, Mahavir Nagar, Panchsheel Garden, Siddhivinayak Nagar, Kandivali West, Mumbai, Maharashtra 400067, India",Baby store,,400067.0,12,Maharashtra,Do Little Kids Fashion,
478,"Kabhi Bhi, Plot No 13, Rd Number 9, near Apna Naka, Govandi Slums, Govandi West, Aoo, Shivaji Nagar, Mumbai, Maharashtra 400043, India",Baby store,+91 79833 26633,400043.0,0,Maharashtra,IRFAN,
312,"Between Pillar no. 14B - 15B, Shop no.164, below Balasaheb Thackeray Flyover, near momin nagar, Jogeshwari West, Mumbai, Maharashtra 400102, India",Baby store,+91 72087 53502,400102.0,0,Maharashtra,Metro Collection,
314,"Bus Stop, Shop No 1, Municipal Colony, Last, Parksite Colony, Vikhroli West, Mumbai, Maharashtra 400079, India",Baby store,+91 76667 52225,400079.0,2,Maharashtra,Sayyed Azimuddin Enterprises,
315,"Unilever House, BD Sawant Marg, Chakala, Andheri (E, Mumbai, Maharashtra 400099, India",Baby store,+91 1800 102 2221,400099.0,0,Maharashtra,baby Dove,
316,"Saki Vihar Rd, Krishna Nagar, Powai, Mumbai, Maharashtra 400072, India",Baby store,+91 88501 93882,400072.0,0,Maharashtra,MANOJ KUMAR YADAV,
317,"10-A, 2nd Cross Rd, Lokhandwala Complex, Andheri West, Mumbai, Maharashtra 400053, India",Baby store,+91 22 2632 9830,,3,Maharashtra,BEAR HUG MOTHER AND BABY PRODUCTS,
482,"i-Plot, SAI SHRADDHA BUILDING, A1, Shop No.5, Daulat Nagar, Santacruz (West), Mumbai, Maharashtra 400054, India",Baby store,,,5,,Ahad Baby Shop,https://ahadbabyshop.in/
318,"land no 4, Room no 1 Abida Manzil, Gaothan, Andheri West, Mumbai, Maharashtra 400058, India",Baby store,,,2,,Royal daipers online mart,
313,"Bombay Diaper House Shop No.83 Bldg-17 Market Beside Community Hall Sangharsh Nagar Chandivali Mum-400072, Mumbai, Maharashtra 400072, India",Baby store,+91 70399 30264,400072.0,47,Maharashtra,Bombay Diaper House,
483,"Shop no 113, hi tech commercial complex, LIG Colony, Vinobha Bhave Nagar, Kurla West, Kurla, Mumbai, Maharashtra 400070, India",Baby store,,,0,,National Enterprises,
446,"Shop no.1, Taxi Stand, Road No. 1, near sai baba mandir, opposite parksite, Vikhroli Park Site, Parksite Colony, Vikhroli West, Mumbai, Maharashtra 400079, India",Baby store,+91 72084 04644,400079.0,3,Maharashtra,Diaper House baby & adults diaper Wholesale,
332,"Shop No 012, L&T Emerald Isle Powai, Raje Sambhaji Nagar, Marol, Andheri East, Mumbai, Maharashtra 400072, India",Baby store,+91 81042 94928,400072.0,6,Maharashtra,N.M SHAH,
371,"Lal Bahadur Shastri Marg, GKW Colony, Bhandup West, Mumbai, Maharashtra 400078, India",Baby store,+91 79770 55410,400078.0,324,Maharashtra,"Firstcry.Com Store Bhandhup West, Mumbai",https://www.firstcry.com/
372,"B1704, Rustomjee Azziano, Majiwada, Thane West, Thane, Maharashtra 400086, India",Baby store,+91 97023 14940,400086.0,1024,Maharashtra,SuperBottoms,https://superbottoms.com/
375,"shop no .46, Road No. 1, near madina masjid, near building no.14, Vikhroli Park Site, BMC Colony, Vikhroli West, Mumbai, Maharashtra 400079, India",Baby store,+91 97697 27080,400079.0,15,Maharashtra,Diaper hub,https://sites.google.com/view/diapershub/home
366,"Shop No 3, Rangwala building, Mahatma Gandhi Rd, opp. vadupaksh, Bhatwadi, Kapol wadi, Ghatkopar West, Mumbai, Maharashtra 400086, India",Baby store,+91 77382 42536,400086.0,0,Maharashtra,Ghatkopar Diaper House,
379,"Raigad Chowk, Shop no 2, Damji Sadan, near Hanuman Mandir, Ghatkopar East, Mumbai, Maharashtra 400077, India",Baby store,+91 70216 75497,400077.0,12,Maharashtra,Aastha Diaper Point,
364,"Shop No. 101/103, Galleria Shopping Mall, 76, Hiranandani Gardens, Panchkutir Ganesh Nagar, Powai, Mumbai, Maharashtra 400076, India",Baby store,+91 93242 63238,400076.0,1,Maharashtra,Li'l cherie The baby shop,
380,"Shop Number 8, Shopping Centre, Station Road, Santacruz (W), Santacruz West, Mumbai, Maharashtra 400054, India",Baby store,+91 22 2649 2780,400054.0,2,Maharashtra,Smile Baby,
362,"Shop no. 15, Ground Floor, Nalanda Shopping Centre, Station Rd, opposite I.B Patel School, Jawahar Nagar, Goregaon West, Mumbai, Maharashtra 400104, India",Baby store,+91 81044 30075,400104.0,0,Maharashtra,P For Panda,https://pforpanda.co.in/
383,"noor baby diaper,s, Santacruz (w, Willingdon, Santacruz (West), Mumbai, Maharashtra 400054, India",Baby store,,400054.0,0,Maharashtra,Noor baby diaper,
361,"Shop No 09, Saki Vihar Rd, Murarji Nagar, Passpoli, Goregaon, Mumbai, Maharashtra 400087, India",Baby store,+91 98336 48222,400087.0,0,Maharashtra,Roysten Shop,
360,"Shop 122, orchard mall, Royal Palms, Aarey Milk Colony, Goregaon, Mumbai, Maharashtra 400065, India",Baby store,+91 93722 83591,400065.0,3,Maharashtra,The baby closet,
386,"L 244/1, LBS MARG, Dreams Mall Rd, Bhandup West, Mumbai, Maharashtra 400078, India",Baby store,,,2,,INFINITY,
355,"Shop no 3, Thankar Building, beside surbhi snacks, near jama masjid, Railway Colony, Andheri West, Mumbai, Maharashtra 400058, India",Baby store,+91 95949 59934,400058.0,5,Maharashtra,MELA WEAR,
354,"Natraj market, 16/A, next to Mukesh Khatri shop, opp. kasturba talkies, Malad, Vijaykar Wadi, Malad West, Mumbai, Maharashtra 400064, India",Baby store,+91 91529 79501,400064.0,7,Maharashtra,Shree Sainath stores,
351,"Shop No 03 Bldg No 29, SHIV SHAHI PRAKALP, IGIDR, Nagri Niwara Cooperative Housing Society, Goregaon, Mumbai, Maharashtra 400065, India",Baby store,+91 96532 52650,400065.0,11,Maharashtra,BABY KIDS WEAR,
349,"NAHAR BUSINESS Centre, 9D, DP Rd Number 2, MHADA Colony, Chandivali, Powai, Mumbai, Maharashtra 400072, India",Baby store,+91 82910 56004,400072.0,0,Maharashtra,Yummy Mummys-India's Best Baby & Mommy Store in Mumbai,https://yummymummys.in/
348,"2, Bldg, behind MHADA Building, next to Sabir Caterers, Sona Intp Colony, Tagore Nagar, Vikhroli East, Mumbai, Maharashtra 400083, India",Baby store,,400083.0,2,Maharashtra,Bombay Diapers,
347,"Police Chowky, Gaon Devi, Vakola Pipeline Rd, near Vakola, Santacruz East, Mumbai, Maharashtra 400055, India",Baby store,+91 22 2667 2781,400055.0,28,Maharashtra,Gupta Stores,
346,"Shop No 3, Sahyadri Nagar, Kanjurmarg, Quarry Rd, near Rani Chawl, Bhandup West, Mumbai, Maharashtra 400078, India",Baby store,+91 85914 33824,400078.0,1,Maharashtra,Daiper Point,
344,"Shop no 05, near by bhavna jewellers, Gulshan Nagar, Oshiwara, Jogeshwari West, Mumbai, Maharashtra 400102, India",Baby store,+91 98197 10429,400102.0,47,Maharashtra,Diaper shop,
342,"Shop No 06, Subhash Road, Ashok Nagar, Mulund West, Mumbai, Maharashtra 400080, India",Baby store,+91 93218 56474,400080.0,0,Maharashtra,Vijay Centre,
341,"Shop No.5/6/7, Chembur Guest House Building, N.G. Acharya Marg, New Bombay Toys, Chembur, opposite Natraj Cinema, Mumbai, Maharashtra 400071, India",Baby store,+91 98699 39657,400071.0,6,Maharashtra,Hari Om Collection,
338,"5VCG+3X2, Film City Rd, nearby Mamta Nursing Home, Jai Bhim Nagar, Goregaon, Mumbai, Maharashtra 400065, India",Baby store,+91 99671 54563,400065.0,0,Maharashtra,New Ss Dipper Point,
421,"Silver Pearl Building, 204, 218, Waterfield Road, Bandra West, Mumbai, Maharashtra 400050, India",Baby store,+91 91674 40140,400050.0,4,Maharashtra,Malabar Baby India,https://allthingsbaby.com/collections/malabar-baby
335,"Sahajivan Nivas, 10/7, Tembipada, Kokan Nagar, Bhandup West, Mumbai, Maharashtra 400078, India",Baby store,+91 88508 82732,400078.0,0,Maharashtra,Sawant Flower Shop,
368,"Shop No, 5Vcg+Ch4 Jai Bhai Nagar, Konkan Division, Jai Bhim Nagar, Goregaon, Mumbai, Maharashtra 400065, India",Baby store,+91 86918 16009,400065.0,2,Maharashtra,S.P. Daiper Stores,
334,"Shop No. 1, Sapna Sangeet Society, Yogi Hills (Inside Road), Swapna Nagari, Nirmal Nagar, Mulund West, Mumbai, Maharashtra 400080, India",Baby store,+91 91674 03325,400080.0,0,Maharashtra,Vishamberlal Yadv,
451,"13, 3rd floor, Raju Mansion, CLUSTER_MUMBAI SUBURBAN_402, Off, Vallabhbaug Ln, Railway Police Colony, Ghatkopar East, Mumbai, Maharashtra 400075, India",Baby store,,400075.0,0,Maharashtra,TRAVELICIOUS BABY,
333,"A-2, S Pratap Singh Rd, Satyavijay Society, Gadhav Naka, Panchsheel Nagar, Bhandup West, Mumbai, Maharashtra 400078, India",Baby store,+91 95173 35908,400078.0,1,Maharashtra,Aarif Karne,
331,"16, Lal Bahadur Shastri Marg, Sai Nagar, C.G.S. Colony, Kanjurmarg East, Mumbai, Maharashtra 400042, India",Baby store,+91 85910 39899,400042.0,0,Maharashtra,Ravi Tonka Moolya,
0,"Mahavir Nagar, Kandivali West, Mumbai, Maharashtra 400067, India",Baby store,+91 97694 07640,400067.0,43,Maharashtra,Baby boutique,http://www.babyboutiqemumbai.com/
536,"2, Tulsi Tavar T P S, Rod, Hanuman Nagar, Daulat Nagar, Borivali, Mumbai, Maharashtra 400066, India",Baby store,+91 99196 69859,400066.0,0,Maharashtra,Raviprakash Fruit,
514,"6RHG+9V8, behind Old Mhb Police Station, Swagat Society, MHB Colony, Gorai 1, Borivali West, Mumbai, Maharashtra 400091, India",Baby store,,,0,,Sunita Baby Care,
671,"32, Mahda Colony, Nehru Nagar, Kurla, Mumbai, Maharashtra 400024, India",Baby store,+91 89283 48996,400024.0,0,Maharashtra,Sushil Store,
670,"N3 Plot N28, Govandi Baiganwadi, Road N3 Plot N28 Cblock, Road, Cblock, Mumbai, Maharashtra 400043, India",Baby store,+91 97026 65099,400043.0,0,Maharashtra,Iqrar Store,
669,"Shop No12 G, Block Room, No24, Road No. 11, Govandi Slums, Govandi West, Baiganwadi, Shivaji Nagar, Mumbai, Maharashtra 400043, India",Baby store,+91 84249 94937,400043.0,0,Maharashtra,Rohit Store,
668,"Deonar Village Rd, Deonar, Govandi East, Mumbai, Maharashtra 400088, India",Baby store,+91 93268 80510,400088.0,0,Maharashtra,Verendra Store,
667,"Shell Colony Rd, Shramjivi Nagar, Sai Baba Nagar, Kurla, Mumbai, Maharashtra 400071, India",Baby store,,,0,,Jagajiban Rabi Baishya,
666,"Shop No 1, Mhada Colony, Gautam Nagar, Shivaji Nagar, Mumbai, Maharashtra 400043, India",Baby store,+91 90791 37165,400043.0,0,Maharashtra,Jasmita Pandy,
664,"Plot No 8/K, 5, Road No. 2, near Umar Masjid, Govandi Slums, Govandi West, Phase 1, Shivaji Nagar, Mumbai, Maharashtra 400043, India",Baby store,+91 87677 56056,400043.0,0,Maharashtra,Mahira Daiper,
661,"Shop No 12, Shiv Shakti Nagar, Chembur, Mumbai, Maharashtra 400071, India",Baby store,+91 88285 31047,400071.0,0,Maharashtra,Farman Shop,
660,"Shop No, 1, VN Purav Marg, Panchsheel Nagar, Chunabhatti, Sion, Mumbai, Maharashtra 400022, India",Baby store,+91 99301 17705,400022.0,2,Maharashtra,Laxmi Electric,
658,"WING-A, MAHALAXMI APARTMENT, 13-c, Sainath Mandir Chowk, Chembur West, Tilak Nagar, Chembur, Mumbai, Maharashtra 400089, India",Baby store,+91 88284 93465,400089.0,0,Maharashtra,Lalkishor,
657,"10, Nehru Nagar, Kurla, Mumbai, Maharashtra 400024, India",Baby store,+91 92196 50594,400024.0,0,Maharashtra,Ajay Store,
656,"CG Rd, Indira Nagar, Chembur, Mumbai, Maharashtra 400071, India",Baby store,+91 98670 10041,400071.0,1,Maharashtra,Aarif Sop,
655,"Jagruti Nagar, Nehru Nagar, Kurla, Mumbai, Maharashtra 400024, India",Baby store,+91 91371 89230,400024.0,1,Maharashtra,Shaikh store,
654,"3W45+WRH, Khardev Nagar, Chembur 1, Chembur, Mumbai, Maharashtra 400071, India",Baby store,+91 80941 48458,400071.0,0,Maharashtra,Sarika,
652,"Shop No 3 Room No 56, Govandi Slums, Lotus Colony, Shivaji Nagar, Mumbai, Maharashtra 400043, India",Baby store,+91 91673 56832,400043.0,0,Maharashtra,Rahims Store,
651,"Shop No 48, Malik Liyaqat Hussain Marg, opp. St Joseph School, Ambedkar Nagar, Kurla West, Kurla, Mumbai, Maharashtra 400070, India",Baby store,+91 98195 00340,400070.0,0,Maharashtra,Pamper Collection,
649,"Plot No 13, Rd Number 9, near BMC School, Govandi Slums, Govandi West, Baiganwadi, Shivaji Nagar, Mumbai, Maharashtra 400043, India",Baby store,+91 62031 07724,,1,,Subham Singh Solanki,
648,"N4 Plot 34, K Block Road N4, Govandi, Plot 34, Road, K Block, Baiganwadi, Mumbai, Maharashtra 400043, India",Baby store,+91 93103 72242,400043.0,0,Maharashtra,Meraj Store,
647,"Plot No 13 Room No 798, Govandi Slums, Lotus Colony, Shivaji Nagar, Mumbai, Maharashtra 400043, India",Baby store,+91 98676 37788,400043.0,0,Maharashtra,Sadiq Store,
646,"3002, Jeejabai Bhosale Marg, N1, Gajanand Colony, RamannNagar, Shivaji Nagar, Mumbai, Maharashtra 400043, India",Baby store,+91 77000 55560,400043.0,0,Maharashtra,Mubeen Store,
645,"Vijay Nagar, Andheri East, Mumbai, Maharashtra 400069, India",Baby store,+91 86558 82830,400069.0,0,Maharashtra,Anil Yadav,
672,"Govandi Slums, Govandi West, Adasa Nagar, Govandi East, Mumbai, Maharashtra 400043, India",Baby store,+91 98679 05465,400043.0,0,Maharashtra,Nile Traders,
673,"Lig, MIG Colony, Kurla West, Kurla, Mumbai, Maharashtra 400070, India",Baby store,+91 98198 81252,400070.0,0,Maharashtra,Fancy Sweets,
674,"Plot No 11, Rd Number 9, near Baiganwadi, Shivaji Nagar Number 2, Govandi West, Baiganwadi, Govandi, Mumbai, Maharashtra 400043, India",Baby store,+91 77229 94678,400043.0,0,Maharashtra,Chhotu,
675,"Govandi Slums, Lotus Colony, Govandi East, Mumbai, Maharashtra 400043, India",Baby store,+91 96697 94961,400043.0,0,Maharashtra,Niharikaa Mehtaa,
708,"Rd Number 9, Govandi Slums, Govandi West, Adasa Nagar, GOVANDI, Mumbai, Maharashtra 400043, India",Baby store,+91 82393 93706,400043.0,0,Maharashtra,SANJAY KUMAR,
706,"Road No.5, Govandi Slums, Govandi West, Adasa Nagar, Govandi, Mumbai, Maharashtra 400043, India",Baby store,+91 90820 41091,400043.0,0,Maharashtra,MUKESH KUMAR,
705,"Denmar Shop No 1, Deonar, Chembur, Mumbai, Maharashtra 400043, India",Baby store,+91 96803 58872,400043.0,0,Maharashtra,Ankita,
704,"Rd Number 9, Govandi Slums, Govandi West, Adasa Nagar, GOVANDI, Mumbai, Maharashtra 400043, India",Baby store,+91 80037 41886,400043.0,0,Maharashtra,KIRTI,
703,"Road No. 11, near Chai Khalifa, Govandi Slums, Govandi West, Baiganwadi, Govandi, Mumbai, Maharashtra 400043, India",Baby store,+91 95126 55247,400043.0,0,Maharashtra,Sneha,
702,"Shop 2, Road No. 3, Govandi Slums, Govandi West, Phase 1, Shivaji Nagar, Mumbai, Maharashtra 400043, India",Baby store,+91 88568 11818,400043.0,0,Maharashtra,UMEESH SHEKURAO KARE,
701,"Nehru Ni 1, Nehru Nagar, Kurla, Mumbai, Maharashtra 400024, India",Baby store,+91 89057 59031,400024.0,0,Maharashtra,Madhavi,
699,"shop no 1, Mhada Colony, Natvar Parekh Compound, Govandi East, Mumbai, Maharashtra 400043, India",Baby store,+91 72406 67338,400043.0,0,Maharashtra,sanjana verma,
698,"No 4, Shop No4 G Block S Line Room Road, Plot No 29, Shivaji Nagar, Mumbai, Maharashtra 400043, India",Baby store,+91 97025 62324,400043.0,0,Maharashtra,Rukshad Israr Khan Store,
697,"Shop No 68, G Block S Line, Govandi Slums, Govandi West, Adasa Nagar, Govandi East, Mumbai, Maharashtra 400043, India",Baby store,+91 88892 41052,400043.0,0,Maharashtra,Kavya Sharma,
643,"3VFJ+C9V, SG Barve Marg, Ambedkar Nagar, Kurla West, Kurla, Mumbai, Maharashtra 400070, India",Baby store,,,0,,Maza Diaperwala,
695,"S.N, 3W3H RHR, Annabhau Sathe Nagar, Govandi East, Mumbai, Maharashtra 400043, India",Baby store,+91 96199 73712,400043.0,0,Maharashtra,PRAKASH NANABHAU PATOLE,
692,"opp. Labbaik Store, Kasaiwada, Takshashila Nagar, Qureshi Nagar, Kurla, Mumbai, Maharashtra 400070, India",Baby store,+91 95684 91525,400070.0,0,Maharashtra,Zaidi,
691,"Shop No 89 G Block Q Line Room 79 Road No 5, Main Mumbai, Baiganwadi, Mumbai, Maharashtra 400043, India",Baby store,+91 93261 32534,400043.0,0,Maharashtra,MOHDHAROONSIRAJUDDINANSARI,
685,"Shop No 1 Plot 14 Road No 9, 43, Govandi Slums, Mumbai, Maharashtra 400043, India",Baby store,+91 70397 90829,400043.0,0,Maharashtra,Rehan Shaikh,
683,"Kamalabai Nagar, Govandi West, Goavandi, Shivaji Nagar, Mumbai, Maharashtra 400043, India",Baby store,+91 84342 18475,400043.0,0,Maharashtra,Abhishek Kumar,
682,"Ibn Faisal, 8254 Prince Ahmad Ibn Abdulrahman, PL Lokhande Marg, Mumbai, Maharashtra 400043, India",Baby store,+91 80825 30597,400043.0,0,Maharashtra,Toufiq Shop,
681,"No 4 H Blok, Shop, Road 13, Govandi Rd, Baiganwadi, Mumbai, Maharashtra 400043, India",Baby store,+91 79772 57289,400043.0,0,Maharashtra,Shamsul store,
680,"Shop No 4, G Block S Line Room, 44, Road No. 11, Govandi Slums, Govandi West, Baiganwadi, Shivaji Nagar, Mumbai, Maharashtra 400043, India",Baby store,+91 97683 04438,400043.0,0,Maharashtra,MAYUR DADA GADE,
678,"1, Road No. 1, Govandi Slums, Govandi West, Adasa Nagar, Govandi, Mumbai, Maharashtra 400043, India",Baby store,+91 70391 42397,400043.0,0,Maharashtra,MADAN LAL,
677,"Nehru Nagar, Kurla, Mumbai, Maharashtra 400024, India",Baby store,+91 92437 32723,400024.0,0,Maharashtra,sarika Saxsena,
676,"1, ACC Nagar, Chembur, Mumbai, Maharashtra 400043, India",Baby store,+91 89624 53463,400043.0,0,Maharashtra,Mariam,
694,"Road No. 8, Govandi Slums, Govandi West, Baiganwadi, Shivaji Nagar, Mumbai, Maharashtra 400043, India",Baby store,+91 98335 94355,400043.0,1,Maharashtra,Pardeep Vegetables,
640,"Ambari tiniali 10, New D. N. Nagar, D.N.Nagar, Andheri West, Mumbai, Maharashtra 400053, India",Baby store,+91 80116 10479,400053.0,0,Maharashtra,Jamal Uddin,
639,"Shop No 1, Plot, Bawa Boutique, Rd Number 10, Govandi Slums, Govandi West, Baiganwadi, Govandi East, Mumbai, Maharashtra 400043, India",Baby store,+91 97027 62698,400043.0,0,Maharashtra,Fashion Club,
631,"Pream nagar irla vile parle west Mumbai 400045, Navpada, Prem Nagar, Vile Parle West, Mumbai, Maharashtra 400056, India",Baby store,+91 98674 29195,400056.0,0,Maharashtra,Santosg Prajapati,
551,"67, Sundar Nagar, Borivali, Mumbai, Maharashtra 400092, India",Baby store,+91 88505 39228,400092.0,2,Maharashtra,Yeshwant D Shah HUF,
550,"Shop no 2 Kranti Nagar, Akurli Rd, Gokul Nagar, Kandivali East, Mumbai, Maharashtra 400101, India",Baby store,+91 70459 84782,400101.0,0,Maharashtra,Pitale Soup Shop,
548,"Shop No, 1kandivali Kandivali, Food Corporation of India Warehouse, Borivali, Mumbai, Maharashtra 400066, India",Baby store,+91 83061 69309,400066.0,0,Maharashtra,Ragvi,
545,"Shop No 21, Sheetal Bar, Vaishali Nagar, Dahisar East, Mumbai, Maharashtra 400068, India",Baby store,+91 82867 83598,400068.0,0,Maharashtra,Shiv Kumar Gupta,
543,"37borivali, Borivali, Mumbai, Maharashtra 400066, India",Baby store,+91 92793 83827,400066.0,0,Maharashtra,Pawan Kumar Shop,
542,"1, Kandivali, Jethava Nagar, Kandivali West, Mumbai, Maharashtra 400067, India",Baby store,+91 86570 80161,400067.0,0,Maharashtra,Shyamsundar Rajbhar,
540,"Jagannath Yadav Chawl, Hanuman Nagar Rd, Akurli Rd, Kandivali, Akurli Nagar, Kandivali East, Mumbai, Maharashtra 400101, India",Baby store,+91 82862 41984,400101.0,0,Maharashtra,Tayeba Collection MOHAMMAD SARFARAJ ABDUL MAJID SAYED,
538,"Shop No 1, Kandivali Kandivali, Food Corporation of India Warehouse, Borivali, Mumbai, Maharashtra 400066, India",Baby store,+91 96020 15998,400066.0,0,Maharashtra,Dabhi Narendrakumar Girdharilal,
537,"Shop No.1, Dias Apartments, near Fish Market, I C Colony, Borivali West, Mumbai, Maharashtra 400103, India",Baby store,+91 98205 92234,400103.0,0,Maharashtra,Nic Nat Enterprises,
301,"Shitladevi Chawl, D.N.Nagar, Andheri West, Mumbai, Maharashtra 400053, India",Baby store,,,0,,MummaMinute,
552,"Rampur Raygarh, Kandivali, Shiv Sagar, Kandivali East, Azamgarh, Mumbai, Uttar Pradesh 276001, India",Baby store,,,0,,Sadhana Shop,
534,"Shop No 1, Kandivali Kandivali, Food Corporation of India Warehouse, Borivali, Mumbai, Maharashtra 400066, India",Baby store,+91 75749 64889,400066.0,0,Maharashtra,Deepika Patel,
531,"Poisar Gav, Ali Ibrahim Chawl, Poisar, Kandivali East, Mumbai, Maharashtra 400067, India",Baby store,+91 98349 42418,400067.0,0,Maharashtra,Lalchand Store,
529,"Koli House, Malwani Church, 01, Marve Rd, Malad, Chikuwadi, Malad West, Mumbai, Maharashtra 400095, India",Baby store,,,0,,Agastya Kirana Store,
528,"31, Chikku Wadi Rd, Malad, Sai Krupa Nagar, Chikuwadi, Malad West, Mumbai, Maharashtra 400067, India",Baby store,+91 788 061 3691,400067.0,0,Maharashtra,Khuwaja Gareeb Nawaz,
527,"Shree ji Shopping Centre, Hospital, Mahatma Gandhi Rd, Kandivali, Bhagat Colony, Kandivali West, Mumbai, Maharashtra 400067, India",Baby store,+91 82912 31667,400067.0,0,Maharashtra,J K Medical And General Store,
525,"Kishori Khesari Flower, Kandivali, Charkop Gaon, Kandivali West, Mumbai, Maharashtra 400067, India",Baby store,+91 70625 10092,400067.0,0,Maharashtra,Kishori Pulavar,
523,"Sharma Chall, R R, Kata Road 3, Meghdoot, Mhatre Wadi, Borivali, Mumbai, Maharashtra 400092, India",Baby store,+91 88285 89880,400092.0,0,Maharashtra,P d hariya,
520,"Chaurasiya Fruit Corner, Bihari Tekdi, Poisar, Borivali West, Mumbai, Maharashtra 400101, India",Baby store,+91 91673 19930,400101.0,1,Maharashtra,Chaurasiya Food,
519,"Shop No, 02, Lal Tiwari Rd, Shop 2, Jagdish Shetty Rd, Kandivali, Ekta Nagar, Baji Mkt, Ganesh Nagar, Kandivali West, Mumbai, Maharashtra 400067, India",Baby store,+91 90657 87512,400067.0,0,Maharashtra,Jitendra Bag Shop,
517,"Poisar Market Rd, Station Road, Kandivali West, Mumbai, Maharashtra 400067, India",Baby store,+91 97693 29959,400067.0,0,Maharashtra,Dineshkumar Store,
516,"Shop Non1, Kandivali Kandivali, Kandivali, Janata Nagar, Kandivali East, Mumbai, Maharashtra 400101, India",Baby store,+91 92510 38381,400101.0,0,Maharashtra,Luxury,
532,"8, Jagdish Shetty Rd, Kandivali, Ekta Nagar, Kandivali West, Mumbai, Maharashtra 400067, India",Baby store,+91 85918 38687,400067.0,0,Maharashtra,Rajasthan Collection DINESHRJAIN,
511,"E19, Kandivali, Kranti Nagar, Kandivali East, Mumbai, Maharashtra 400101, India",Baby store,+91 97680 82363,400101.0,0,Maharashtra,Shingar Novelty,
553,"Shop No 1, Kandivali, Janata Nagar, Ghatkopar, Mumbai, Maharashtra 400101, India",Baby store,,,0,,Manoj Kumar,
558,"Tilak Nagar Lucknow Rd, Kandivali, Hanuman Nagar, Kandivali East, Azamgarh, Mumbai, Uttar Pradesh 276001, India",Baby store,+91 80155 40374,276001.0,0,Uttar Pradesh,Manish Shop,
629,"Block S Line Room, 28, Road No. 8, Govandi Slums, Govandi West, Baiganwadi, Shivaji Nagar, Mumbai, Maharashtra 400043, India",Baby store,+91 91379 47420,400043.0,0,Maharashtra,Soheb Shaikh,
624,"01, Cross Pakhadi Rd, Versova, Andheri West, Mumbai, Maharashtra 400061, India",Baby store,+91 90044 81526,400061.0,0,Maharashtra,Salman Kanda And Batata Shop,
623,"no 63, purandar building, Room no 317,B wing 3 rd floor, Mankhurd West, Mumbai, Maharashtra 400043, India",Baby store,,,2,,Dakshta palna Ghar,
616,"400061 Complex, 2/4, JP Rd, Veraoa Road, Achal Avichal Chanchal, Versova, Andheri West, Andheri, Mumbai, Maharashtra 400061, India",Baby store,+91 93261 15206,400061.0,0,Maharashtra,Aman Kumar Shop,
614,"Shop 1, Motilal Nagar I, Goregaon West, Vasai-Virar, Mumbai, Maharashtra 400104, India",Baby store,+91 89838 78315,400104.0,0,Maharashtra,Shiv Shakti Water Supplier,
610,"Dhanuka rebuild 405, Manmandir Co.operative Housing Society, D.N.Nagar, Andheri West, Mumbai, Maharashtra 400053, India",Baby store,,,0,,Asquare,
609,"4RXQ+4M8, Gulshan Nagar, Oshiwara, Jogeshwari West, Mumbai, Maharashtra 400102, India",Baby store,,,0,,Gulshan nagar Jogeshwari,
608,"City Max 401, Relief Road, Oshiwara, Jogeshwari West, Mumbai, Maharashtra 400102, India",Baby store,,,0,,Tourist And Travels,
607,"4V5C+VF5, Near sai baba mandir, Marol Pipeline Rd, opp. Mukund Hospital, Mumbai, Maharashtra 400059, India",Baby store,,,0,,Royal collection,
600,"Prem nagar near jansakti police choki oppsite smita bar mumbai, Jogeshwari East, Maharashtra 400060, India",Baby store,,,3,,Burhani A to Z daipers,
555,"187, Abhinav Nagar Rd 5, Abhinav Nagar, Borivali East, Mumbai, Maharashtra 400066, India",Baby store,,,0,,Manoj Kumar,
587,"B-803, SHREE NAMAN TOWERS, SV Rd, Kandivali, Bhadran Nagar, Kandivali West, Mumbai, Maharashtra 400067, India",Baby store,+91 98191 23139,400067.0,51,Maharashtra,Johnson Hosiery Works,http://thelovebaby.co.in/
583,"Shop No.14, Serene Shelter, next to Saraswat Bank, opp. Aryan Hospital, Nehru Nagar, Kurla, Mumbai, Maharashtra 400024, India",Baby store,+91 76667 86243,400024.0,43,Maharashtra,Diaper Point,
579,"ok, Kandivali, Singh Agri Estate, Kandivali East, Mumbai, Maharashtra 400101, India",Baby store,,,0,,Baby n Beyond,
576,"426, 427, Swami Vivekananda Rd, next to Jyoti Plaza, opposite Anandvan Ashram, Kandivali, A/1-A, Roopkamal Society, Kandivali West, Mumbai, Maharashtra 400067, India",Baby store,+91 99702 92784,400067.0,0,Maharashtra,BIGGIE BABY,
575,"2, Kandivali, Mumbai, Maharashtra 400101, India",Baby store,+91 91168 89967,400101.0,0,Maharashtra,Ramesh Patel,
571,"B-237, OIC, New Link Rd, Goregaon West, Mumbai, Maharashtra 400104, India",Baby store,+91 98205 05363,400104.0,0,Maharashtra,LITTLE DREAMZ,
569,"1/3, opp. Amrut hotel, nr. New Link Road, Kandivali, Kandivalis Dharavi, Maharashtra Nagar, Kandival, Mumbai, Maharashtra 400067, India",Baby store,+91 70216 15775,400067.0,0,Maharashtra,Samar Enterprises,
567,"Kandivali, MHADA Colony, Lokhandwala Twp, Kandivali East, Mumbai, Maharashtra 400101, India",Baby store,,,0,,Sprog Food,
566,"SHIV KRUPA CHS, 4, RDP 8, Sector 8, Kandivali West, Mumbai, Maharashtra 400092, India",Baby store,+91 80809 94413,400092.0,1,Maharashtra,Food House,
564,"LITLLE HUB NX , 322/43 SWAPNAPURTI C.H.S. LTD. , CHARKOP MARKET, SECTOR NUMBER 3, RSC Rd Number 32, Kandivali West, Mumbai, Maharashtra 400067, India",Baby store,,400067.0,0,Maharashtra,LITTLE HUB NX,
560,"7V48+764, Anannd Nagar Dahisar, Malad East, Mumbai, Maharashtra 400068, India",Baby store,+91 91374 05663,400068.0,0,Maharashtra,Suryoday Stores,
586,"sangeeta building, babuline naka, 16 new, dadiseth road, Kandivali, Irani Wadi, Malad West, Mumbai, Maharashtra 400067, India",Baby store,,400067.0,1,Maharashtra,Suman babysitting,
299,"Remi Commercio, 1006, Off Link Rd, Industrial Area, Andheri West, Mumbai, Maharashtra 400053, India",Baby store,,,0,,Gugu Cart Baby Products & Parenting Portal,https://gugucart.com/
328,"Sachin Housing Colony, Patil Nagar, Nane Pada, Mulund East, Mumbai, Maharashtra 400081, India",Baby store,+91 93269 05242,400081.0,0,Maharashtra,DINESH,
297,"Kingston Height, C-406, Chincholi Bunder Rd, Malad, Chincholi Bunder, Malad West, Mumbai, Maharashtra 400064, India",Baby store,,400064.0,0,Maharashtra,Babyluxurio,
154,"Shop No 5, Bilding DR2, Ram Mandir Rd, Mahatma Jyotiba Phule Nagar, Goregaon, Mumbai, Maharashtra 400104, India",Baby store,+91 98670 23230,400104.0,0,Maharashtra,M.R.pearfum,
153,"7, BMC Colony, Jai Bhim Nagar, Dindoshi, Goregaon, Mumbai, Maharashtra 400065, India",Baby store,+91 97837 93407,400065.0,0,Maharashtra,Sunil,
151,"211, LOTUS BUSINESS PARK, Ram Baug Road, SV Rd, near Chincholi Naka, Malad West, Mumbai, Maharashtra 400064, India",Baby store,+91 87796 57853,400064.0,30,Maharashtra,Terra (Terragentle) - Premium Baby Wipes and Baby Products in India,https://www.terragentle.in/
148,"Shop No.2, Swami Vivekananda Rd, near McDonalds, CHSL, Jawahar Nagar, Goregaon West, Mumbai, Maharashtra 400104, India",Baby store,+91 93242 12981,400104.0,13,Maharashtra,Angels Island,
146,"Shop no 5, Kanjurmarg Station Rd, MMRDA Colony, Ambedkar Nagar, Kanjurmarg West, Bhandup West, Mumbai, Maharashtra 400078, India",Baby store,+91 77382 42536,400078.0,0,Maharashtra,Kanjur Diaper House,
145,"Shop no 1, God Colony, Besides, Nehru Nagar, SBI bank, Kanjurmarg East, Mumbai, Maharashtra 400042, India",Baby store,+91 90043 07595,400042.0,78,Maharashtra,Baby On Board,https://babyonboardtoys.com/
143,"h line/house, Rd Number 9, near Sunni Jana Masjid, Govandi Slums, Govandi West, Phase II, Shivaji Nagar, Mumbai, Maharashtra 400043, India",Baby store,+91 98333 90559,400043.0,1,Maharashtra,D.C BABY CARE,
142,"Part 2, Bab E, Rehmat Masjid, Govandi Rafi Nagar Part 2 Bab E Rehmat Masjid, Mumbai, Maharashtra 400043, India",Baby store,+91 87796 92355,400043.0,0,Maharashtra,Yahiya Store,
140,"L,2, Plot no 44, Road No. 3, Govandi(W), Govandi West, Raman Mama Nagar, Shivaji Nagar, Mumbai, Maharashtra 400043, India",Baby store,,,1,,Baby Dry,
139,"Room No 32, H Block, Sai Baba Masjid, Shop No 12, Rafiq Nagar, Govandi East, Mumbai, Maharashtra 400043, India",Baby store,+91 93244 29069,400043.0,0,Maharashtra,Lal Babu Store,
137,"Shop N0 12, Bismillah Masjid, Plot N0 29, C Line, Rafiq Nagar, Shivaji Nagar, Mumbai, Maharashtra 400043, India",Baby store,+91 77108 63984,,0,,Asif Store,
155,"C-73, Pandit Jawaharlal Nehru Rd, near Make me smile, near Ma, Ramgad Nagar, Vishwakarma Nagar, Mulund West, Mumbai, Maharashtra 400080, India",Baby store,+91 92243 87596,400080.0,2,Maharashtra,Bharat Gupta,
135,"Plot No 32, near Tayyeba Masjid, Govandi Slums, Govandi West, Baiganwadi, Govandi East, Mumbai, Maharashtra 400043, India",Baby store,+91 98215 03981,400043.0,0,Maharashtra,Pari Diaper House,
132,"Govandi Slums, Gajanand Colony, Lotus Colony, Govandi East, Mumbai, Maharashtra 400043, India",Baby store,+91 63592 42706,400043.0,0,Maharashtra,Ananya,
128,"340, 1st Hasnabad Ln, Willingdon, Santacruz (West), Mumbai, Maharashtra 400054, India",Baby store,+91 98198 93280,400054.0,13,Maharashtra,Value Store,
125,"Plot N40, Road No. 6, Govandi Slums, Rafiq Nagar, Shivaji Nagar, Mumbai, Maharashtra 400043, India",Baby store,+91 80700 40821,400043.0,0,Maharashtra,Store,
124,"MEHBOOB E SUBHANI MASJID, 250 BHALEKAR WADI, New Mill Rd, beside MADINA HOTEL, Kurla West, Mumbai, Maharashtra 400070, India",Baby store,+91 78604 04303,400070.0,454,Maharashtra,Kohinoor Enterprises diaper disposable,
123,"Office No. 503, Signature Business Park, Postal Colony, Chembur, Mumbai, Maharashtra 400071, India",Baby store,+91 91676 84171,400071.0,9,Maharashtra,Coos N Babbles,https://www.coosnbabbles.com/
118,"opp. City Plaza, next to Dinar Building, Bajaj Wadi, Railway Colony, Santacruz (West), Mumbai, Maharashtra 400054, India",Baby store,+91 99679 58204,400054.0,3,Maharashtra,54 Kids Street,
117,"Shop no 41, Dwarka Building, no3, Station Road, near Nityanand hotel, MHADA Colony, Pant Nagar, Ghatkopar East, Mumbai, Maharashtra 400077, India",Baby store,,,6,,AAI Agency wholesale diaper.,
115,"Shop Number 3, Nari Seva Sadan Rd, Asalpha village, Ghatkopar West, Mumbai, Maharashtra 400084, India",Baby store,+91 99876 41437,400084.0,2,Maharashtra,Aadi Baby Care,
113,"Santacruz Railway Station Rd, near DINAR BUILDING, opposite Keravala Lodge, Navin Nagar, Willingdon, Santacruz (West), Mumbai, Maharashtra 400054, India",Baby store,+91 99679 58204,400054.0,5,Maharashtra,ALIZA DIAPERS,
108,"Sai Kiran Apartments, Central Aveneu Road, Dayanand Saraswati Rd, Mahadeo Wadi, Chembur, Mumbai, Maharashtra 400071, India",Baby store,+91 86527 67395,400071.0,18,Maharashtra,Tiny Tots,
107,"Flat no 302, Shree Saraswati CHS, Bldg B-1, Subhash Nagar, Chembur, Mumbai, Maharashtra 400071, India",Baby store,+91 90828 14408,400071.0,99,Maharashtra,Little And Wise,http://www.littleandwise.in/
134,"Shop N2, Vidy Bar, Sai Baba Mandir, Plot N21, Rafiq Nagar Rd, Govandi Slums, Rafiq Nagar, Govandi East, Mumbai, Maharashtra 400043, India",Baby store,+91 99872 05226,400043.0,0,Maharashtra,Rubeena Store,
105,"Rd No. 1, near Ambedkar Garden, Chembur Gaothan, Chembur, Mumbai, Maharashtra 400071, India",Baby store,,400071.0,5,Maharashtra,Festoons (For New Borns to Toddlers),
156,"4th floor, Ijmima Complex, Shop no, 437/438, behind Infinity Mall, Malad West, Mumbai, Maharashtra 400064, India",Baby store,+91 88501 82834,400064.0,88,Maharashtra,Props Ka Pitara,https://www.propskapitara.com/
158,"Ram Mandir, R 12, Ram Mandir Rd, Mahatma Jyotiba Phule Nagar, Jogeshwari West, Mumbai, Maharashtra 400104, India",Baby store,+91 79000 03116,400104.0,0,Maharashtra,New Lakshmi Store,
201,"Shop No 2, Bilal Masjid, Andheri - Ghatkopar Link Rd, Nair Wadi, Saki Naka, Mumbai, Maharashtra 400072, India",Baby store,+91 81081 40257,400072.0,0,Maharashtra,Link Cycles Shop Md Israr Malik,
200,"Shop No 1, Andheri - Ghatkopar Link Rd, Pereira Wadi, Asalpha, Mumbai, Maharashtra 400072, India",Baby store,,,0,,Riya Reddy,
199,"shop no 1, Andheri - Ghatkopar Link Rd, TPS Colony, Ghatkopar West, Mumbai, Maharashtra 400086, India",Baby store,+91 73398 44697,400086.0,0,Maharashtra,payel mehta,
198,"Shop No, Ghatkopar, Mumbai, Maharashtra 400086, India",Baby store,+91 97840 44531,400086.0,0,Maharashtra,Madhavi Reddy,
196,"rahmat masjid, Baba Nagar Rd, Rafiq Nagar, Shivaji Nagar, babe, Mumbai, Maharashtra 400043, India",Baby store,+91 98209 66137,400043.0,0,Maharashtra,Mohd Nabil Rizwan Shaikh,
195,"Ikra Creation, Govandi Slums, Rafiq Nagar, Shivaji Nagar, Mumbai, Maharashtra 400043, India",Baby store,+91 83694 54806,400043.0,0,Maharashtra,Iqra Creation,
193,"Shop No2 G, Block Room, N28 Road N4, Govandi Slums, Baiganwadi, Shivaji Nagar, Mumbai, Maharashtra 400043, India",Baby store,+91 90821 96158,400043.0,0,Maharashtra,Mohammad Kamil Khan,
188,"Sho No. 2, opp. Satellite Glory, Andheri East, Mumbai, Maharashtra 400059, India",Baby store,+91 98198 47935,400059.0,0,Maharashtra,Ramesh Pan Shop,
181,"High St, Hiranandani Gardens, Powai, Mumbai, Maharashtra 400076, India",Baby store,,,0,,Rajendra Kirana Store,
179,"Govandi Slums, Govandi West, 1wu 2nd, Shivaji Nagar, Mumbai, Maharashtra 400043, India",Baby store,+91 98676 73931,400043.0,0,Maharashtra,MOH SUFIYAN,
178,"Kalina Kurla Rd, Kolivery Village, Shastri Nagar, Kalina, Kurla, Mumbai, Maharashtra 400029, India",Baby store,+91 98670 09860,400029.0,0,Maharashtra,Durjan Tea Shop,
157,"Shop No 5, Neelam, Bori Colony, Vijay Nagar Colony West, Marol, Andheri East, Mumbai, Maharashtra 400059, India",Baby store,+91 98679 57509,400059.0,1,Maharashtra,Arifa Fast Food,
177,"Andheri - Ghatkopar Link Rd, Azad Nagar, Asalpha, Mumbai, Maharashtra 400086, India",Baby store,,,0,,Mehboob Mashak Patel,
175,"Chimatpada, Marol Naka, Andheri East, Mumbai, Maharashtra 400059, India",Baby store,+91 95944 98244,400059.0,0,Maharashtra,Prakash Footwear,
174,"Shop No 1, Ghatkopar, Mumbai, Maharashtra 400086, India",Baby store,+91 73598 49154,400086.0,0,Maharashtra,Deepika Patel,
298,"Sahyog Sall, 4, New Link Rd, Anand Nagar, Jogeshwari West, Mumbai, Maharashtra 400102, India",Baby store,+91 95945 19005,400102.0,0,Maharashtra,Kambeshwar Novelty Store,
173,"25, Shop Kurla Raoad, Ambedkar Nagar, Kurla West, Kurla, Mumbai, Maharashtra 400070, India",Baby store,+91 89575 13710,400070.0,0,Maharashtra,Kuldeep General Shop,
172,"Shop No19 S Block Room No57 Road No 5 Plot No29, Govandi Slums, Baiganwadi, Mumbai, Maharashtra 400043, India",Baby store,+91 91367 49906,400043.0,0,Maharashtra,Ramzan Store,
169,"Sabale Nagar, Kurla, Mumbai, Maharashtra 400024, India",Baby store,+91 84519 94831,400024.0,0,Maharashtra,Shree Hari General Store,
168,"Govandi Slums, Rafiq Nagar, Shivaji Nagar, Mumbai, Maharashtra 400043, India",Baby store,+91 97027 01392,400043.0,0,Maharashtra,MUDSAR SHAIKH,
166,"Singh Compound, Shop No.8, Navpada Rd, near Nandu Wafer, opp. Ajit Glass Road, Behram Baug, Jogeshwari West, Mumbai, Maharashtra 400102, India",Baby store,+91 90825 32545,400102.0,0,Maharashtra,Md Wakil,
164,"Shop No15 Room No H Line Govandi Shivaji Nagar Road No 2 Plot No26, Shivaji Nagar, Mumbai, Maharashtra 400043, India",Baby store,+91 77386 37384,400043.0,0,Maharashtra,Shamshad Store,
163,"No 1, Renuka Mata Mandir, Shop No 122, Bhagat Singh II, Goregaon West, Mumbai, Maharashtra 400104, India",Baby store,+91 81080 67804,400104.0,0,Maharashtra,DG Imitation Shop,
161,"Shop No 4, Bmc Market, Near, Staion, SV Patel Nagar, Andheri West, Mumbai, Maharashtra 400053, India",Baby store,,,0,,Royal daipers,
176,"Roshan PAN Card Ration Shop, Ambedkar Marg, Vidyavihar, Mumbai, Maharashtra 400077, India",Baby store,,,0,,Roshan PAN Card Ration Shop,
104,"Kusum Bharti, No. 201 Gorai Jeevandhara CHS Limited, Dattapada Rd, opposite Tata Steel, Borivali East, Mumbai, Maharashtra 400066, India",Baby store,+91 93242 40347,400066.0,17,Maharashtra,ITSYYBOO,
103,"3V6X+6P4, 20a, Rd No. 1, near B.M.C Office, Chembur Gaothan, Chembur, Mumbai, Maharashtra 400071, India",Baby store,,400071.0,11,Maharashtra,Little Angels,
102,"Shop 9 Tavas Shopping Centre, opposite Railway Station, Kandivali West, Mumbai, Maharashtra 400067, India",Baby store,+91 90824 92728,400067.0,36,Maharashtra,Kandivali Diaper Point,
35,"115, Lake Rd, Bhandup, Sonapur, Bhandup West, W, Mumbai, Maharashtra 400078, India",Baby store,+91 22 2594 8641,400078.0,0,Maharashtra,Florite Baby Products,http://floritebaby.com/
32,"MY DIVINE Co-Operative Housing Society Limited CTS No.132/2, Shop No- GF- 01 & 02, Aziz Baug, Mahul, Marouli Village Rd, Chembur, Mumbai, Maharashtra 400074, India",Baby store,+91 86000 26447,400074.0,1540,Maharashtra,FirstCry.com Store Mumbai Chembur East,https://www.firstcry.com/
31,"Shop No 26, G Sector 1, 2 Line, Line Road, Cheeta Camp, Trombay, Mumbai, Maharashtra 400088, India",Baby store,+91 96199 25775,400088.0,1,Maharashtra,A-1 Diapers,
30,"Gokul Gagan Apartment, Factory Lane Road, opposite Ambaji Dham Temple, Mini Zaveri Bazaar, Shimpoli, Borivali, Mumbai, Maharashtra 400092, India",Baby store,+91 96070 09506,400092.0,1823,Maharashtra,Babyhug Store Mumbai Borivali,
28,"Akshar Gully, B 701, Akshar Apt 2, Bldg, Hemukalani Cross Rd Number 3, behind Sai Raj Garden Apartment, Kandivali West, Mumbai, Maharashtra 400067, India",Baby store,+91 96196 80357,400067.0,92,Maharashtra,Strollers on Rent,https://strollers-on-rent.grexa.site/
26,"Maratha Colony Rd, Maratha Colony, Dahisar East, Mumbai, Maharashtra 400068, India",Baby store,+91 81696 21613,400068.0,49,Maharashtra,Dahisar Diaper House,
25,"Shop No.1, 2 & 3, Kamdar Shopping Arcade, Tilak Road, next to Food Spot, Ghatkopar East, Mumbai, Maharashtra 400077, India",Baby store,+91 90292 02030,400077.0,492,Maharashtra,Innocence Infants & Kids,https://www.facebook.com/innocence.shilp
23,"Shop no. 7, Matru Ashish CHSL, Chhatrapati Shivaji Rd, Krishna Colony, Dahisar East, Mumbai, Maharashtra 400068, India",Baby store,+91 96070 09022,400068.0,0,Maharashtra,Firstcry.com Factory Outlet Mumbai Dahisar,https://www.firstcry.com/?utm_source=gmb_optimization&utm_medium=organic&utm_campaign=gmb
22,"Sai Aastha CHS, No. 9 & 10, SV Rd, opp. Vasundhara, Mulji Nagar, Borivali West, Mumbai, Maharashtra 400092, India",Baby store,+91 74004 39190,400092.0,526,Maharashtra,Me n Moms Baby Care and Kids Store in Borivali West,https://www.menmoms.in/
20,"Shop No.1, Siddhachal Arcade, New Link Rd, Malad West, Mumbai, Maharashtra 400064, India",Baby store,+91 96070 08406,400064.0,649,Maharashtra,Babyhug Store Mumbai Malad,http://www.firstcry.com/
19,"Shop Number 93, Galleria Shopping Mall, Hiranandani Gardens, Panchkutir Ganesh Nagar, Powai, Mumbai, Maharashtra 400076, India",Baby store,+91 98200 61502,400076.0,0,Maharashtra,Little Baby,https://www.instagram.com/littlebabypowai
38,"PL Lokhande Marg, near hanuman mandir, Nagwadi, Rahul Nagar, Chembur, Mumbai, Maharashtra 400089, India",Baby store,+91 93236 04971,400089.0,29,Maharashtra,"Milee fashion:- Baby Carry Nest|Baby Mattress Set|Baby Pillow Supplier, Manufacturer in Mumbai, Maharashtra",
17,"1st Floor, PHOENIX MARKETCITY, No F 64, Lal Bahadur Shastri Marg, Patelwadi.Kurla, Kurla West, Kurla, Mumbai, Maharashtra 400070, India",Baby store,+91 80 4495 3389,400070.0,0,Maharashtra,"Me N Moms Phoenix Marketcity, Kurla, Mumbai",https://www.menmoms.in/
15,"Shop no7, Dosti Heritage D'Souza Nagar, 90 Feet Rd, kurla(W, Saki Naka, Mumbai, Maharashtra 400072, India",Baby store,+91 98200 77736,400072.0,6,Maharashtra,Baby care diaper enterprises,
11,"17 B/A-606, Ganga CHS, Sangharsh Nagar, Chandivali, Powai, Mumbai, Maharashtra 400072, India",Baby store,,,1,,Raj Enterprises,
10,"Shop no. 8, manek nagar, opp.Merwans cake shop Gulmohar Rd, Cross, Lokmanya Tilak Rd, Borivali West, Mumbai, Maharashtra 400092, India",Baby store,+91 91360 03603,400092.0,35,Maharashtra,Baby N Beauty,
9,"91, Galleria shopping, Main St, Hiranandani Gardens, Panchkutir Ganesh Nagar, Powai, Mumbai, Maharashtra 400076, India",Baby store,+91 99876 44736,400076.0,0,Maharashtra,Kaddly the little baby shop,https://www.facebook.com/kaddly/
8,"Kandivali, Laljipada, Ganesh Nagar, Kandivali West, Mumbai, Maharashtra 400067, India",Baby store,,400067.0,15,Maharashtra,Shourya Diaper Point,
7,"Shop No. 5, Munisuvrat Apartment, Mathuradas Road, Kandivali, Bhagat Colony, Kandivali West, Mumbai, Maharashtra 400067, India",Baby store,+91 91360 03602,400067.0,0,Maharashtra,New Baby N Beauty,
6,"Koyana Apartments, Sant Dnyaneshwar Rd, Shantivan, Sri Krishna Nagar, Borivali East, Mumbai, Maharashtra 400066, India",Baby store,,400066.0,0,Maharashtra,Beauty Mums & Babies,
5,"Shop No. 5, Kasturba, Cross Road No. 3, near Sai Dham Temple, Chinchpada, Borivali East, Mumbai, Maharashtra 400066, India",Baby store,+91 84519 56440,400066.0,423,Maharashtra,Asfiya Enterprises,
3,"Shop No 4, Ahimsa Marg, off New Link Road, Malad, Chincholi Bunder, Malad West, Mumbai, Maharashtra 400064, India",Baby store,+91 70459 22618,400064.0,48,Maharashtra,Sunera,
2,"Shop No 2, Bindiya Society, Ramdas Nayak Marg, Hill Rd, Bandra West, Mumbai, Maharashtra 400050, India",Baby store,+91 91671 66166,400050.0,45,Maharashtra,Baby Touch,
1,"metro station On, New Link Rd, Kandivali, Pragati Society, At, Kandivali West, Mumbai, Maharashtra 400067, India",Baby store,+91 93244 26042,400067.0,651,Maharashtra,Firstcry.com Store Mumbai Kandivali,http://www.firstcry.com/
16,"Gr Floor, C&B Square, Sangam Complex, 127, Andheri - Kurla Rd, Dr. Charatsingh Colony, S B Singh Colony, J B Nagar, Andheri (E, Mumbai, Maharashtra 400059, India",Baby store,+91 99875 49314,400059.0,23,Maharashtra,Tots & Bubbles,https://totsandbubbles.com/
40,"Akurli Rd, Kandivali, Akurli Industry Estate, Kandivali East, Mumbai, Maharashtra 400101, India",Baby store,,400101.0,0,Maharashtra,BABY EQUIPMENT STORE,
41,"211, LOTUS BUSINESS PARK, Ram Baug Road, SV Rd, near Chincholi Naka, Malad West, Mumbai, Maharashtra 400064, India",Baby store,+91 87796 57853,400064.0,37,Maharashtra,Kiddicare - Premium Baby Wipes in india,https://www.kiddicare.co.in/
42,"4Vcr+C8G Budhaya Jadhav Wadi, Saki Vihar Rd, Saki Vihar, Tunga Village, Marol, Powai, Mumbai, Maharashtra 400072, India",Baby store,+91 97689 01071,400072.0,5,Maharashtra,Zeeshan Super Diaperss,
98,"Shop No. 4, Royal House, Mathuradas Road, below Kapol Bank, Kandivali, Bhagat Colony, Kandivali West, Mumbai, Maharashtra 400067, India",Baby store,+91 98706 26343,400067.0,0,Maharashtra,Born Baby,
90,"B-105, Farid Estate Rd, Kandivali, Thakur Village, Kandivali East, Mumbai, Maharashtra 400101, India",Baby store,+91 74002 29966,400101.0,29,Maharashtra,Dumbledo,https://www.dumbledo.com/
86,"Sapphire Heights, Akurli Rd, Kandivali, Green Hills, Lokhandwala Twp, Kandivali East, Mumbai, Maharashtra 400101, India",Baby store,+91 89289 11801,400101.0,41,Maharashtra,KinderCanteen,
83,"Upper Ground Floor - 13, Sainath Plaza, Mulund Railway Station, Patil's, Pandit Jawaharlal Nehru Rd, nr. Mulund West, Mulund West, Mumbai, Maharashtra 400080, India",Baby store,+91 91372 73838,400080.0,79,Maharashtra,"Titapu, Baby & Kids Clothing Discount Store",
82,"Cooperative Housing Society, Housing Society LTD, Shop No 19, D - Wing, Shyam Kamal Road, opposite Sahakari Bhandar, Agarwal Market, Vile Parle East, Mumbai, Maharashtra 400057, India",Baby store,+91 93722 52224,400057.0,25,Maharashtra,Baby Safari,https://www.instagram.com/baby_safari__
79,"A, Agrawal Market, Shop no 3 Shyam Kamal, Tejpal Rd, opp. Dinanath Hall, Vile Parle East, Mumbai, Maharashtra 400057, India",Baby store,+91 91369 29928,400057.0,28,Maharashtra,BABIRO vile parle Mumbai,http://www.babiro.in/
77,"Shop No .18, Linkway Estate, New Link Rd, behind Hotel Green 's, next to Shakti Motors, Malad, Ram Nagar, Malad West, Mumbai, Maharashtra 400064, India",Baby store,+91 83558 06874,400064.0,83,Maharashtra,"Pink Bunny Baby Store, Malad",
76,"shop no.2, pioneer heritage resi-2, Sane Guruji Rd, next to sane guruji school, Khira Nagar, Santacruz (West), Mumbai, Maharashtra 400054, India",Baby store,+91 99308 64735,400054.0,41,Maharashtra,SUPER KIDS,
75,"L.G.8, Vaishali Arcade, Vaikunthlal Mehta Rd, next to Options Fashion Mall, Yamuna Nagar, Nehru Nagar, JVPD Scheme, Juhu, Mumbai, Maharashtra 400049, India",Baby store,+91 98195 63662,400049.0,489,Maharashtra,Green Bell,http://greenbellonline.com/
74,"KABRA AURUM, B1501, 2, opp. Venus Charitable Trust's Joggers Park, Unnat Nagar, Goregaon West, Mumbai, Maharashtra 400104, India",Baby store,+91 93200 08055,400104.0,704,Maharashtra,HOOPA Baby Store,http://www.hoopa.in/
73,"Samkeet Apartments, Sant, Sant Janabai Rd, off Hanuman Road, Navpada, Vile Parle East, Vile Parle, Mumbai, Maharashtra 400057, India",Baby store,+91 93244 91533,400057.0,38,Maharashtra,Kicks & Crawl,https://kicksandcrawl.com/
72,"Shop No. 12 & 13, Ground Floor, Kothari Mall, Swami Vivekananda Rd, Malad, Vijaykar Wadi Industrial, Vijaykar Wadi, Malad West, Mumbai, Maharashtra 400064, India",Baby store,+91 98331 45929,400064.0,32,Maharashtra,Toddlerz Heaven,
71,"No. 3, 2/16 , Unnath Nagar, Mahatma Gandhi Rd, opp. Nutan Oil, Goregaon West, Mumbai, Maharashtra 400104, India",Baby store,+91 88798 47276,400104.0,16,Maharashtra,Mini world Baby Store,
69,"Shop No. A/12, Natraj Market, SV Rd, Malad, Vijaykar Wadi Industrial, Vijaykar Wadi, Malad West, Mumbai, Maharashtra 400064, India",Baby store,,,35,,Mom's Baby,
67,"Natraj Market, Shop No. 22 A,(1) Durga Galli, SV Rd, Malad West, Mumbai, Maharashtra 400064, India",Baby store,+91 99879 98426,400064.0,17,Maharashtra,Kanchan Kids-Baby Care products & Kids Wear In Malad Mumbai,
65,"Shop no 18, Linkway Estate, CTS no 1093, New Link Rd, near Greens Restaurant & Bata, behind Glass House, Malad, Ram Nagar, Malad West, Mumbai, Maharashtra 400064, India",Baby store,+91 83558 06874,400064.0,1,Maharashtra,Snowhite Baby Products,
61,"108, Raheja Plaza, Off Veera Desai Rd, Industrial Area, Andheri West, Mumbai, Maharashtra 400053, India",Baby store,,400053.0,0,Maharashtra,Windmill baby,https://windmillbaby.com/
60,"Shop No.16, Road No. 19, Chembur Gaothan, Chembur, Mumbai, Maharashtra 400071, India",Baby store,+91 98678 44843,400071.0,28,Maharashtra,Festoons Nx - Little Details,
58,"SHOP NO. 4 & 5 RAMDAS NAYAK MARG ( HILL, ROAD, Bandra West, Mumbai, Maharashtra 400050, India",Baby store,+91 99203 51772,400050.0,34,Maharashtra,DESIGN TOUCH,
55,"Nav Palmyra, 101, 21st Rd, Bandra West, Mumbai, Maharashtra 400050, India",Baby store,+91 96199 95004,400050.0,0,Maharashtra,BabyLu,
54,"Shop No 02 /12 Jayi Home Buddha Vikar Society, No 01, Kurla E, Mumbai, Maharashtra 400071, India",Baby store,+91 99209 68921,400071.0,0,Maharashtra,Kgn Diaper Depot,
51,"Shop No 61, House, Hira Kumbhar Chawl, Sg Barve Marg West, Kurla W Sta Rd, near Model Talkies, Kurla West, Mumbai, Maharashtra 400024, India",Baby store,+91 99202 76846,400024.0,0,Maharashtra,Baby Care,
49,"3RJR+27W Noor baby diaper, Willingdon, santacruz (w, Mumbai, Maharashtra 400054, India",Baby store,,,0,,Santacruz west,
44,"Khan Abdul Majid Marg, Vinobha Bhave Nagar, Kurla West, Kurla, Mumbai, Maharashtra 400070, India",Baby store,+91 91175 10046,400070.0,0,Maharashtra,Miyan Store,
43,"R1, Ekta chawal, Chaitanya Nagar, Iit Market, Powai, Mumbai, Maharashtra 400076, India",Baby store,+91 88792 45806,400076.0,4,Maharashtra,Baby shine Creation,
202,"Plot N43, Road No. 3, Govandi Slums, Govandi West, Baiganwadi, Shivaji Nagar, Mumbai, Maharashtra 400043, India",Baby store,+91 90825 15345,400043.0,0,Maharashtra,Mohammad zaim,
203,"Aryan General Store, Ashok Nagar, Saki Naka, Mumbai, Maharashtra 400070, India",Baby store,+91 82912 25558,400070.0,2,Maharashtra,Sangeetadevi Bholanath Chaurasia,
712,"Road No. 6, near Me A Money, Kamalabai Nagar, Govandi Colony, Adasa Nagar, Shivaji Nagar, Mumbai, Maharashtra 400043, India",Baby store,+91 88905 19746,400043.0,0,Maharashtra,Pallavi Roy,
235,"Saibaba Nagar, Pant Nagar, Ghatkopar, Mumbai, Maharashtra 400077, India",Baby store,+91 6355 924 382,400077.0,0,Maharashtra,Priya Singh,
262,"Brahmanwadi, Kurla, Mumbai, Maharashtra 400070, India",Baby store,+91 79778 76858,400070.0,0,Maharashtra,Krishnat Store,
261,"Shop no 07, A k Road, Safed Pul, Saki Naka, Mumbai, Maharashtra 400072, India",Baby store,+91 93266 32902,400072.0,0,Maharashtra,Nandlal shop,
216,"Shop No 12, Tagore Nagar, Vikhroli East, Mumbai, Maharashtra 400083, India",Baby store,,,0,,Badri Thakur,
260,"Shop No35, G Line S Block Room, 39, Road No.5, Govandi Slums, Govandi West, Baiganwadi, Shivaji Nagar, Mumbai, Maharashtra 400043, India",Baby store,+91 88875 87835,400043.0,0,Maharashtra,Sharik Store,
232,"Plot No 13, Rd Number 9, near Bmc School, Govandi Slums, Nirankar Nagar, Govandi, Mumbai, Maharashtra 400043, India",Baby store,+91 70395 71290,400043.0,0,Maharashtra,YUVRAJ ANANDRAJ NAIDU,
258,"N3, H Line Room, Shop N3 Plot N23 Govandi, N44, Jeejabai Bhosale Marg, Govandi Slums, Shivaji Nagar, Mumbai, Maharashtra 400043, India",Baby store,+91 96960 03396,400043.0,0,Maharashtra,Rahim Store,
217,"Shop No. 11, form Road, near by Police Chowki, opp. 27No. Building, Sangharsh Nagar, Chandivali, Andheri East, Mumbai, Maharashtra 400072, India",Baby store,+91 82914 98264,400072.0,0,Maharashtra,hardik shubhechaya daiper house,
257,"Shop No 1, Jarimari, Mumbai, Maharashtra 400072, India",Baby store,+91 91676 63801,400072.0,0,Maharashtra,Abdul Kuddus Shop,
256,"Shop No Abc, Hill Pramukh Please, Veera Desai Rd, Amboli, Andheri West, Mumbai, Maharashtra 400053, India",Baby store,+91 98330 69321,400053.0,2,Maharashtra,AMBOLI HILL PRAMUKH PALACE SRA SAHAKARI GRIHA NIRMAN SANSTHA MARYADIT,
255,"shop no 7, Pipe Line Rd, Buddha Colony, Kurla West, Kurla, Mumbai, Maharashtra 400070, India",Baby store,+91 81084 43762,400070.0,0,Maharashtra,AAmrapali shop,
254,"Shop Number13 Old Vora House Opp Post Office G.P Road, Grampanchayat Rd, Goregaon West, Mumbai, Maharashtra 400104, India",Baby store,+91 77058 24559,400104.0,0,Maharashtra,Dharmendra Yadav,
251,"Nicholaswadi, Gundavali, Nicolas Wadi Rd, Jijamata Colony, Andheri East, Mumbai, Maharashtra 400069, India",Baby store,,,0,,Rajeev Chaurasiya,
250,"C/53 opp dargah Kailash puri road, Road No. 1, Malad, Chinchowali Colony, Starter Colony, Pandurang Wadi, Malad East, Mumbai, Maharashtra 400097, India",Baby store,+91 82689 17946,400097.0,0,Maharashtra,Mohd Gulfam,
247,"Shop no, shrinath sopping centre, 26, D.J.road, khoka market, Kamala Nagar, Vile Parle West, Mumbai, Maharashtra 400056, India",Baby store,+91 22 2615 3610,400056.0,1,Maharashtra,Sweet Baby,
220,"Shop No:25, Kamdhar Shopping Center, Monghibai Rd, Park Rd, Vile Parle (East), Mumbai, Maharashtra 400057, India",Baby store,+91 99307 21235,400057.0,0,Maharashtra,Scooby Baby,
246,"Shop no 1, Road No. 3, near vidyadeep vidhyalay, municipal colony, Vikhroli Park Site, Varsha Nagar, Vikhroli West, Mumbai, Maharashtra 400079, India",Baby store,+91 73033 15040,400079.0,2,Maharashtra,FAMOUS HEENA DIAPER HOUSE,
245,"Gala No 3, Jignesh Diamond House, Subhash Ln, Pethe Nagar, Primal Nagar,, Malad East, Mumbai, Maharashtra 400097, India",Baby store,+91 98190 37457,400097.0,3,Maharashtra,Dhrupti Creation,
234,"N3, Plot N45, East Road, Govandi Slums, Rafiq Nagar, A Line, Mumbai, Maharashtra 400043, India",Baby store,+91 88550 51433,400043.0,0,Maharashtra,Munna,
236,"No H Plot, Shop No 1 Line, 27, Road No. 3, Shivaji Nagar, Mumbai, Maharashtra 400043, India",Baby store,+91 86899 08242,400043.0,0,Maharashtra,Azizul Shaikh,
230,"Shop No 1, Andheri - Ghatkopar Link Rd, Bhatwadi, Kapol wadi, Ghatkopar West, Mumbai, Maharashtra 400086, India",Baby store,,,0,,Priya Rav,
241,"Sindhi Camp, Nehru Nagar, Kurla, Mumbai, Maharashtra 400024, India",Baby store,+91 91674 64880,400024.0,0,Maharashtra,Armik Store,
229,"Shop No 1, Andheri - Ghatkopar Link Rd, TPS Colony, Ghatkopar West, Mumbai, Maharashtra 400086, India",Baby store,+91 89558 14311,400086.0,0,Maharashtra,Kavita,
228,"Shop No 01, CGS Colony, Ghatkopar West, Mumbai, Maharashtra 400086, India",Baby store,+91 73839 39358,400086.0,0,Maharashtra,Seljio,
214,"3WW6+8C5 Gavdevi, Sainath Nagar, Indira Nagar, Ghatkopar West, Mumbai, Maharashtra 400086, India",Baby store,+91 99207 11716,,0,,Afsara Harcatting Saylun,
227,"Room No 68, H Block, Sai Baba Mandir, Shop No 6, Govandi Slums, Rafiq Nagar, Mumbai, Maharashtra 400043, India",Baby store,+91 90289 65664,400043.0,0,Maharashtra,Shaukat Store,
225,"Unnat Nagar, 19/160, Mahatma Gandhi Rd, near Jain Hospital, Motilal Nagar III, Goregaon West, Mumbai, Maharashtra 400104, India",Baby store,,400104.0,12,Maharashtra,Baby Shower Favor India,https://www.facebook.com/BabyStepsMumbai
224,"Aboli Signel, 115, Swami Vivekananda Rd, Amboli, Andheri West, Mumbai, Maharashtra 400058, India",Baby store,+91 73075 18127,400058.0,6,Maharashtra,SHARUKH KHAN,
242,"Room No 24, Babe Rahmat Msajid, S Bloc G Line, Shop N012, Rafiq Nagar, Govandi East, Mumbai, Maharashtra 400043, India",Baby store,+91 93368 46039,400043.0,0,Maharashtra,Mahafooj Store,
223,"Shop No 1gg, Andheri - Ghatkopar Link Rd, TPS Colony, Ghatkopar West, Mumbai, Maharashtra 400086, India",Baby store,+91 87583 57164,400086.0,0,Maharashtra,Anuj Kumar,
244,"Santacruz, Kolivery Village, Santacruz East, Mumbai, Maharashtra 400029, India",Baby store,+91 88797 49747,400029.0,0,Maharashtra,S.A Vegetable And Supplies,
222,"Shop 4 Jay, Chhatrapati Shivaji Maharaj Int'l Airport Rd, Santoshi Mata Nagar, Sahar Village, Andheri East, Mumbai, Maharashtra 400099, India",Baby store,+91 97022 55839,400099.0,0,Maharashtra,Rohit Pan Shop,
226,"N3 Plot N28 Road N3, Plot N28, Jeejabai Bhosale Marg, Govandi Slums, Govandi West, Phase 1, Govandi East, Mumbai, Maharashtra 400043, India",Baby store,+91 93216 78717,400043.0,0,Maharashtra,Shahid Store,
263,"Shop No 1, Shivaji Nagar, Mumbai, Maharashtra 400043, India",Baby store,+91 70414 73241,400043.0,0,Maharashtra,Ananya Singh,
259,"Shop No 24, Gopalji Devi Chowk, H D Road, Bhatwadi, Kapol wadi, Ghatkopar West, Mumbai, Maharashtra 400086, India",Baby store,+91 76669 96986,400086.0,0,Maharashtra,World Fashion,
287,"Shop No 1019 Chawl No 127, No 7, MHB Colony, Gaikwad Nagar, Malvani, Malad West, Mumbai, Maharashtra 400095, India",Baby store,+91 98700 23359,400095.0,0,Maharashtra,Mamma's Choice Enterprises,
279,"Shop N0 30, Babe Rahmta Masjid, Plot NO 64, Baba Nagar Rd, Rafiq Nagar, Shivaji Nagar, Mumbai, Maharashtra 400043, India",Baby store,+91 90101 87083,400043.0,0,Maharashtra,Sakina Store,
281,"Nobel Hygiene Pvt Ltd (c/o DSA Electro Control Pvt Ltd A20, Cross Rd, MIDC Central Rd, Mulgaon, Andheri East, Mumbai, Maharashtra 400093, India",Baby store,+91 1800 266 0640,400093.0,2,Maharashtra,Teddyy Baby Diaper,https://teddyydiaper.in/
283,"Shop No,63, Rafi Nagar2, near New Kanrastaan Rd, Shivaji Nagar, Naidu Colony, Pant Nagar, Malad East, Mumbai, Maharashtra 400075, India",Baby store,+91 85917 17660,400075.0,0,Maharashtra,TS Store,
285,"Shop no.1, N.M/14/85, Industrial Road, Amrut Nagar, Ghatkopar West, Mumbai, Maharashtra 400086, India",Baby store,+91 75064 64630,400086.0,6,Maharashtra,Bharat Diaper House,
264,"h line/house, Shop No36, 46, 90 Feet Rd, Govandi Slums, Baiganwadi, Mumbai, Maharashtra 400043, India",Baby store,+91 81694 46300,400043.0,0,Maharashtra,Nafees Store,
288,"Shop No.48, Malik Liyaqat Hussain Marg, opp. St. Joseph School, Ambedkar Nagar, Kurla West, Kurla, Mumbai, Maharashtra 400070, India",Baby store,+91 77386 48421,400070.0,3,Maharashtra,KHAN PAMPER COLLECTION,
277,"Shop No 8, Sonawane Chawal, Station Rd, Vikhroli East, Mumbai, Maharashtra 400083, India",Baby store,+91 79777 66214,400083.0,0,Maharashtra,Hungama Collection,
289,"Shop No 4 H, Block S Line Room, Plot No 39, Road No. 8, Govandi Slums, Govandi West, Baiganwadi, Shivaji Nagar, Mumbai, Maharashtra 400043, India",Baby store,+91 97026 40975,400043.0,1,Maharashtra,Sahezad Store,
291,"Sane Guruji Nagar, Motilal Nagar III, Goregaon West, Mumbai, Maharashtra 400104, India",Baby store,,,0,Maharashtra,Mothercare,
207,"h line/house, Shop No 17 Q, Road No.5, Govandi Slums, Baiganwadi, Mumbai, Maharashtra 400043, India",Baby store,+91 76330 60514,400043.0,0,Maharashtra,Jahid Husain Shaikh Store,
292,"Shop No. c3, W Andheri Market Rd, near SV Road, Fish Market Area, Navneeth Colony, Andheri West, Mumbai, Maharashtra 400058, India",Baby store,,,1,,Khan pamper collection,
293,"Plot No, 1 & 2 Floor, Kagalwala House, 175, CST Road, behind Metro house, Kalina, Santacruz East, Mumbai, Maharashtra 400098, India",Baby store,+91 90049 76661,400098.0,0,Maharashtra,PuppetBox,https://puppetbox.in/
295,"Shop No 05, Gulshan Nagar, Behram Baug, Jogeshwari West, Mumbai, Maharashtra 400102, India",Baby store,+91 98670 61394,400102.0,3,Maharashtra,KHAN COLLECTION,
296,"Shop No 1 Pream Nagar, Teen Dongari, New Link Rd, near Sai Baba Mandir, Goregaon West, Mumbai, Maharashtra 400104, India",Baby store,+91 82861 01516,400104.0,0,Maharashtra,Mammas Choice,
290,"Ashok Heights, 1, Andheri, Mumbai, Maharashtra 400069, India",Baby store,+91 90224 70560,400069.0,1,Maharashtra,Archi R Chaurasiya,
211,"Road No. 8, Govandi Slums, Nirankar Nagar, Govandi, Mumbai, Maharashtra 400043, India",Baby store,+91 97127 70613,400043.0,0,Maharashtra,KARAN GANESH SHINDE,
233,"3W99+4PX Search Kar Do, Govandi Slums, Baiganwadi, Govandi East, Mumbai, Maharashtra 400043, India",Baby store,,,0,,Tanya Reddy,
275,"Shop 2 Room 56, Govandi Slums, Lotus Colony, Shivaji Nagar, Mumbai, Maharashtra 400043, India",Baby store,+91 93247 78205,400043.0,0,Maharashtra,Misam Store,
265,"90, Wire Gali, LBS Nagar, Lokmanya Tilak Nagar, Saki Naka, Mumbai, Maharashtra 400072, India",Baby store,+91 83693 78293,400072.0,0,Maharashtra,The daiper shop,
212,"Room No 21, Block C Line, Shop No 84 H, Rafiq Nagar, Govandi East, Mumbai, Maharashtra 400043, India",Baby store,+91 96536 76443,400043.0,0,Maharashtra,Rukhsar Shaikh Store,
267,"Shop No33A/k Block H Gali, Plot No 33, Road No. 6, Govandi Slums, Baiganwadi, Mumbai, Maharashtra 400043, India",Baby store,+91 91671 16497,400043.0,0,Maharashtra,Amjad Store,
268,"Shop No 35, Jawahar Nagar, Goregaon West, Mumbai, Maharashtra 400104, India",Baby store,+91 73094 53027,400104.0,0,Maharashtra,Ravi Tiwari,
269,"Shop 67, Jawahar Nagar, Goregaon West, Mumbai, Maharashtra 400104, India",Baby store,+91 90826 43738,400104.0,0,Maharashtra,Deepa Fabric,
266,"Room No 795, Shop 4, Plot No 13, Govandi Slums, Lotus Colony, Shivaji Nagar, Mumbai, Maharashtra 400043, India",Baby store,+91 81040 02026,400043.0,0,Maharashtra,Vasi Store,
271,"B-24, V Vidyalaya Rd, Shri Nagar, Goregaon West, Mumbai, Maharashtra 400104, India",Baby store,+91 90045 85806,400104.0,0,Maharashtra,Bimlesh,
273,"Shop No.-1, Sejal Park, Colony No 3, Bhagat Singh II, Goregaon West, Mumbai, Maharashtra 400104, India",Baby store,+91 72087 53502,400104.0,0,Maharashtra,Metro Collection,
274,"sienna tower, Lodha Fiorenza, B - 2801, Western Urban Rd, next to hub mall, Aarey Milk Colony, Goregaon, Mumbai, Maharashtra 400065, India",Baby store,+91 97698 87715,400065.0,0,Maharashtra,BabyBoo,
87,"shop no 9, gemini bulilding, Marve Rd, near st judes school paly ground, Malad, Divya Park, Jankalyan Nagar, Malad West, Mumbai, Maharashtra 400097, India",Children's clothing store,+91 90049 06182,400097.0,25,Maharashtra,Lil fly kids and new born shop,
574,"Shop no. 2, Ground, Poonam Heights, 2, Swami Vivekananda Rd, Udyog Nagar, Goregaon West, Mumbai, Maharashtra 400104, India",Children's clothing store,+91 72300 34824,400104.0,0,Maharashtra,Mumkins Kids Wear,https://www.mumkins.in/
300,"Shop No.12/13, Super Market Arcade, Monghibai Rd, Navpada, Vile Parle East, Vile Parle, Mumbai, Maharashtra 400057, India",Children's clothing store,+91 83569 68545,400057.0,72,Maharashtra,Tinytots Kids Wear,
456,"Mehtab Lane, Shop No 7 Mehtab Lane, SG Barve Marg, opposite Royal Hotel, Kurla West, Mumbai, Maharashtra 400070, India",Children's clothing store,+91 98922 42054,400070.0,3,Maharashtra,Sweeties Kids,
578,"Shop No.24 O C C Gate No.5, Malad, New Mahakali Nagar, Malvani, Malad West, Mumbai, Maharashtra 400095, India",Children's clothing store,+91 83559 70065,400095.0,3,Maharashtra,Alif Kids Wear,
50,"Bhatti Pada Rd, Battipada, Bhandup West, Mumbai, Maharashtra 400078, India",Children's clothing store,+91 97571 13515,400078.0,40,Maharashtra,"Sundaram Readymade New Born And Kids Wear, Bhandup, Mumbai",
99,"Shop Number 8, Dev Chhaya Building, Bharucha Rd, Maratha Colony, Dahisar East, Mumbai, Maharashtra 400068, India",Children's clothing store,,400068.0,11,Maharashtra,Alpa Readymade Centre,
582,"vidhyarthi bhuvan, Main Carter Rd, Chinchpada, Borivali East, Mumbai, Maharashtra 400066, India",Children's clothing store,+91 98337 77235,400066.0,8,Maharashtra,Deep sagar/best ethnicwear in mumbai,https://www.indiamart.com/deep-sagar-mumbai/
45,"PRAMILA KUTIR, 3/504, New Mill Rd, nr. Mansi Aprt, BMC Colony, Kurla West, Kurla, Mumbai, Maharashtra 400070, India",Children's clothing store,+91 98213 29868,400070.0,0,Maharashtra,Baba Baby,
59,"Shop No - F, Kamani, PHOENIX MARKETCITY, 63, Lal Bahadur Shastri Marg, Patelwadi.Kurla, Kurla West, Kurla, Mumbai, Maharashtra 400070, India",Children's clothing store,+91 22 4971 1409,400070.0,87,Maharashtra,Mothercare,https://www.mothercare.in/
585,"Jagdish Shetty Rd, Kandivali, Ganesh Nagar, Kandivali West, Mumbai, Maharashtra 400067, India",Children's clothing store,,400067.0,3,Maharashtra,Sat saheb collection Children's wear,
39,"Shop Number 1, options fashion mall ,Vile Parle Shopping Centre Vaikunthal Mehta Road, Above Sahakari Bhandar, Vile Parle West, Juhu, Mumbai, Maharashtra 400049, India",Children's clothing store,,400049.0,52,Maharashtra,BABY BELL,
95,"Shukla Shopping Centre, Main Carter Rd, opposite 3rd carter road, Chinchpada, Borivali East, Mumbai, Maharashtra 400066, India",Children's clothing store,+91 98670 27450,400066.0,181,Maharashtra,The Little Rabbits,https://d-thelittlerabbits.dotpe.in/
306,"Shop No. 56, Ground Floor, City Centre Mall, Swami Vivekananda Rd, Divyapuri CHS, Shri Nagar, Goregaon West, Mumbai, Maharashtra 400104, India",Children's clothing store,+91 98207 27527,400104.0,13,Maharashtra,Teeny Tony kids wear,
588,"Plot no 14/k, 8, Rd Number 9, Govandi Slums, Govandi West, Baiganwadi, Govandi East, Mumbai, Maharashtra 400043, India",Children's clothing store,+91 74088 19578,400043.0,25,Maharashtra,Unique kids wear,
356,"Shop Number 4 SaI NIWAS Bagwe Compound, Tembipada Rd, Bhandup West, Mumbai, Maharashtra 400078, India",Children's clothing store,+91 93234 80992,400078.0,8,Maharashtra,Me Kids ( New Born & Children Fancy Cloths),
93,"Lalji Shopping Centre, 12-13, Swami Vivekananda Rd, Gyan Nagar, Borivali West, Mumbai, Maharashtra 400092, India",Children's clothing store,+91 22 2898 0883,400092.0,86,Maharashtra,Variety Kids,
628,"Shop No .6, Kenwood Hsg. Soc, opp. Hi.Point Restaurant, Lokhandwala Complex, Andheri West, Andheri, Mumbai, Maharashtra 400053, India",Children's clothing store,+91 22 2630 1662,400053.0,0,Maharashtra,Cool Kidz,
594,"8/9, Super Shopping Complex, SV Rd, Railway Colony, Andheri West, Mumbai, Maharashtra 400058, India",Children's clothing store,,400058.0,0,Maharashtra,Honesty Stores,
598,"Shop no 8, Pearl Platinum Ajit Glass, Off, Swami Vivekananda Rd, Oshiwara, Jogeshwari West, Mumbai, Maharashtra 400102, India",Children's clothing store,+91 98190 65486,400102.0,0,Maharashtra,Uptrend Fashion - Kids Wear,
24,"Unit no sf 244 second floor Infiniti, Infiniti Malad, Malad, Mindspace, Malad West, Mumbai, Maharashtra 400064, India",Children's clothing store,+91 81699 79061,400064.0,36,Maharashtra,Adidas Kids Infinity Malad,https://www.adidas.co.in/kids
56,"3R8M+R8C, Sita Mahal, Opposite Khar Telephone Exchange, Linking Road, khar West, Mumbai, Maharashtra 400052, India",Children's clothing store,+91 22 2605 7407,400052.0,45,Maharashtra,Choose-N-Cherry Kids Wear,
459,"Plot No 16 ,Line -A,Room no - 1 , Road no 2, Bhaji Market Shivaji Nagar, Govandi East, Mumbai, Maharashtra 400043, India",Children's clothing store,,400043.0,5,Maharashtra,HAPPY KIDz COLLECTION,
492,"Shop No 54, Malad Shopping Centre,Ground Floor, SV Rd, Malad West, Mumbai, Maharashtra 400064, India",Children's clothing store,+91 98213 33663,400064.0,53,Maharashtra,Panchratna Apparel,https://www.instagram.com/panchratna.apparel?r=nametag
398,"Q/10, Plot 43, Road No. 6, Govandi Slums, Govandi West, Sai Baba Nagar, Govandi East, Mumbai, Maharashtra 400043, India",Children's clothing store,,400043.0,0,Maharashtra,HABIB GARMENTS,
429,"santacruz(w, Shop No.2 , Rajnath Singh Estate, near Sambhaji Garden, Kothu Wadi, Mumbai, Maharashtra 400054, India",Children's clothing store,+91 99095 63278,400054.0,1,Maharashtra,Yukti Fashion -Girls Wear,https://www.yuktifashion.in/
428,"120, Fashqua, Deepchand Shopping Centre, Santacruz Railway Station Rd, Bajaj Wadi, Railway Colony, Santacruz (West), Mumbai, Maharashtra 400054, India",Children's clothing store,+91 97695 95325,400054.0,12,Maharashtra,Shavli,
399,"Shop No-6&7,Milan Commercial Centre,Anuradha Co-Op Society, 2 nr, Milan Subway, Santacruz (West), Mumbai, Maharashtra 400054, India",Children's clothing store,+91 98679 75780,400054.0,16,Maharashtra,Havok Clothings,http://www.havokclothing.com/
484,"Shop No 18, Moti Building, opp. Sodawala Lane, Roshan Nagar, Borivali, W, Mumbai, Maharashtra 400092, India",Children's clothing store,+91 86558 81724,400092.0,191,Maharashtra,Mumkins Kids Wear,http://www.mumkins.in/
402,"Shop No 5, Lal Bahadur Shastri Marg, Kurla West, Kurla, Mumbai, Maharashtra 400070, India",Children's clothing store,+91 98678 18725,400070.0,2,Maharashtra,G JUNIOR,
408,"Shop no. 19, Nilkanth Market, Mahatma Ghandhi Rd, & 20, Ghatkopar East, Mumbai, Maharashtra 400077, India",Children's clothing store,+91 87793 83195,400077.0,10,Maharashtra,Viraj Children's Wear,
410,"8th floor, Eudora building, 17th Rd, Khar, Khar West, Mumbai, Maharashtra 400052, India",Children's clothing store,+91 98206 88721,400052.0,23,Maharashtra,Balsara Boutique (Frills and Flowers),
411,"504, Linking Rd, opp. Mc. Donalds, Khar West, Mumbai, Maharashtra 400052, India",Children's clothing store,+91 93245 99564,400052.0,46,Maharashtra,Selection,
507,"108, Dr DG Palkar Rd, HSG. Society, Gorai 2, Borivali West, Mumbai, Maharashtra 400091, India",Children's clothing store,,400091.0,4,Maharashtra,Roop Darshan Exclusive Kids & Ladies Ready Made & Garments,
426,"Business Suites 9, SV Rd, Saraswat Nagar, Willingdon, Santacruz (West), Mumbai, Maharashtra 400054, India",Children's clothing store,+91 77388 21102,400054.0,57,Maharashtra,Vern Kids from the House of Telon India,https://telonindia.com/
413,"3. 12/36, Kurla W Sta Rd, Brahmanwadi, Kurla, Mumbai, Maharashtra 400070, India",Children's clothing store,+91 97027 75520,400070.0,0,Maharashtra,Kids World,
423,"Shop No 2, Plot No 555, 33rd Rd, Khar, Khar West, Mumbai, Maharashtra 400052, India",Children's clothing store,+91 98670 79796,400052.0,5,Maharashtra,Masti Kids Wear,
414,"Sanitorium Ln, Bhatwadi, Kapol wadi, Pant Nagar, Ghatkopar West, Mumbai, Maharashtra 400086, India",Children's clothing store,+91 98947 51201,400086.0,1,Maharashtra,Arihant Emporium,
415,"37, Hill Rd, opp. Elco Market, Santosh Nagar, Bandra West, Mumbai, Maharashtra 400050, India",Children's clothing store,+91 99670 22325,400050.0,22,Maharashtra,Dots,
417,"Shop No.3, Roshan House,plot Nbr 130 35th Road, Old Khar, Khar Rd, W, Mumbai, Maharashtra 400052, India",Children's clothing store,+91 97027 82045,400052.0,3,Maharashtra,Krishna Collection (Children wear),http://www.krishnacollection.com/
418,"Air india, 180, Kalina Kurla Rd, opposite union bank, Santacruz, Mumbai, Vidya Nagari, Kalina, e, Mumbai, Maharashtra 400098, India",Children's clothing store,+91 86919 07005,400098.0,1,Maharashtra,Deepak Stores,
568,"Room no. 04, Khalil Chawl, Mahatma Gandhi Rd, near S.T. Depot, Sukarwadi, Borivali East, Mumbai, Maharashtra 400066, India",Children's clothing store,+91 788 064 0226,400066.0,1,Maharashtra,Ashirwad Creation,https://www.ashirvadcreations.in/
495,"shop No. 6, New Highway Park, E-3, Kandivali, Gokul Heven, Thakur Complex, Kandivali East, Mumbai, Maharashtra 400101, India",Children's clothing store,+91 98190 91438,400101.0,2,Maharashtra,SMALL WONDER THAKUR COMPLEX,
494,"Shop no.46, new, Bhoomi Park Phase 2 Rd, Malad, Jankalyan Nagar, Malad West, Mumbai, Maharashtra 400095, India",Children's clothing store,+91 91678 89054,400095.0,15,Maharashtra,RITURAJ best kid's & new born shop,https://www.instagram.com/rituraj_apparels?igsh=bzF5M3BhZmxzZXEz
491,"Shop No.F-47/48, Moksh Plaza, SV Rd, near BORIVALI RAILWAY STATION, Mhatre Wadi, Borivali West, Mumbai, Maharashtra 400092, India",Children's clothing store,+91 79779 64134,400092.0,107,Maharashtra,Pogo Kids Wear,https://www.instagram.com/pogokidsborivali/
397,"Samhita Complex, 23, Anil Chambers Telephone Exchange, behind Saki Naka, Andheri East, Mumbai, Maharashtra 400072, India",Children's clothing store,+91 77188 54563,400072.0,0,Maharashtra,Little Clothings,http://www.littleclothings.com/
420,"B/1, Plot no 38, Road No.5, Govandi Slums, Govandi West, Adasa Nagar, Shivaji Nagar, Mumbai, Maharashtra 400043, India",Children's clothing store,+91 81089 78207,400043.0,1,Maharashtra,A.S.brothers,
394,"Shop No.6, Elchiwala Building, Mahatma Gandhi Rd, opp. Kapol Wadi, Ghatkopar West, Mumbai, Maharashtra 400086, India",Children's clothing store,+91 98702 69964,400086.0,32,Maharashtra,Saloni Kids Wear,
390,"Shop No.15, 1st Floor, East Point Mall, SG Barve Marg, Jagruti Nagar, Nehru Nagar, Kurla, Mumbai, Maharashtra 400024, India",Children's clothing store,+91 84510 61403,400024.0,41,Maharashtra,DAPP KIDS,
460,"17, C/1, Road No. 2, Govandi Slums, Govandi West, Phase 1, Shivaji Nagar, Mumbai, Maharashtra 400043, India",Children's clothing store,+91 83558 41928,400043.0,1,Maharashtra,Fatima Traders & Wholesaler,
461,"Shop no 2, Laxmi chayya building, Bhandup Station Rd, near top 10 mobile shop, Bhandup West, Mumbai, Maharashtra 400078, India",Children's clothing store,+91 97734 20641,400078.0,6,Maharashtra,Jack N Jill,
563,"Shop No:G-40, Moksh Plaza, SV Rd, Mhatre Wadi, Borivali West, Mumbai, Maharashtra 400092, India",Children's clothing store,+91 98339 98997,400092.0,0,Maharashtra,Half Ticket,
562,"GATE NO 5 SHOP, 1189, Abdul Hamid Marg, Malad, Old Collector Compound, Malvani, Malad West, Mumbai, Maharashtra 400095, India",Children's clothing store,+91 79774 70370,400095.0,0,Maharashtra,FUNKY'Z KIDS,
561,"Raghuleela Mega Mall, 104, Poisar, Kandivali West, Mumbai, Maharashtra 400067, India",Children's clothing store,+91 86521 31510,400067.0,0,Maharashtra,TERRY BERRY KID'S WEAR,
462,"Shop 38, Pipermentwala Estate, Lal Bahadur Shastri Marg, Dina Bama Estate, Bhandup West, Mumbai, Maharashtra 400078, India",Children's clothing store,+91 77383 81606,400078.0,99,Maharashtra,HanselNGretel.in,http://hanselngretel.in/
452,"Shop no, Bakhtawar Building, 4, Kalina Jama Masjid Ln, Kolivery Village, Kalina, Andheri West, Mumbai, Maharashtra 400029, India",Children's clothing store,,400029.0,19,Maharashtra,Alishba kids store,
450,"3V8H+G9J, Kurla W Sta Rd, Kurla West, Kurla, Mumbai, Maharashtra 400070, India",Children's clothing store,+91 91372 12421,400070.0,0,Maharashtra,Junior Party,
449,"Shop No.6, Myra Sadan, W, Sonapur Ln, opp. City Hospital, Kurla West, Kurla, Mumbai, Maharashtra 400070, India",Children's clothing store,+91 90822 11552,400070.0,0,Maharashtra,My Choice,
448,"Near Kapolwadi, Samavsaran Building, Mahatma Gandhi Rd, Ghatkopar West, Mumbai, Maharashtra 400086, India",Children's clothing store,+91 98195 54550,400086.0,3,Maharashtra,Rachana,http://rachanasansad.edu.in/
435,"Shop 2, Biradari Building, Mahatma Gandhi Rd, opposite बैंक ऑफ़ बरोडा, Bhatwadi, Kapol wadi, Ghatkopar West, Mumbai, Maharashtra 400086, India",Children's clothing store,+91 98211 65688,400086.0,9,Maharashtra,Chheda Readymade Store,
122,"193, CG Rd, Chembur Colony, Indira Nagar, Chembur - 74, Mumbai, Maharashtra 400074, India",Children's clothing store,+91 98678 81566,400074.0,18,Maharashtra,Cotton Stock Kid's Wear,http://www.instagram.com/cottonstockkidswear
444,"Gali no d3 plot, No 27, Govandi Slums, Govandi West, Phase 1, Shivaji Nagar, Mumbai, Maharashtra 400043, India",Children's clothing store,,400043.0,0,Maharashtra,S A KIDS FASHION,
541,"Mann Mandir Chs, New Saibaba Nagar, Hemu Colony, Sector I, Kandivali West, Mumbai, Maharashtra 400067, India",Children's clothing store,,400067.0,0,Maharashtra,J P Section,
438,"Santacruz Railway Station Rd, Near seasons showroom gate, Railway Colony, Santacruz (West), Mumbai, Maharashtra 400054, India",Children's clothing store,,400054.0,0,Maharashtra,Elegant Fashion,
474,"Lal Bahadur Shastri Marg, Amrut Nagar, Ghatkopar West, Mumbai, Maharashtra 400086, India",Children's clothing store,,400086.0,906,Maharashtra,Mia & Mio,
384,"Road No. 2, Govandi Slums, Govandi West, Phase 1, Shivaji Nagar, Mumbai, Maharashtra 400043, India",Children's clothing store,+91 82918 76331,400043.0,14,Maharashtra,Fashion World,https://www.instagram.com/fashion_world.l1?utm_source=qr&igsh=MXV5YXFmZ2J6MGMyNw==
436,"Arun bazer, Santacruz Railway Station Rd, Willingdon, Santacruz, Mumbai, Maharashtra 400054, India",Children's clothing store,,400054.0,0,Maharashtra,Kids clothes,
388,"Shop No 5, Vaidya Bungalow, Mahatma Gandhi Rd, near Oopposite Bankl Of India, Ghatkopar West, Mumbai, Maharashtra 400086, India",Children's clothing store,,400086.0,0,Maharashtra,Siddhi Kids Wear,
127,"Ground floor, UG 008, Parekh Road, Malad West, Mumbai, Maharashtra 400064, India",Children's clothing store,+91 98926 46167,400064.0,3,Maharashtra,Baby Mall,
419,"5B, 160, Mittal Industrial Estate Rd, Mittal Industrial Estate, Marol, Andheri East, Mumbai, Maharashtra 400059, India",Children's clothing store,,400059.0,90,Maharashtra,Kidipoo,http://www.kidipoo.com/
12,"gate 4, Gala no 17AB, Naupada Road, Lane, nr. Al Quba Tower, next to Naaz Hotel, Mumbai, Maharashtra 400070, India",Children's store,+91 99676 32355,400070.0,0,Maharashtra,PiK A BOO,http://pikabooindia.com/
485,"Lal Tiwari Rd, near faizane Raza masjid, Kandivali, Ganesh Nagar, Kandivali West, Mumbai, Maharashtra 400067, India",Children's store,+91 75060 25351,400067.0,0,Maharashtra,Vip kids clothing store | kandiwali |,
475,"shop no 4A, Sanghvi Square, Mahatma Gandhi Rd, opp. bank of baroda, near chadva crockery, Bhatwadi, Kapol wadi, Ghatkopar West, Mumbai, Maharashtra 400086, India",Children's store,+91 98334 65522,400086.0,28,Maharashtra,New hello tweety,
340,"Subhash Nagar, Mohili, Ghatkopar West, Mumbai, Maharashtra 400084, India",Children's store,+91 85911 90682,400084.0,2,Maharashtra,CutiePea Kids Store and More,http://www.cutiepea.in/
385,"Shop 1 2 3, Raigad Darshan, Station, below Metro Station D N Nagar, Sahayog Nagar, Bhudargarh Colony, Andheri West, Mumbai, Maharashtra 400053, India",Children's store,+91 99203 19191,400053.0,266,Maharashtra,Glory Shopee,
114,"Media Complex, St Paul, 24th Road, Bandra West, Mumbai, Maharashtra 400050, India",Children's store,+91 99872 91674,400050.0,39,Maharashtra,Pinklay Kids,https://www.pinklay.com/
112,"Shop No.03, Zaver Mahal, RB Mehta Marg, Pant Nagar, Ghatkopar East, Mumbai, Maharashtra 400077, India",Children's store,+91 98339 25575,400077.0,272,Maharashtra,Blue Tango Toys Gifts and Novelty Store,http://www.bluetango.in/
147,"Shop No 12, Ground Floor, Sanghvi Square, Mahatma Gandhi Rd, opp. Bank Of Baroda, Bhatwadi, Kapol wadi, Ghatkopar West, Mumbai, Maharashtra 400086, India",Children's store,+91 80802 11086,400086.0,252,Maharashtra,Kitty Kids Department Store,http://kittykids.catalog.to/
337,"Shop No 13, Benzer building, Lokhandwala Complex, Andheri West, Mumbai, Maharashtra 400053, India",Children's store,+91 93218 53455,400053.0,28,Maharashtra,SOFT TOT,
709,"Shop No.1, Building No.42, Anand Tower, opp. Delicious Hotel, Chembur West, Tilak Nagar, Chembur, Mumbai, Maharashtra 400089, India",Toy store,+91 98196 31390,400089.0,37,Maharashtra,Guru Krupa Novelty - Toy Store & Gift Store,https://instagram.com/gurukrupanx_
205,"Gate No 26, Chhatrapati Shivaji Maharaj International Airport Mumbai, Terminal 1 Departure, Near, Domestic Arpt Rd, Mumbai, Maharashtra 400099, India",Toy store,+91 81697 55064,400099.0,418,Maharashtra,Hamleys- The finest toy shop in the world,https://stores.hamleys.in/hamleys-the-finest-toy-shop-in-the-world-mumbai-t1c-d-airport-toy-shop-chatrapati-shivaji-demostic-airport-mumbai-299135/Home
204,"84, 670, Off, New Link Rd, Motilal Nagar III, Goregaon West, Mumbai, Maharashtra 400104, India",Toy store,+91 72082 04541,400104.0,62,Maharashtra,Anas Souq,https://www.anassouq.com/
97,"Shop No 7, Shree Vallabh, Mathuradas Road, next to param gold, opp. lijat papad Kandivali, Kandivali, Bhagat Colony, W, Mumbai, Maharashtra 400067, India",Toy store,+91 81049 95709,400067.0,233,Maharashtra,House of Toys,
284,"Level 3, Mumbai International Airport Domestic Departure, Mumbai Airport, near JW Marriot Hotel, Navpada, Vile Parle East, Vile Parle, Mumbai, Maharashtra 400072, India",Toy store,+91 93244 90256,400072.0,110,Maharashtra,Hamleys- The finest toy shop in the world,https://stores.hamleys.in/hamleys-the-finest-toy-shop-in-the-world-mumbai-international-airport-toy-shop-mumbai-airport-mumbai-299133/Home
116,"nursing home, G5, swastik Chambers, Pipe Line Rd, below Kurla, Kurla West, Mumbai, Maharashtra 400070, India",Toy store,+91 70478 74787,400070.0,63,Maharashtra,ZIZI TOYS,https://mybillbook.in/store/zizi_toys
96,"CHANDAWARKAR ROAD, Raichura Cir, opp. JOYALIKKAS JWELLERS, next to BATA SHOP, Mumbai, Maharashtra 400092, India",Toy store,+91 83698 64543,400092.0,17,Maharashtra,LITTLE WONDER NX,
376,"Shop No. 9, Embassy Building, Apna Ghar Society, Unit No. 6, near Food Inn Restaurant, Lokhandwala Complex, Andheri West, Mumbai, Maharashtra 400053, India",Toy store,+91 75068 98924,400053.0,0,Maharashtra,Harish Collection,
209,"Unit No TF302, Infiniti Mall, New Link Rd, Malad, Mindspace, Malad West, Mumbai, Maharashtra 400064, India",Toy store,+91 88798 84218,400064.0,3993,Maharashtra,Hamleys- The finest toy shop in the world,https://stores.hamleys.in/hamleys-the-finest-toy-shop-in-the-world-infiniti-malad-toy-shop-malad-west-mumbai-299153/Home
592,"Shop No1, Sanghvi Square, Mahatma Gandhi Rd, Ghatkopar, Kapol wadi, W, Mumbai, Maharashtra 400086, India",Toy store,+91 22 2510 1900,400086.0,0,Maharashtra,Twinkle Toys & Costmetic,
130,"Basant Garden, Chembur, Mumbai, Maharashtra 400071, India",Toy store,+91 81041 25204,400071.0,3,Maharashtra,Bobtail,http://www.bobtail.in/
596,"Bharat Sports Corner, Complex, Mahatma Gandhi Rd, Pant Nagar, Ghatkopar East, Mumbai, Maharashtra 400077, India",Toy store,+91 98212 80251,400077.0,303,Maharashtra,Bharat Toys,
110,"Shop no.3, Bldg, RB Mehta Marg, opp. Sweet County, Pant Nagar, Ghatkopar East, Mumbai, Maharashtra 400077, India",Toy store,+91 73041 85626,400077.0,125,Maharashtra,Blue Tango Infants & Toys Store,https://www.bluetango.in/
689,"SHOP NO.6 BLDG NO.38 GREEN APT. VAISHALI NAGAR, JOGESHWARI (W), MUMBAI-400 102 SHOP NO.6 BLDG NO.38 GREEN APT. VAISHALI NAGAR, JOGESHWARI (W), MUMBAI, Mumbai, Maharashtra 400102, India",Toy store,,400102.0,23,Maharashtra,ALFAAZ NOOR TOYS COLLECTION,
47,"1st Floor, PHOENIX MARKETCITY, Shop No F, 35B & 36, Lal Bahadur Shastri Marg, Kurla, Mumbai, Maharashtra 400070, India",Toy store,+91 70816 32328,400070.0,1933,Maharashtra,Hamleys- The finest toy shop in the world,https://stores.hamleys.in/hamleys-the-finest-toy-shop-in-the-world-toy-shop-kurla-mumbai-433026/Home
46,"2, Mahatma Gandhi Rd, opp. Datta Mandir, Motilal Nagar, Goregaon West, Mumbai, Maharashtra 400104, India",Toy store,+91 98703 88448,400104.0,658,Maharashtra,Bhavya Toys,
665,"Shop No. 9, Sargam CHS, Building No. 40, Oshiwara Mhada Complex, New Link Road Extension, near Link Plaza Commercial Complex, Oshiwara, Andheri West, Mumbai, Maharashtra 400102, India",Toy store,+91 70217 17200,400102.0,0,Maharashtra,Patel Toys & Stationers,
343,"Shop no 1A, Maneesha chs, Gandhi Nagar, Gavanpada, Mulund East, Mumbai, Maharashtra 400081, India",Toy store,+91 96193 25211,400081.0,2,Maharashtra,Mumbai toys & more,
488,"Super Shopping Complex, Shop No. 25, nadco, SV Rd, near Trupti Farsan, Andheri West, Mumbai, Maharashtra 400058, India",Toy store,+91 98677 35675,400058.0,69,Maharashtra,Big Town - toys and bag store,
62,"Shop No. 1, Plot No. 18, Swami Vivekananda Rd, near Khar Masjid, Khar, Old, Khar West, Mumbai, Maharashtra 400052, India",Toy store,+91 99878 63642,400052.0,54,Maharashtra,Little Thumbs - The Toy Store,https://www.instagram.com/littlethumbs.in?igsh=MWQ3aDZocXV4ZHgxMg==
218,"2nd floor, Oberoi Mall, No S/13, Western Express Hwy, Yashodham, Goregaon, Mumbai, Maharashtra 400063, India",Toy store,+91 88799 75172,400063.0,1609,Maharashtra,Hamleys- The finest toy shop in the world,https://stores.hamleys.in/hamleys-the-finest-toy-shop-in-the-world-oberoi-hamleys-toy-shop-goregoan-east-mumbai-299161/Home
219,"Kamla Spaces, Swami Vivekananda Rd, Santacruz, Mumbai, Hasmukh Nagar, W, Mumbai, Maharashtra 400054, India",Toy store,,400054.0,25,Maharashtra,Toys4all,http://toys4all.in/
272,"Green turtle malad west oposit infinite mall, 102b, New Link Rd, near D-Mart & Infinity Mall, Malad, Ekta Nagar, Malad(W, Mumbai, Maharashtra 400064, India",Toy store,+91 99300 47505,400064.0,65,Maharashtra,GREENTURTLE,https://www.greenturtle.store/
617,"No -01, 168/1339, Db More Marg, Kala Galli, Motilal Nagar I, Goregaon West, Mumbai, Maharashtra 400104, India",Toy store,+91 87796 57838,400104.0,21,Maharashtra,Laxmi Agency,
481,"1st Floor, Cots and Cuddles, 24, Swami Vivekananda Rd, above DTDC, opposite Dream Suzuki Showroom, Mumbai, Maharashtra 400058, India",Toy store,+91 70457 15842,400058.0,350,Maharashtra,Cots and Cuddles,https://www.cotsandcuddles.com/
276,"Level 2, Arrival of CSIA, Terminal 2, CSM International Airport, Mumbai, Maharashtra 400099, India",Toy store,+91 93244 89468,400099.0,600,Maharashtra,Hamleys- The finest toy shop in the world,https://stores.hamleys.in/hamleys-the-finest-toy-shop-in-the-world-mumbai-t2a-toy-shop-csm-international-airport-mumbai-299134/Home
210,"Shop No G -1 Plot No 14 Laxmi Niwas Jawahar Nagar S.V ROAD Goregaon, West, Goregaon West, Mumbai, Maharashtra 400104, India",Toy store,+91 98201 57491,400104.0,541,Maharashtra,Riddhi Toy,
278,"Shop T21C, 3rd Floor, R City Mall, Fire Brigade, Lal Bahadur Shastri Marg, near Vikroli, Amrut Nagar, Ghatkopar West, Mumbai, Maharashtra 400086, India",Toy store,+91 22 6901 0345,400086.0,2327,Maharashtra,Hamleys- The finest toy shop in the world,https://stores.hamleys.in/hamleys-the-finest-toy-shop-in-the-world-toy-shop-ghatkopar-west-mumbai-433028/Home
141,"Shop no. 6, shilalaya shopping center, near Natraj cinema chembur (E, Chembur West, Chembur Gaothan, Chembur, Mumbai, Maharashtra 400071, India",Toy store,+91 83559 84097,400071.0,47,Maharashtra,Ronak Toys Emporium,https://chat.whatsapp.com/J732AmJlpoEBNBdHPESRCG
602,"Shop No 4, Rushabh Apartment, Pandit Jawaharlal Nehru Rd, Gavani Pada, Sarvodaya Nagar, Mulund West, Mumbai, Maharashtra 400080, India",Toy store,+91 90829 52556,400080.0,18,Maharashtra,"Mahaveer Stationery, Toys,Games and Gifts Store",
280,"Sanmati Society, opp. Kanta apt, Sugam Society, Savitribai Phule Nagar, Pant Nagar, Ghatkopar East, Mumbai, Maharashtra 400075, India",Toy store,+91 83690 69568,400075.0,36,Maharashtra,Toy Phactory,http://www.toyphactory.com/
89,"Shop no.8, Shiv Shrushti, New Link Rd, opp. Nirman Diagnostic centre, Kandivali, Satya Nagar, Kandivali West, Mumbai, Maharashtra 400067, India",Toy store,+91 72728 84747,400067.0,914,Maharashtra,Maru Collection,http://marucollection.com/
373,"Shop No.1 Kandpile Sadan, Babanrao Kulkarni Rd, Mulund East, Mumbai, Maharashtra 400081, India",Toy store,+91 96719 99316,400081.0,0,Maharashtra,Shree Ambaji Toys,
